{"version": 0.6, "generator": "Overpass API 0.7.62.8 e802775f", "osm3s": {"timestamp_osm_base": "2025-12-02T17:53:13Z", "copyright": "The data included in this document is from www.openstreetmap.org. The data is made available under ODbL."}, "elements": [{"type": "node", "id": 540460754, "lat": -34.6259006, "lon": -58.435995, "tags": {"addr:city": "Ciudad Aut\u00f3noma de Buenos Aires", "addr:country": "AR", "addr:housenumber": "599", "addr:street": "Avenida Pedro Goyena", "contact:instagram": "https://www.instagram.com/p/B4VWfYnlks8/", "craft": "brewery", "description:cuisine": "Fusion", "email": "alvarezcerveceria@outlook.com", "name": "Cervecer\u00eda Alvarez", "takeaway": "no"}}, {"type": "node", "id": 876531175, "lat": -34.5884458, "lon": -58.4138776, "tags": {"addr:city": "Ciudad Aut\u00f3noma de Buenos Aires", "addr:country": "AR", "addr:housenumber": "3643", "addr:postcode": "C1425", "addr:street": "G\u00fcemes", "addr:suburb": "Palermo", "craft": "electronics_repair"}}, {"type": "node", "id": 1105662947, "lat": -34.5959774, "lon": -58.5117889, "tags": {"addr:city": "Ciudad Aut\u00f3noma de Buenos Aires", "addr:country": "AR", "addr:housenumber": "4370", "addr:postcode": "1419", "addr:street": "Fern\u00e1ndez de Enciso", "contact:facebook": "https://www.facebook.com/lebleofical/", "contact:instagram": "https://www.instagram.com/lebleoficial/", "contact:twitter": "https://twitter.com/lebleoficial/", "craft": "brewery", "internet_access": "wlan", "internet_access:fee": "no", "name": "Temple Craft Devoto", "outdoor_seating": "yes", "takeaway": "yes"}}, {"type": "node", "id": 2261736856, "lat": -34.5624466, "lon": -58.452369, "tags": {"craft": "electronics", "name": "Service RH", "shop": "locksmith"}}, {"type": "node", "id": 2276915750, "lat": -34.5459051, "lon": -58.4586287, "tags": {"addr:city": "Ciudad Aut\u00f3noma de Buenos Aires", "addr:country": "AR", "addr:housenumber": "7328", "addr:postcode": "1429", "addr:street": "Avenida Del Libertador", "addr:suburb": "N\u00fa\u00f1ez", "craft": "locksmith", "name": "D'Libertador", "opening_hours": "Mo-Fr 09:00-19:00; Sa 09:00-14:00", "phone": "+54 11 4701-7304", "shop": "hardware"}}, {"type": "node", "id": 2397658414, "lat": -34.551375, "lon": -58.4659575, "tags": {"addr:city": "Ciudad Aut\u00f3noma de Buenos Aires", "addr:country": "AR", "addr:housenumber": "3371", "addr:street": "Avenida Cabildo", "addr:suburb": "N\u00fa\u00f1ez", "craft": "window_construction", "name": "Devitt Aluminio"}}, {"type": "node", "id": 2466174558, "lat": -34.5606716, "lon": -58.4537564, "tags": {"addr:city": "Ciudad Aut\u00f3noma de Buenos Aires", "addr:country": "AR", "addr:housenumber": "2092", "addr:street": "Arcos", "addr:suburb": "Belgrano", "craft": "upholsterer", "name": "Tapicer\u00eda", "shop": "interior_decoration"}}, {"type": "node", "id": 2596991906, "lat": -34.6171722, "lon": -58.5207621, "tags": {"craft": "electronics_repair", "description": "Reparacion de Notebooks celulares tablets", "electronics_repair": "computer, phone", "name": "Pop-Tech"}}, {"type": "node", "id": 2625274441, "lat": -34.6425441, "lon": -58.3717539, "tags": {"addr:city": "Ciudad Aut\u00f3noma de Buenos Aires", "addr:country": "AR", "addr:housenumber": "1115", "addr:street": "Gaspar Melchor Jovellanos", "contact:email": "budaservices@gmail.com", "craft": "electronics_repair", "description": "Especializado en consolas de videojuegos - Nintendo wii, xbox360, playstation 3, xbox one, Playstation 4", "electronics_repair": "videogame_console", "name": "Reparacion y Servicio Tecnico", "opening_hours": "Mo-Fr 10:00-18:00; Sa 10:00-13:00", "phone": "+54 11 3221-8170", "website": "http://budaservice.wix.com/bs"}}, {"type": "node", "id": 2724701417, "lat": -34.6265774, "lon": -58.3913936, "tags": {"addr:city": "Ciudad Aut\u00f3noma de Buenos Aires", "addr:country": "AR", "addr:housenumber": "1505", "addr:street": "Avenida Entre R\u00edos", "craft": "window_construction", "name": "Aberturas Entre R\u00edos"}}, {"type": "node", "id": 2776461879, "lat": -34.5757333, "lon": -58.4487943, "tags": {"addr:city": "Ciudad Aut\u00f3noma de Buenos Aires", "addr:country": "AR", "addr:housenumber": "743", "addr:postcode": "1426", "addr:street": "Zapiola", "addr:suburb": "Colegiales", "craft": "electronics_repair", "description": "Servicio T\u00e9cnico de M\u00e1quinas Herramienta, Control Num\u00e9rico, Automatizaci\u00f3n y Electr\u00f3nica Industrial.", "name": "Servicio T\u00e9cnico de M\u00e1quinas Herramienta", "phone": "+54 11 4551-9128", "website": "https://asistencia-tecnica.com.ar/"}}, {"type": "node", "id": 2780562985, "lat": -34.5975241, "lon": -58.3959428, "tags": {"addr:city": "Ciudad Aut\u00f3noma de Buenos Aires", "addr:country": "AR", "addr:housenumber": "983", "addr:street": "Ayacucho", "contact:email": "lsmkdir@hotmail.com", "contact:phone": "+54 11 6527-7553", "craft": "photographer", "description": "Fot\u00f3grafo profesional al servicio de la comunidad bitcoin. Trabajo con c\u00e1maras de alta gama para brindarles la mejor calidad en sus fotos. Servicio de reportero de bodas con im\u00e1genes frescas y llena de emociones.", "name": "Fotograf\u00eda - Alexis Gonz\u00e1lez"}}, {"type": "node", "id": 2819564044, "lat": -34.5601818, "lon": -58.459424, "tags": {"addr:city": "Ciudad Aut\u00f3noma de Buenos Aires", "addr:country": "AR", "addr:door": "43", "addr:housename": "Galer\u00eda Marga", "addr:housenumber": "2350", "addr:postcode": "C1428AAS", "addr:street": "Avenida Cabildo", "addr:suburb": "Belgrano", "craft": "electronics", "description": "Servicio Tecnico de Notebooks, Computaci\u00f3n, Celulares, Telefon\u00eda Fija, Camaras Digitales, Monitores, GPS y todo equipo electr\u00f3nico. Venta de Accesorios.", "name": "TalkNet TecnoStore", "phone": "+54 11 3221-2987; +54 9 11 6808-7536", "shop": "computer", "website": "http://talknet.com.ar/tienda/", "wheelchair": "yes"}}, {"type": "node", "id": 2873897723, "lat": -34.6248054, "lon": -58.4243169}, {"type": "node", "id": 3167945389, "lat": -34.5942377, "lon": -58.3830163, "tags": {"addr:city": "Ciudad Aut\u00f3noma de Buenos Aires", "addr:country": "AR", "addr:housenumber": "1101", "addr:street": "Cerrito", "craft": "parquet_layer", "description": "Floors and Decks", "name": "Patagonia Flooring", "phone": "+54 11 4811-4579", "website": "https://patagoniaflooring.com/"}}, {"type": "node", "id": 3282738431, "lat": -34.6643668, "lon": -58.4298174}, {"type": "node", "id": 3282738437, "lat": -34.6645928, "lon": -58.4301963}, {"type": "node", "id": 3282738459, "lat": -34.6659443, "lon": -58.4290051}, {"type": "node", "id": 3282738499, "lat": -34.6657218, "lon": -58.4286319}, {"type": "node", "id": 3346091714, "lat": -34.6220196, "lon": -58.4264775, "tags": {"addr:city": "Ciudad Aut\u00f3noma de Buenos Aires", "addr:country": "AR", "addr:street": "Avenida Independencia", "craft": "glaziery", "name": "La Vidrier\u00eda"}}, {"type": "node", "id": 3346183484, "lat": -34.6259709, "lon": -58.4339377, "tags": {"addr:city": "Ciudad Aut\u00f3noma de Buenos Aires", "addr:country": "AR", "addr:street": "Avenida Pedro Goyena", "craft": "brewery", "name": "Cervelar"}}, {"type": "node", "id": 3455724694, "lat": -34.5860494, "lon": -58.4043099, "tags": {"addr:city": "Ciudad Aut\u00f3noma de Buenos Aires", "addr:country": "AR", "addr:housenumber": "2322", "addr:street": "S\u00e1nchez de Bustamante", "craft": "electronics"}}, {"type": "node", "id": 3554416193, "lat": -34.559057, "lon": -58.4522049, "tags": {"addr:city": "Ciudad Aut\u00f3noma de Buenos Aires", "addr:country": "AR", "addr:housenumber": "2127", "addr:street": "3 de Febrero", "addr:suburb": "Belgrano", "craft": "shoemaker", "name": "Spazio Per Voi", "opening_hours": "Tu-Sa 10:00-19:00", "phone": "+54 11 4783-9829", "shop": "hairdresser"}}, {"type": "node", "id": 3638054265, "lat": -34.6110391, "lon": -58.4144439, "tags": {"craft": "carpenter", "description": "Carpinter\u00eda artesanal", "name": "Restauraci\u00f3n de Almagro"}}, {"type": "node", "id": 3712084927, "lat": -34.5585294, "lon": -58.4578047, "tags": {"addr:city": "Ciudad Aut\u00f3noma de Buenos Aires", "addr:country": "AR", "addr:housenumber": "2276", "addr:street": "Blanco Encalada", "addr:suburb": "Belgrano", "contact:email": "info@casadelacomputadora.com.ar", "contact:phone": "+54 11 4782-4916", "contact:website": "www.casadelacomputadora.com.ar", "craft": "electronics", "name": "La Casa de la Computadora", "phone": "+54 11 4782-4916", "shop": "computer"}}, {"type": "node", "id": 3735382380, "lat": -34.5859512, "lon": -58.4908843, "tags": {"craft": "gardener", "name": "el jard\u00edn de mandragora"}}, {"type": "node", "id": 3767501796, "lat": -34.5625145, "lon": -58.454587, "tags": {"addr:city": "Ciudad Aut\u00f3noma de Buenos Aires", "addr:country": "AR", "addr:housenumber": "1987", "addr:street": "Vuelta de Obligado", "addr:suburb": "Belgrano", "craft": "shoemaker", "name": "El R\u00e1pido"}}, {"type": "node", "id": 3774279233, "lat": -34.5472181, "lon": -58.4704773, "tags": {"craft": "locksmith", "name": "Maxi", "shop": "locksmith"}}, {"type": "node", "id": 3874701470, "lat": -34.5633917, "lon": -58.4612283, "tags": {"craft": "shoemaker", "name": "Belgrano Sweet"}}, {"type": "node", "id": 4119205666, "lat": -34.5558824, "lon": -58.4481192, "tags": {"craft": "electronics_repair", "description": "Servicio t\u00e9cnico Apple", "name": "Stock"}}, {"type": "node", "id": 4167717482, "lat": -34.5518574, "lon": -58.4538236, "tags": {"craft": "locksmith", "name": "Neuman", "shop": "locksmith"}}, {"type": "node", "id": 4167717579, "lat": -34.5541634, "lon": -58.4604383, "tags": {"craft": "locksmith", "shop": "hardware"}}, {"type": "node", "id": 4207514392, "lat": -34.6085833, "lon": -58.500702, "tags": {"addr:city": "Ciudad Aut\u00f3noma de Buenos Aires", "addr:country": "AR", "addr:floor": "1", "addr:housenumber": "2672", "addr:postcode": "1417", "addr:street": "Joaqu\u00edn Victor Gonz\u00e1lez", "craft": "electronics_repair", "name": "Reparaci\u00f3n JVG", "opening_hours": "Mo-Fr 10:00-20:00; Sa 10:00-14:00", "phone": "+54 11 4567-9206", "website": "https://www.facebook.com/ReparacionJVG"}}, {"type": "node", "id": 4344399025, "lat": -34.6251849, "lon": -58.4290161, "tags": {"addr:city": "Ciudad Aut\u00f3noma de Buenos Aires", "addr:country": "AR", "addr:housenumber": "123", "addr:street": "Avenida Pedro Goyena", "craft": "brewery", "fixme": "name"}}, {"type": "node", "id": 4517239395, "lat": -34.5734064, "lon": -58.4904173, "tags": {"addr:city": "Ciudad Aut\u00f3noma de Buenos Aires", "addr:country": "AR", "addr:housenumber": "2695", "addr:street": "Bucarelli", "craft": "shoemaker", "name": "Cl\u00ednica del Calzado", "phone": "+54 11 4040-8314"}}, {"type": "node", "id": 4557189188, "lat": -34.5854917, "lon": -58.4315653}, {"type": "node", "id": 4557191089, "lat": -34.5856948, "lon": -58.432289}, {"type": "node", "id": 4557191090, "lat": -34.5859979, "lon": -58.4318099}, {"type": "node", "id": 4557191091, "lat": -34.5860083, "lon": -58.4318792}, {"type": "node", "id": 4562046839, "lat": -34.5507591, "lon": -58.4525165, "tags": {"addr:city": "Ciudad Aut\u00f3noma de Buenos Aires", "addr:country": "AR", "addr:housenumber": "6655", "addr:postcode": "C1428", "addr:street": "Avenida Del Libertador", "addr:suburb": "Belgrano", "check_date": "2025-10-11", "craft": "hvac", "name": "Peisa", "shop": "yes", "website": "https://www.peisa.com.ar/"}}, {"type": "node", "id": 4567652844, "lat": -34.6382525, "lon": -58.3697167}, {"type": "node", "id": 4567652845, "lat": -34.6381612, "lon": -58.3699105}, {"type": "node", "id": 4567652846, "lat": -34.6381476, "lon": -58.3697573}, {"type": "node", "id": 4567652847, "lat": -34.6381649, "lon": -58.3697286}, {"type": "node", "id": 4567652848, "lat": -34.6382687, "lon": -58.3698964}, {"type": "node", "id": 4567697819, "lat": -34.6442312, "lon": -58.3684816, "tags": {"addr:city": "Ciudad Aut\u00f3noma de Buenos Aires", "addr:country": "AR", "addr:street": "Avenida Regimiento de Patricios", "craft": "confectionery", "name": "La Preferida"}}, {"type": "node", "id": 4568985345, "lat": -34.5589238, "lon": -58.47463, "tags": {"addr:city": "Ciudad Aut\u00f3noma de Buenos Aires", "addr:country": "AR", "addr:housenumber": "3102", "addr:street": "Avenida Doctor Ricardo Balb\u00edn", "addr:suburb": "Coghlan", "craft": "upholsterer", "description": "Dedicado a la restauraci\u00f3n de muebles antiguos", "name": "La Mandinga", "phone": "+54 11 4545-6160"}}, {"type": "node", "id": 4581793522, "lat": -34.6516057, "lon": -58.4321462}, {"type": "node", "id": 4581793523, "lat": -34.6518647, "lon": -58.4317995}, {"type": "node", "id": 4581793524, "lat": -34.6517796, "lon": -58.4317125}, {"type": "node", "id": 4581793525, "lat": -34.6515307, "lon": -58.4320592}, {"type": "node", "id": 4581793527, "lat": -34.6547939, "lon": -58.4362231}, {"type": "node", "id": 4581793528, "lat": -34.65465, "lon": -58.4360304}, {"type": "node", "id": 4581793529, "lat": -34.6548584, "lon": -58.4358005}, {"type": "node", "id": 4581793530, "lat": -34.6550023, "lon": -58.4359931}, {"type": "node", "id": 4588123331, "lat": -34.6655771, "lon": -58.4284925}, {"type": "node", "id": 4588123332, "lat": -34.6656814, "lon": -58.4286675}, {"type": "node", "id": 4588123333, "lat": -34.664611, "lon": -58.429344}, {"type": "node", "id": 4588123334, "lat": -34.6647119, "lon": -58.4295133}, {"type": "node", "id": 4589423355, "lat": -34.6494309, "lon": -58.4297568}, {"type": "node", "id": 4589423356, "lat": -34.6495014, "lon": -58.4296532}, {"type": "node", "id": 4589423357, "lat": -34.6493755, "lon": -58.4295265}, {"type": "node", "id": 4589423358, "lat": -34.6493049, "lon": -58.4296301}, {"type": "node", "id": 4600750041, "lat": -34.6331695, "lon": -58.415918, "tags": {"addr:city": "Ciudad Aut\u00f3noma de Buenos Aires", "addr:country": "AR", "addr:street": "Avenida Boedo", "craft": "hvac", "name": "Calefacci\u00f3n"}}, {"type": "node", "id": 4600750081, "lat": -34.6452211, "lon": -58.4158885, "tags": {"addr:city": "Ciudad Aut\u00f3noma de Buenos Aires", "addr:country": "AR", "addr:street": "Del Tigre", "craft": "glaziery", "name": "Vidrios y Espejos"}}, {"type": "node", "id": 4604226663, "lat": -34.6558599, "lon": -58.4023886, "tags": {"addr:city": "Ciudad Aut\u00f3noma de Buenos Aires", "addr:country": "AR", "addr:street": "Avenida Osvaldo Cruz", "craft": "carpenter", "name": "Carpinteria"}}, {"type": "node", "id": 4604227098, "lat": -34.6563135, "lon": -58.4004509, "tags": {"addr:city": "Ciudad Aut\u00f3noma de Buenos Aires", "addr:country": "AR", "addr:street": "Avenida Osvaldo Cruz", "craft": "carpenter", "name": "Carpinter\u00eda"}}, {"type": "node", "id": 4604821311, "lat": -34.6527299, "lon": -58.4089879}, {"type": "node", "id": 4604821312, "lat": -34.6527042, "lon": -58.4089543}, {"type": "node", "id": 4604821313, "lat": -34.6526463, "lon": -58.4089344}, {"type": "node", "id": 4604821314, "lat": -34.6525902, "lon": -58.4089558}, {"type": "node", "id": 4604821315, "lat": -34.6526167, "lon": -58.4090347}, {"type": "node", "id": 4614489986, "lat": -34.5561026, "lon": -58.4608416, "tags": {"craft": "dressmaker", "name": "Modista"}}, {"type": "node", "id": 4618775019, "lat": -34.5644987, "lon": -58.4820662}, {"type": "node", "id": 4618775020, "lat": -34.5645304, "lon": -58.4821304}, {"type": "node", "id": 4618775021, "lat": -34.5645928, "lon": -58.482085}, {"type": "node", "id": 4618775022, "lat": -34.564561, "lon": -58.4820208}, {"type": "node", "id": 4619015468, "lat": -34.5550306, "lon": -58.4931065}, {"type": "node", "id": 4619015469, "lat": -34.5549545, "lon": -58.4931573}, {"type": "node", "id": 4619015470, "lat": -34.5550205, "lon": -58.4932927}, {"type": "node", "id": 4619015471, "lat": -34.5550407, "lon": -58.4932835}, {"type": "node", "id": 4621162021, "lat": -34.5485744, "lon": -58.4682466, "tags": {"craft": "electronics_repair", "name": "Service de Electrodomesticos"}}, {"type": "node", "id": 4625740934, "lat": -34.539442, "lon": -58.475088, "tags": {"addr:city": "Ciudad Aut\u00f3noma de Buenos Aires", "addr:country": "AR", "addr:street": "Avenida Cabildo", "addr:suburb": "N\u00fa\u00f1ez", "craft": "watchmaker", "name": "Arheria Relojeria"}}, {"type": "node", "id": 4632527086, "lat": -34.5752947, "lon": -58.5003994, "tags": {"craft": "window_construction", "name": "Casa Vala", "shop": "doors"}}, {"type": "node", "id": 4635674134, "lat": -34.5646427, "lon": -58.4391438, "tags": {"addr:city": "Ciudad Aut\u00f3noma de Buenos Aires", "addr:country": "AR", "addr:street": "Soldado de la Independencia", "addr:suburb": "Palermo", "craft": "caterer", "name": "Mamia"}}, {"type": "node", "id": 4635674136, "lat": -34.5639719, "lon": -58.44024, "tags": {"craft": "electronics_repair", "name": "Fuselex"}}, {"type": "node", "id": 4635674143, "lat": -34.563841, "lon": -58.4404258, "tags": {"craft": "glaziery", "name": "F&H"}}, {"type": "node", "id": 4636073588, "lat": -34.5683239, "lon": -58.4354758, "tags": {"addr:city": "Ciudad Aut\u00f3noma de Buenos Aires", "addr:country": "AR", "addr:street": "Arce", "addr:suburb": "Palermo", "craft": "locksmith", "name": "D13", "shop": "electrical"}}, {"type": "node", "id": 4636181036, "lat": -34.562682, "lon": -58.4432089, "tags": {"addr:city": "Ciudad Aut\u00f3noma de Buenos Aires", "addr:country": "AR", "addr:street": "Virrey Loreto", "addr:suburb": "Belgrano", "craft": "locksmith", "name": "Ferreter\u00eda Cerrajer\u00eda", "shop": "hardware"}}, {"type": "node", "id": 4636211839, "lat": -34.555113, "lon": -58.4549565}, {"type": "node", "id": 4636211840, "lat": -34.5551638, "lon": -58.4549162}, {"type": "node", "id": 4636211841, "lat": -34.5552113, "lon": -58.4549283}, {"type": "node", "id": 4636211842, "lat": -34.5552334, "lon": -58.4549699}, {"type": "node", "id": 4636211843, "lat": -34.555177, "lon": -58.4550718}, {"type": "node", "id": 4644627669, "lat": -34.625587, "lon": -58.5097987}, {"type": "node", "id": 4644627670, "lat": -34.6256901, "lon": -58.5096638}, {"type": "node", "id": 4644627671, "lat": -34.6252461, "lon": -58.5091697}, {"type": "node", "id": 4644627672, "lat": -34.6251435, "lon": -58.5093041}, {"type": "node", "id": 4646134222, "lat": -34.5613194, "lon": -58.4580749, "tags": {"addr:city": "Ciudad Aut\u00f3noma de Buenos Aires", "addr:country": "AR", "addr:housenumber": "2453", "addr:street": "Mendoza", "addr:suburb": "Belgrano", "craft": "electronics_repair", "name": "Londiu", "survey:date": "2022-01-04", "website": "http://www.telefonialondiu.com.ar/"}}, {"type": "node", "id": 4646135441, "lat": -34.6010323, "lon": -58.4719095}, {"type": "node", "id": 4646135442, "lat": -34.6007583, "lon": -58.4718201}, {"type": "node", "id": 4646135443, "lat": -34.6008566, "lon": -58.4713719}, {"type": "node", "id": 4646135444, "lat": -34.6011321, "lon": -58.4714662}, {"type": "node", "id": 4646198912, "lat": -34.6142961, "lon": -58.4720057, "tags": {"craft": "metal_construction", "name": "Cortinas Metalicas"}}, {"type": "node", "id": 4646205001, "lat": -34.5441452, "lon": -58.4721375, "tags": {"addr:city": "Ciudad Aut\u00f3noma de Buenos Aires", "addr:country": "AR", "addr:street": "Avenida Cabildo", "addr:suburb": "Saavedra", "craft": "electronics", "name": "Audioservice"}}, {"type": "node", "id": 4649989826, "lat": -34.5846286, "lon": -58.4341021, "tags": {"addr:city": "Ciudad Aut\u00f3noma de Buenos Aires", "addr:country": "AR", "addr:street": "Avenida Juan Bautista Justo", "addr:suburb": "Palermo", "craft": "winery", "name": "Go Bar"}}, {"type": "node", "id": 4650075060, "lat": -34.5927636, "lon": -58.4418303, "tags": {"addr:city": "Ciudad Aut\u00f3noma de Buenos Aires", "addr:country": "AR", "addr:street": "Juan Ram\u00edrez de Velasco", "check_date": "2024-02-04", "craft": "glaziery", "name": "Blindex"}}, {"type": "node", "id": 4650164549, "lat": -34.5621116, "lon": -58.4916799}, {"type": "node", "id": 4650164550, "lat": -34.5621636, "lon": -58.4916408}, {"type": "node", "id": 4650164551, "lat": -34.5620794, "lon": -58.4914753}, {"type": "node", "id": 4650164552, "lat": -34.5620274, "lon": -58.4915143}, {"type": "node", "id": 4650311283, "lat": -34.5930101, "lon": -58.4420626, "tags": {"addr:city": "Ciudad Aut\u00f3noma de Buenos Aires", "addr:country": "AR", "addr:street": "Avenida Juan Bautista Justo", "craft": "glaziery", "name": "Varoce"}}, {"type": "node", "id": 4653776286, "lat": -34.589605, "lon": -58.4464236, "tags": {"addr:city": "Ciudad Aut\u00f3noma de Buenos Aires", "addr:country": "AR", "addr:street": "Avenida Dorrego", "craft": "confectionery", "name": "La Nueva Dorrego"}}, {"type": "node", "id": 4653904120, "lat": -34.5874834, "lon": -58.4399003}, {"type": "node", "id": 4653904121, "lat": -34.5875438, "lon": -58.4398206}, {"type": "node", "id": 4653904122, "lat": -34.5875985, "lon": -58.4398817}, {"type": "node", "id": 4653904123, "lat": -34.587564, "lon": -58.4399271}, {"type": "node", "id": 4653904124, "lat": -34.5875158, "lon": -58.4399365}, {"type": "node", "id": 4654288784, "lat": -34.6310712, "lon": -58.4984457}, {"type": "node", "id": 4654288785, "lat": -34.6310411, "lon": -58.4983519}, {"type": "node", "id": 4654288786, "lat": -34.6309608, "lon": -58.4984562}, {"type": "node", "id": 4654288787, "lat": -34.6310153, "lon": -58.4985183}, {"type": "node", "id": 4654616975, "lat": -34.590675, "lon": -58.5088339}, {"type": "node", "id": 4654616976, "lat": -34.590542, "lon": -58.5089556}, {"type": "node", "id": 4654616977, "lat": -34.5904738, "lon": -58.5088455}, {"type": "node", "id": 4654616978, "lat": -34.5904748, "lon": -58.5087924}, {"type": "node", "id": 4654616979, "lat": -34.5905862, "lon": -58.5086905}, {"type": "node", "id": 4656720498, "lat": -34.5857613, "lon": -58.5016094}, {"type": "node", "id": 4656998129, "lat": -34.6118176, "lon": -58.4658162, "tags": {"craft": "window_construction", "name": "Arte Azero", "source": "Reconocimiento terrestre por Kaart 2016"}}, {"type": "node", "id": 4657098574, "lat": -34.6342774, "lon": -58.522632}, {"type": "node", "id": 4657098575, "lat": -34.6342126, "lon": -58.5226554}, {"type": "node", "id": 4657098576, "lat": -34.6345083, "lon": -58.5224525}, {"type": "node", "id": 4657098577, "lat": -34.6341911, "lon": -58.5225671}, {"type": "node", "id": 4657104277, "lat": -34.5840613, "lon": -58.4898915, "tags": {"check_date": "2023-10-04", "craft": "hvac", "name": "Cristales Constituyentes", "source": "Reconocimiento terrestre por Kaart 2016"}}, {"type": "node", "id": 4657104504, "lat": -34.5861885, "lon": -58.4878968}, {"type": "node", "id": 4657104505, "lat": -34.5863289, "lon": -58.487766}, {"type": "node", "id": 4657104506, "lat": -34.5862542, "lon": -58.4876478}, {"type": "node", "id": 4657104507, "lat": -34.5861982, "lon": -58.4876353}, {"type": "node", "id": 4657104508, "lat": -34.5860881, "lon": -58.4877379}, {"type": "node", "id": 4657168285, "lat": -34.6088143, "lon": -58.482794, "tags": {"craft": "window_construction", "name": "Pippa Vidrios", "source": "Reconocimiento terrestre por Kaart 2016"}}, {"type": "node", "id": 4657306808, "lat": -34.5798116, "lon": -58.4520684}, {"type": "node", "id": 4657306809, "lat": -34.5799531, "lon": -58.4521357}, {"type": "node", "id": 4657306811, "lat": -34.5799286, "lon": -58.4522098}, {"type": "node", "id": 4657306812, "lat": -34.5797886, "lon": -58.4521436}, {"type": "node", "id": 4657306817, "lat": -34.5798733, "lon": -58.4523546, "tags": {"addr:city": "Ciudad Aut\u00f3noma de Buenos Aires", "addr:country": "AR", "addr:street": "Avenida \u00c1lvarez Thomas", "addr:suburb": "Colegiales", "craft": "window_construction", "name": "Aberturas"}}, {"type": "node", "id": 4657306849, "lat": -34.5790185, "lon": -58.4550293, "tags": {"addr:city": "Ciudad Aut\u00f3noma de Buenos Aires", "addr:country": "AR", "addr:street": "Avenida \u00c1lvarez Thomas", "addr:suburb": "Colegiales", "craft": "glaziery", "name": "Rodolfo Cristales"}}, {"type": "node", "id": 4657306854, "lat": -34.5788829, "lon": -58.4554796, "tags": {"addr:city": "Ciudad Aut\u00f3noma de Buenos Aires", "addr:country": "AR", "addr:street": "Avenida \u00c1lvarez Thomas", "addr:suburb": "Colegiales", "craft": "hvac", "name": "Refrigeraci\u00f3n"}}, {"type": "node", "id": 4657507623, "lat": -34.6121879, "lon": -58.5286196}, {"type": "node", "id": 4657507624, "lat": -34.6123012, "lon": -58.5285112}, {"type": "node", "id": 4657507625, "lat": -34.6122583, "lon": -58.528445}, {"type": "node", "id": 4657507626, "lat": -34.612145, "lon": -58.5285534}, {"type": "node", "id": 4657626513, "lat": -34.6086706, "lon": -58.4830371}, {"type": "node", "id": 4657626514, "lat": -34.6085307, "lon": -58.4830844}, {"type": "node", "id": 4657626515, "lat": -34.608519, "lon": -58.4830331}, {"type": "node", "id": 4657626516, "lat": -34.6086588, "lon": -58.4829858}, {"type": "node", "id": 4657637049, "lat": -34.6070523, "lon": -58.463786}, {"type": "node", "id": 4657637050, "lat": -34.6071117, "lon": -58.4639575}, {"type": "node", "id": 4657637051, "lat": -34.6074793, "lon": -58.4637696}, {"type": "node", "id": 4657637052, "lat": -34.6074199, "lon": -58.4635981}, {"type": "node", "id": 4657793229, "lat": -34.5721836, "lon": -58.4582953}, {"type": "node", "id": 4657793232, "lat": -34.572083, "lon": -58.4582167}, {"type": "node", "id": 4657793234, "lat": -34.5721499, "lon": -58.4583563}, {"type": "node", "id": 4657793235, "lat": -34.5718757, "lon": -58.4581405}, {"type": "node", "id": 4657793236, "lat": -34.5719078, "lon": -58.4580799}, {"type": "node", "id": 4657793239, "lat": -34.5718911, "lon": -58.4581527}, {"type": "node", "id": 4657894159, "lat": -34.5803429, "lon": -58.4518962, "tags": {"addr:city": "Ciudad Aut\u00f3noma de Buenos Aires", "addr:country": "AR", "addr:street": "Avenida \u00c1lvarez Thomas", "craft": "glaziery", "name": "Cristales Pedro"}}, {"type": "node", "id": 4657894178, "lat": -34.5795956, "lon": -58.4541588, "tags": {"addr:city": "Ciudad Aut\u00f3noma de Buenos Aires", "addr:country": "AR", "addr:street": "Avenida \u00c1lvarez Thomas", "craft": "window_construction", "name": "Aberturas San Juan"}}, {"type": "node", "id": 4657898213, "lat": -34.6205687, "lon": -58.5018317, "tags": {"craft": "locksmith", "name": "Ferreter\u00eda", "shop": "hardware"}}, {"type": "node", "id": 4657941252, "lat": -34.6125516, "lon": -58.4857884, "tags": {"craft": "hvac", "name": "Frimatic", "source": "Reconocimiento terrestre por Kaart 2016"}}, {"type": "node", "id": 4658059004, "lat": -34.5776373, "lon": -58.4730298, "tags": {"addr:city": "Ciudad Aut\u00f3noma de Buenos Aires", "addr:country": "AR", "addr:street": "Avenida \u00c1lvarez Thomas", "craft": "window_construction", "name": "Boyan"}}, {"type": "node", "id": 4658059035, "lat": -34.5759811, "lon": -58.4770087, "tags": {"addr:city": "Ciudad Aut\u00f3noma de Buenos Aires", "addr:country": "AR", "addr:housenumber": "2565", "addr:postcode": "1431", "addr:street": "Avenida \u00c1lvarez Thomas", "car:parts": "audio", "contact:facebook": "https://www.facebook.com/Infiniti-Car-138060509991293/", "craft": "upholsterer", "email": "consultas@infiniti-polarizados.com", "name": "Infiniti Car", "opening_hours": "Mo-Fr 09:00-18:00; Sa 09:00-14:00", "phone": "+54 11 2075-9527", "shop": "car_repair", "website": "http://www.infiniti-polarizados.com/"}}, {"type": "node", "id": 4658124175, "lat": -34.6138623, "lon": -58.4849831}, {"type": "node", "id": 4658124176, "lat": -34.6139088, "lon": -58.4849458}, {"type": "node", "id": 4658124177, "lat": -34.613971, "lon": -58.4850652}, {"type": "node", "id": 4658124178, "lat": -34.6139215, "lon": -58.4851017}, {"type": "node", "id": 4658173972, "lat": -34.6248333, "lon": -58.4846716, "tags": {"addr:city": "Ciudad Aut\u00f3noma de Buenos Aires", "addr:country": "AR", "addr:street": "Bah\u00eda Blanca", "craft": "blacksmith", "name": "Club del Herro"}}, {"type": "node", "id": 4658178152, "lat": -34.5636955, "lon": -58.4693098}, {"type": "node", "id": 4658178153, "lat": -34.5638732, "lon": -58.4691537}, {"type": "node", "id": 4658178156, "lat": -34.5635932, "lon": -58.4693997}, {"type": "node", "id": 4658178157, "lat": -34.563632, "lon": -58.4694648}, {"type": "node", "id": 4658178158, "lat": -34.563912, "lon": -58.4692189}, {"type": "node", "id": 4658180303, "lat": -34.6234634, "lon": -58.4822615, "tags": {"addr:city": "Ciudad Aut\u00f3noma de Buenos Aires", "addr:country": "AR", "addr:street": "Avenida Juan Bautista Justo", "craft": "electronics_repair", "name": "Konica Minolta"}}, {"type": "node", "id": 4658230749, "lat": -34.5705507, "lon": -58.4974611, "tags": {"craft": "confectionery", "name": "San Antonio", "source": "Reconocimiento terrestre por Kaart 2016"}}, {"type": "node", "id": 4660257916, "lat": -34.609146, "lon": -58.4888615, "tags": {"craft": "photographer", "name": "Christina Negri", "source": "Reconocimiento terrestre por Kaart 2016"}}, {"type": "node", "id": 4660309492, "lat": -34.592832, "lon": -58.5011184}, {"type": "node", "id": 4660309493, "lat": -34.5928771, "lon": -58.5011908}, {"type": "node", "id": 4660309494, "lat": -34.5927492, "lon": -58.5013083}, {"type": "node", "id": 4660309495, "lat": -34.5927041, "lon": -58.5012359}, {"type": "node", "id": 4660801817, "lat": -34.5535301, "lon": -58.4713759}, {"type": "node", "id": 4660801818, "lat": -34.5536135, "lon": -58.4713096}, {"type": "node", "id": 4660801819, "lat": -34.5535645, "lon": -58.4712189}, {"type": "node", "id": 4660801820, "lat": -34.5534888, "lon": -58.4713026}, {"type": "node", "id": 4660844478, "lat": -34.6197354, "lon": -58.5000503, "tags": {"craft": "shoemaker"}}, {"type": "node", "id": 4660848411, "lat": -34.6224097, "lon": -58.4967135}, {"type": "node", "id": 4660848412, "lat": -34.6223226, "lon": -58.4966054}, {"type": "node", "id": 4660848413, "lat": -34.6222942, "lon": -58.4966391}, {"type": "node", "id": 4660848414, "lat": -34.6223813, "lon": -58.4967473}, {"type": "node", "id": 4660984074, "lat": -34.6129708, "lon": -58.4926078, "tags": {"craft": "window_construction", "name": "Alfa Aberturas", "source": "Reconocimiento terrestre por Kaart 2016"}}, {"type": "node", "id": 4661146516, "lat": -34.618831, "lon": -58.501549}, {"type": "node", "id": 4661146517, "lat": -34.6187726, "lon": -58.501633}, {"type": "node", "id": 4661146518, "lat": -34.6188163, "lon": -58.5016847}, {"type": "node", "id": 4661146519, "lat": -34.6189004, "lon": -58.5016341}, {"type": "node", "id": 4661404219, "lat": -34.6049532, "lon": -58.4736335, "tags": {"addr:city": "Ciudad Aut\u00f3noma de Buenos Aires", "addr:country": "AR", "addr:street": "\u00c1lvarez Jonte", "craft": "key_cutter", "name": "Cerrajeria"}}, {"type": "node", "id": 4668551428, "lat": -34.6066913, "lon": -58.4780484, "tags": {"craft": "hvac", "name": "Mario", "source": "Reconocimiento terrestre por Kaart 2016"}}, {"type": "node", "id": 4668691189, "lat": -34.6073627, "lon": -58.4779706}, {"type": "node", "id": 4668691192, "lat": -34.6072923, "lon": -58.478028}, {"type": "node", "id": 4668691193, "lat": -34.6071812, "lon": -58.47812}, {"type": "node", "id": 4668691194, "lat": -34.6072178, "lon": -58.4781997}, {"type": "node", "id": 4668691195, "lat": -34.6073928, "lon": -58.4780683}, {"type": "node", "id": 4668709372, "lat": -34.5828961, "lon": -58.4694116}, {"type": "node", "id": 4668709373, "lat": -34.5828926, "lon": -58.4693111}, {"type": "node", "id": 4668709378, "lat": -34.5828462, "lon": -58.4694083}, {"type": "node", "id": 4668709379, "lat": -34.5828452, "lon": -58.4693113}, {"type": "node", "id": 4669639422, "lat": -34.5483339, "lon": -58.4848919}, {"type": "node", "id": 4669639423, "lat": -34.5483735, "lon": -58.4848629}, {"type": "node", "id": 4669639424, "lat": -34.5483201, "lon": -58.4847557}, {"type": "node", "id": 4669639425, "lat": -34.5482806, "lon": -58.4847847}, {"type": "node", "id": 4669914519, "lat": -34.5890319, "lon": -58.4376637, "tags": {"addr:city": "Ciudad Aut\u00f3noma de Buenos Aires", "addr:country": "AR", "addr:housenumber": "5375", "addr:street": "Avenida C\u00f3rdoba", "addr:suburb": "Palermo", "check_date": "2023-11-27", "craft": "hvac", "name": "Climastore", "website": "https://www.climastore.com.ar"}}, {"type": "node", "id": 4670217214, "lat": -34.579463, "lon": -58.4757063, "tags": {"addr:city": "Ciudad Aut\u00f3noma de Buenos Aires", "addr:country": "AR", "addr:street": "Avenida Combatientes de Malvinas", "craft": "glaziery", "name": "C y S Cristales"}}, {"type": "node", "id": 4672382361, "lat": -34.5929377, "lon": -58.3873139, "tags": {"addr:city": "Ciudad Aut\u00f3noma de Buenos Aires", "addr:country": "AR", "addr:street": "Juncal", "craft": "electronics_repair", "name": "Go Fix"}}, {"type": "node", "id": 4673084803, "lat": -34.6171851, "lon": -58.3756037, "tags": {"addr:city": "Ciudad Aut\u00f3noma de Buenos Aires", "addr:country": "AR", "addr:street": "Avenida Independencia", "craft": "window_construction", "name": "Vidrieria"}}, {"type": "node", "id": 4675107169, "lat": -34.6071045, "lon": -58.4768446, "tags": {"addr:city": "Ciudad Aut\u00f3noma de Buenos Aires", "addr:country": "AR", "addr:street": "\u00c1lvarez Jonte", "craft": "window_construction", "name": "Widrieria Paternal"}}, {"type": "node", "id": 4675107170, "lat": -34.6071689, "lon": -58.4769941}, {"type": "node", "id": 4675107171, "lat": -34.6071985, "lon": -58.4770489}, {"type": "node", "id": 4675107172, "lat": -34.6073286, "lon": -58.4769499}, {"type": "node", "id": 4675107173, "lat": -34.607295, "lon": -58.4768936}, {"type": "node", "id": 4675344894, "lat": -34.610156, "lon": -58.3733724, "tags": {"craft": "photographic_laboratory", "name": "Gatti", "shop": "optician"}}, {"type": "node", "id": 4675378259, "lat": -34.5836035, "lon": -58.4027519, "tags": {"addr:city": "Ciudad Aut\u00f3noma de Buenos Aires", "addr:country": "AR", "addr:street": "Avenida General Las Heras", "craft": "window_construction", "name": "Vidrieria Burrano"}}, {"type": "node", "id": 4675634836, "lat": -34.5993321, "lon": -58.4197188, "tags": {"addr:city": "Ciudad Aut\u00f3noma de Buenos Aires", "addr:country": "AR", "addr:street": "Lavalle", "craft": "hvac", "name": "Trane"}}, {"type": "node", "id": 4675661228, "lat": -34.5979407, "lon": -58.4240996}, {"type": "node", "id": 4675661229, "lat": -34.5979359, "lon": -58.4239233}, {"type": "node", "id": 4675661230, "lat": -34.598244, "lon": -58.423911}, {"type": "node", "id": 4675661231, "lat": -34.5982488, "lon": -58.4240873}, {"type": "node", "id": 4676809476, "lat": -34.6029976, "lon": -58.40687, "tags": {"addr:city": "Ciudad Aut\u00f3noma de Buenos Aires", "addr:country": "AR", "addr:street": "Lavalle", "craft": "window_construction", "name": "Vidrios"}}, {"type": "node", "id": 4676832867, "lat": -34.6005229, "lon": -58.4153313}, {"type": "node", "id": 4676832868, "lat": -34.6006137, "lon": -58.4153553}, {"type": "node", "id": 4676832869, "lat": -34.6005125, "lon": -58.4153892}, {"type": "node", "id": 4676832870, "lat": -34.6005902, "lon": -58.4154105}, {"type": "node", "id": 4676836885, "lat": -34.6151657, "lon": -58.3718258, "tags": {"craft": "glaziery", "name": "Espinosa Atelier", "source": "Reconocimiento terrestre por Kaart 2016"}}, {"type": "node", "id": 4676994794, "lat": -34.6009006, "lon": -58.4528304, "tags": {"check_date": "2024-06-01", "craft": "upholsterer", "name": "Casa Gelber"}}, {"type": "node", "id": 4677071676, "lat": -34.5964371, "lon": -58.4537435, "tags": {"addr:city": "Ciudad Aut\u00f3noma de Buenos Aires", "addr:country": "AR", "addr:street": "Avenida Dorrego", "craft": "electronics_repair", "name": "Soldadura"}}, {"type": "node", "id": 4677188179, "lat": -34.615867, "lon": -58.3716111, "tags": {"craft": "photographic_laboratory", "name": "Kodak Express", "source": "Reconocimiento terrestre por Kaart 2016"}}, {"type": "node", "id": 4678683129, "lat": -34.6145094, "lon": -58.5260099, "tags": {"addr:city": "Ciudad Aut\u00f3noma de Buenos Aires", "addr:country": "AR", "addr:street": "Avenida Francisco Beir\u00f3", "craft": "watchmaker", "name": "Marcel", "shop": "gun"}}, {"type": "node", "id": 4678867571, "lat": -34.6394332, "lon": -58.5126806}, {"type": "node", "id": 4678867572, "lat": -34.6394359, "lon": -58.5125915}, {"type": "node", "id": 4678867573, "lat": -34.6396276, "lon": -58.5125939}, {"type": "node", "id": 4678867574, "lat": -34.6396365, "lon": -58.5126853}, {"type": "node", "id": 4683946105, "lat": -34.6482825, "lon": -58.5080805}, {"type": "node", "id": 4683946106, "lat": -34.6483627, "lon": -58.5079758}, {"type": "node", "id": 4683946107, "lat": -34.6483233, "lon": -58.5078798}, {"type": "node", "id": 4683946108, "lat": -34.6482824, "lon": -58.5078638}, {"type": "node", "id": 4683946109, "lat": -34.6481935, "lon": -58.5079798}, {"type": "node", "id": 4684224189, "lat": -34.6407699, "lon": -58.5250532, "tags": {"addr:city": "Ciudad Aut\u00f3noma de Buenos Aires", "addr:country": "AR", "addr:street": "Carhu\u00e9", "craft": "confectionery", "name": "Bin Bin"}}, {"type": "node", "id": 4684288259, "lat": -34.6513297, "lon": -58.5136887, "tags": {"addr:city": "Ciudad Aut\u00f3noma de Buenos Aires", "addr:country": "AR", "addr:street": "Avenida Emilio Castro", "craft": "window_construction", "name": "Cerramientos de Aluminio"}}, {"type": "node", "id": 4684420271, "lat": -34.6558356, "lon": -58.507808}, {"type": "node", "id": 4684420272, "lat": -34.6558033, "lon": -58.5077593}, {"type": "node", "id": 4684420273, "lat": -34.6557332, "lon": -58.5078282}, {"type": "node", "id": 4684420274, "lat": -34.6557655, "lon": -58.5078769}, {"type": "node", "id": 4689892674, "lat": -34.6084172, "lon": -58.4182019}, {"type": "node", "id": 4689892675, "lat": -34.6084055, "lon": -58.4183643}, {"type": "node", "id": 4689892676, "lat": -34.608082, "lon": -58.4183298}, {"type": "node", "id": 4689892677, "lat": -34.6080937, "lon": -58.4181675}, {"type": "node", "id": 4689939094, "lat": -34.6084906, "lon": -58.4249591, "tags": {"addr:city": "Ciudad Aut\u00f3noma de Buenos Aires", "addr:country": "AR", "addr:street": "Avenida D\u00edaz V\u00e9lez", "craft": "transportation", "name": "El Chiche de Gasc\u00f3n"}}, {"type": "node", "id": 4697885912, "lat": -34.6576377, "lon": -58.5106338}, {"type": "node", "id": 4697885913, "lat": -34.657724, "lon": -58.5105478}, {"type": "node", "id": 4697885914, "lat": -34.6577294, "lon": -58.5104843}, {"type": "node", "id": 4697885915, "lat": -34.6577084, "lon": -58.5104531}, {"type": "node", "id": 4697885916, "lat": -34.6575932, "lon": -58.5105678}, {"type": "node", "id": 4698161561, "lat": -34.6516684, "lon": -58.4917341, "tags": {"addr:city": "Ciudad Aut\u00f3noma de Buenos Aires", "addr:country": "AR", "addr:street": "Araujo", "craft": "hvac", "name": "Morrone", "shop": "yes"}}, {"type": "node", "id": 4699496091, "lat": -34.6032398, "lon": -58.3712529, "tags": {"addr:city": "Ciudad Aut\u00f3noma de Buenos Aires", "addr:country": "AR", "addr:street": "25 de Mayo", "craft": "winery", "name": "Winery"}}, {"type": "node", "id": 4699668861, "lat": -34.604588, "lon": -58.3769022, "tags": {"addr:city": "Ciudad Aut\u00f3noma de Buenos Aires", "addr:country": "AR", "addr:street": "Sarmiento", "craft": "winery", "name": "Vinoteca EnoGarage"}}, {"type": "node", "id": 4699795514, "lat": -34.6162532, "lon": -58.4388064, "tags": {"addr:city": "Ciudad Aut\u00f3noma de Buenos Aires", "addr:country": "AR", "addr:street": "Hidalgo", "craft": "window_construction", "name": "Almat Cerramientos"}}, {"type": "node", "id": 4702276015, "lat": -34.6168135, "lon": -58.4441219, "tags": {"addr:city": "Ciudad Aut\u00f3noma de Buenos Aires", "addr:country": "AR", "addr:street": "Avellaneda", "craft": "electronics_repair", "name": "Casa Dominguez"}}, {"type": "node", "id": 4703774549, "lat": -34.6646094, "lon": -58.4901113}, {"type": "node", "id": 4703774550, "lat": -34.6647458, "lon": -58.4899325}, {"type": "node", "id": 4703774551, "lat": -34.6646682, "lon": -58.489845}, {"type": "node", "id": 4703774552, "lat": -34.6645548, "lon": -58.4899936}, {"type": "node", "id": 4703774553, "lat": -34.6645569, "lon": -58.4900521}, {"type": "node", "id": 4703774566, "lat": -34.6638731, "lon": -58.4892525, "tags": {"addr:city": "Ciudad Aut\u00f3noma de Buenos Aires", "addr:country": "AR", "addr:street": "Avenida Eva Per\u00f3n", "craft": "window_construction", "name": "Cristalum Vidrieria"}}, {"type": "node", "id": 4703818170, "lat": -34.6601023, "lon": -58.4819922}, {"type": "node", "id": 4703818175, "lat": -34.6602383, "lon": -58.4818546}, {"type": "node", "id": 4703818176, "lat": -34.6601958, "lon": -58.4817992}, {"type": "node", "id": 4703818177, "lat": -34.6600653, "lon": -58.4819286}, {"type": "node", "id": 4708640036, "lat": -34.6251579, "lon": -58.4260524, "tags": {"addr:city": "Ciudad Aut\u00f3noma de Buenos Aires", "addr:country": "AR", "addr:street": "Avenida Carlos Calvo", "craft": "glaziery", "name": "Don Lucio"}}, {"type": "node", "id": 4708640080, "lat": -34.6263485, "lon": -58.426739, "tags": {"addr:city": "Ciudad Aut\u00f3noma de Buenos Aires", "addr:country": "AR", "addr:street": "Avenida La Plata", "craft": "glaziery", "name": "Manu Cristales"}}, {"type": "node", "id": 4708648116, "lat": -34.6339995, "lon": -58.4713458, "tags": {"addr:city": "Ciudad Aut\u00f3noma de Buenos Aires", "addr:country": "AR", "addr:street": "Avenida Juan Bautista Alberdi", "craft": "window_construction", "name": "Casa San Jose"}}, {"type": "node", "id": 4708665733, "lat": -34.6360506, "lon": -58.4766529}, {"type": "node", "id": 4708665735, "lat": -34.6358792, "lon": -58.4767526}, {"type": "node", "id": 4708665736, "lat": -34.6359048, "lon": -58.4768518}, {"type": "node", "id": 4708665737, "lat": -34.6360885, "lon": -58.4767411}, {"type": "node", "id": 4708759257, "lat": -34.6393667, "lon": -58.4773492}, {"type": "node", "id": 4708759258, "lat": -34.6394918, "lon": -58.4772431}, {"type": "node", "id": 4708759259, "lat": -34.6395219, "lon": -58.4772893}, {"type": "node", "id": 4708759260, "lat": -34.6393945, "lon": -58.4774014}, {"type": "node", "id": 4708763291, "lat": -34.6247422, "lon": -58.4244646}, {"type": "node", "id": 4708763292, "lat": -34.6247997, "lon": -58.4244567}, {"type": "node", "id": 4708763293, "lat": -34.6248168, "lon": -58.424436}, {"type": "node", "id": 4708763297, "lat": -34.6247296, "lon": -58.4243277}, {"type": "node", "id": 4708958425, "lat": -34.6149205, "lon": -58.4201153, "tags": {"addr:city": "Ciudad Aut\u00f3noma de Buenos Aires", "addr:country": "AR", "addr:street": "Avenida Castro Barros", "craft": "glaziery", "fixme": "name"}}, {"type": "node", "id": 4708971787, "lat": -34.5993303, "lon": -58.3796421, "tags": {"addr:city": "Ciudad Aut\u00f3noma de Buenos Aires", "addr:country": "AR", "addr:street": "Suipacha", "craft": "tailor", "name": "Rapi Tac"}}, {"type": "node", "id": 4709185120, "lat": -34.6316976, "lon": -58.462884, "tags": {"addr:city": "Ciudad Aut\u00f3noma de Buenos Aires", "addr:country": "AR", "addr:street": "Avenida Juan Bautista Alberdi", "craft": "electronics_repair", "name": "Hogar de Repuestos"}}, {"type": "node", "id": 4709196237, "lat": -34.6337167, "lon": -58.4695054}, {"type": "node", "id": 4709196238, "lat": -34.6341087, "lon": -58.4693337}, {"type": "node", "id": 4709196239, "lat": -34.6340783, "lon": -58.469245}, {"type": "node", "id": 4709196240, "lat": -34.6336864, "lon": -58.4694139}, {"type": "node", "id": 4709243400, "lat": -34.6388347, "lon": -58.4822891}, {"type": "node", "id": 4709243403, "lat": -34.6388723, "lon": -58.4823704}, {"type": "node", "id": 4709243404, "lat": -34.638994, "lon": -58.4822932}, {"type": "node", "id": 4709243405, "lat": -34.638959, "lon": -58.4822062}, {"type": "node", "id": 4709243406, "lat": -34.6389385, "lon": -58.4823286}, {"type": "node", "id": 4709243411, "lat": -34.6389491, "lon": -58.4825367}, {"type": "node", "id": 4709243412, "lat": -34.6390255, "lon": -58.482485}, {"type": "node", "id": 4709243414, "lat": -34.6390021, "lon": -58.4826512}, {"type": "node", "id": 4709243415, "lat": -34.6390347, "lon": -58.4826511}, {"type": "node", "id": 4709243416, "lat": -34.6391335, "lon": -58.4825292}, {"type": "node", "id": 4709243417, "lat": -34.6390776, "lon": -58.4824523}, {"type": "node", "id": 4709385378, "lat": -34.6005956, "lon": -58.440175, "tags": {"addr:city": "Ciudad Aut\u00f3noma de Buenos Aires", "addr:country": "AR", "addr:street": "Avenida Ra\u00fal Scalabrini Ortiz", "brand": "Kodak", "craft": "photographic_laboratory", "name": "Servicio Digital y Fotogr\u00e1fico"}}, {"type": "node", "id": 4710799589, "lat": -34.6159741, "lon": -58.4196974, "tags": {"addr:city": "Ciudad Aut\u00f3noma de Buenos Aires", "addr:country": "AR", "addr:street": "Avenida Belgrano", "craft": "caterer", "name": "Fabrizio Catering"}}, {"type": "node", "id": 4746260869, "lat": -34.6395001, "lon": -58.5213268, "tags": {"craft": "electronics", "name": "San Jos\u00e9"}}, {"type": "node", "id": 4764351972, "lat": -34.5635031, "lon": -58.4524014, "tags": {"craft": "shoemaker"}}, {"type": "node", "id": 4774980386, "lat": -34.5593348, "lon": -58.4532704, "tags": {"craft": "shoemaker", "name": "Fix Shoe"}}, {"type": "node", "id": 4777037945, "lat": -34.5577818, "lon": -58.4535142, "tags": {"craft": "tailor"}}, {"type": "node", "id": 4791828575, "lat": -34.5522779, "lon": -58.4512224, "tags": {"addr:city": "Ciudad Aut\u00f3noma de Buenos Aires", "addr:country": "AR", "addr:housenumber": "6471", "addr:street": "Avenida Del Libertador", "addr:suburb": "Belgrano", "craft": "window_construction", "name": "Wellpack"}}, {"type": "node", "id": 4924577848, "lat": -34.5577542, "lon": -58.4484987, "tags": {"addr:city": "Ciudad Aut\u00f3noma de Buenos Aires", "addr:country": "AR", "addr:housenumber": "2061", "addr:street": "Monta\u00f1eses", "addr:suburb": "Belgrano", "craft": "shoemaker", "name": "Telemat"}}, {"type": "node", "id": 4932399134, "lat": -34.6275552, "lon": -58.4317158, "tags": {"craft": "carpenter"}}, {"type": "node", "id": 4944505490, "lat": -34.577009, "lon": -58.4376101, "tags": {"addr:city": "Ciudad Aut\u00f3noma de Buenos Aires", "addr:country": "AR", "addr:housenumber": "6086", "addr:postcode": "1425", "addr:street": "Soler", "addr:suburb": "Palermo", "contact:facebook": "https://www.facebook.com/vidrieriarmpalermo/", "craft": "glaziery", "name": "Vidrieria RM", "phone": "+54 11 4779-2637"}}, {"type": "node", "id": 4972495221, "lat": -34.5748853, "lon": -58.479005, "tags": {"addr:city": "Ciudad Aut\u00f3noma de Buenos Aires", "addr:country": "AR", "addr:housenumber": "2708", "addr:postcode": "1431", "addr:street": "Avenida \u00c1lvarez Thomas", "check_date": "2024-02-21", "craft": "glaziery", "email": "info@vidrieriajc.com.ar", "name": "Vidrier\u00eda JC", "phone": "+54 11 4523-7771", "website": "http://www.vidrieriajc.com.ar/"}}, {"type": "node", "id": 5007578333, "lat": -34.5593192, "lon": -58.4533072, "tags": {"craft": "electronics_repair", "name": "Servicio T\u00e9cnico SB"}}, {"type": "node", "id": 5008369422, "lat": -34.5788451, "lon": -58.4787078, "tags": {"addr:city": "Ciudad Aut\u00f3noma de Buenos Aires", "addr:country": "AR", "addr:housenumber": "4977", "addr:postcode": "1431", "addr:street": "La Pampa", "craft": "photographic_laboratory", "email": "labcreacolor@gmail.com", "name": "Creacolor", "phone": "+54 11 4522-6112"}}, {"type": "node", "id": 5012297433, "lat": -34.559045, "lon": -58.453222, "tags": {"addr:city": "Ciudad Aut\u00f3noma de Buenos Aires", "addr:country": "AR", "addr:housenumber": "2190", "addr:street": "Zaval\u00eda", "addr:suburb": "Belgrano", "craft": "electronics_repair", "name": "Barrancas Service"}}, {"type": "node", "id": 5023234980, "lat": -34.577134, "lon": -58.4752401, "tags": {"addr:city": "Ciudad Aut\u00f3noma de Buenos Aires", "addr:country": "AR", "addr:housenumber": "2399", "addr:postcode": "1431", "addr:street": "Avenida \u00c1lvarez Thomas", "craft": "glaziery", "description": "Portones - Aberturas - Cerramientos", "name": "Aberturas Laro", "phone": "+54 11 4521-3228"}}, {"type": "node", "id": 5041453959, "lat": -34.5779077, "lon": -58.4607771, "tags": {"addr:city": "Ciudad Aut\u00f3noma de Buenos Aires", "addr:country": "AR", "addr:housenumber": "1222", "addr:postcode": "1427", "addr:street": "Avenida Forest", "craft": "parquet_layer", "name": "Parquetera", "phone": "+54 11 4554-1962"}}, {"type": "node", "id": 5041453978, "lat": -34.5769632, "lon": -58.4612594, "tags": {"addr:city": "Ciudad Aut\u00f3noma de Buenos Aires", "addr:country": "AR", "addr:housenumber": "1289", "addr:postcode": "1427", "addr:street": "Avenida Forest", "addr:suburb": "Colegiales", "craft": "glaziery", "name": "VitraG 5", "phone": "+54 11 4554-3479", "website": "http://www.vitragtres.com/"}}, {"type": "node", "id": 5041453981, "lat": -34.5779624, "lon": -58.4603082, "tags": {"addr:city": "Ciudad Aut\u00f3noma de Buenos Aires", "addr:country": "AR", "addr:housenumber": "1203", "addr:postcode": "1427", "addr:street": "Avenida Forest", "addr:suburb": "Colegiales", "craft": "shoemaker", "name": "Miriam", "phone": "+54 11 4554-4477"}}, {"type": "node", "id": 5052256197, "lat": -34.5634708, "lon": -58.4425946, "tags": {"addr:city": "Ciudad Aut\u00f3noma de Buenos Aires", "addr:country": "AR", "addr:housenumber": "1403", "addr:postcode": "1426", "addr:street": "Avenida Luis Mar\u00eda Campos", "addr:suburb": "Belgrano", "craft": "shoemaker", "name": "El R\u00e1pido", "phone": "+54 11 4784-1767"}}, {"type": "node", "id": 5065168968, "lat": -34.5684429, "lon": -58.4371104, "tags": {"addr:city": "Ciudad Aut\u00f3noma de Buenos Aires", "addr:country": "AR", "addr:housenumber": "881", "addr:postcode": "1426", "addr:street": "Avenida Luis Mar\u00eda Campos", "addr:suburb": "Palermo", "contact:facebook": "https://www.facebook.com/inkatienda/", "craft": "handicraft", "email": "inka.tienda@gmail.com", "name": "Inka Tienda de Arte", "opening_hours": "Mo-Fr 10:00-20:00; Sa 10:30-13:00,16:00-20:00", "phone": "+54 11 4771-5449", "website": "http://www.inkatienda.com.ar/"}}, {"type": "node", "id": 5080041638, "lat": -34.6312615, "lon": -58.5252586, "tags": {"craft": "glaziery"}}, {"type": "node", "id": 5086039964, "lat": -34.5737504, "lon": -58.4325913, "tags": {"addr:city": "Ciudad Aut\u00f3noma de Buenos Aires", "addr:country": "AR", "addr:housenumber": "292", "addr:postcode": "1426", "addr:street": "Avenida Luis Mar\u00eda Campos", "addr:suburb": "Palermo", "craft": "electronics_repair", "name:signed": "no"}}, {"type": "node", "id": 5161514947, "lat": -34.6764979, "lon": -58.4678996, "tags": {"craft": "carpenter", "name": "Carpinter\u00eda Clemente"}}, {"type": "node", "id": 5244444699, "lat": -34.5608572, "lon": -58.4569666, "tags": {"addr:city": "Ciudad Aut\u00f3noma de Buenos Aires", "addr:country": "AR", "addr:housenumber": "2358", "addr:street": "Mendoza", "addr:suburb": "Belgrano", "craft": "upholsterer", "name": "Tapicer\u00eda Violeta"}}, {"type": "node", "id": 5253418349, "lat": -34.5629788, "lon": -58.4512487, "tags": {"addr:city": "Ciudad Aut\u00f3noma de Buenos Aires", "addr:country": "AR", "addr:housenumber": "2065", "addr:street": "La Pampa", "addr:suburb": "Belgrano", "craft": "electronics_repair", "name": "TecnoFix"}}, {"type": "node", "id": 5270507138, "lat": -34.6824322, "lon": -58.4201585}, {"type": "node", "id": 5270507139, "lat": -34.6823465, "lon": -58.4199819}, {"type": "node", "id": 5270507140, "lat": -34.6822705, "lon": -58.4200364}, {"type": "node", "id": 5270507141, "lat": -34.6823409, "lon": -58.4201814}, {"type": "node", "id": 5270507142, "lat": -34.6823826, "lon": -58.4201941}, {"type": "node", "id": 5307658589, "lat": -34.5589792, "lon": -58.4585288, "tags": {"addr:city": "Ciudad Aut\u00f3noma de Buenos Aires", "addr:country": "AR", "addr:housenumber": "2348", "addr:street": "Blanco Encalada", "addr:suburb": "Belgrano", "craft": "electronics_repair", "name": "Master Trend"}}, {"type": "node", "id": 5309567147, "lat": -34.5584241, "lon": -58.4579365, "tags": {"craft": "tailor", "name": "Anush", "opening_hours": "Mo-Fr 09:00-19:00"}}, {"type": "node", "id": 5309567149, "lat": -34.5580386, "lon": -58.4569323, "tags": {"craft": "tailor"}}, {"type": "node", "id": 5313753568, "lat": -34.6783339, "lon": -58.4740455, "tags": {"addr:city": "Ciudad Aut\u00f3noma de Buenos Aires", "addr:country": "AR", "addr:housenumber": "4391", "addr:street": "Murguiondo", "craft": "photographer", "name": "Luba", "operator": "Luba Producciones", "phone": "+54 11 4601-9014", "start_date": "1995"}}, {"type": "node", "id": 5313852279, "lat": -34.6801039, "lon": -58.4685863, "tags": {"addr:city": "Ciudad Aut\u00f3noma de Buenos Aires", "addr:country": "AR", "addr:housenumber": "5564", "addr:street": "Coronel Martiniano Chilavert", "craft": "electronics_repair", "name": "Servicio Tecnico", "operator": "Servicio Tecnico", "phone": "+54 11 4604-0027"}}, {"type": "node", "id": 5313917618, "lat": -34.6870855, "lon": -58.4749581, "tags": {"addr:city": "Ciudad Aut\u00f3noma de Buenos Aires", "addr:country": "AR", "addr:housenumber": "6427", "addr:street": "Avenida General Francisco Fern\u00e1ndez de La Cruz", "craft": "electronics_repair", "name": "ServiHogar", "operator": "ServiHogar", "phone": "+54 11 4638-9764", "start_date": "1978", "website": "https://facebook.com/servihogarlugano"}}, {"type": "node", "id": 5449547488, "lat": -34.5578994, "lon": -58.4432074, "tags": {"craft": "carpet_wash", "description": "Lavado de alfombras", "name": "Vapor Vac"}}, {"type": "node", "id": 5599108232, "lat": -34.601267, "lon": -58.5124874, "tags": {"addr:city": "Ciudad Aut\u00f3noma de Buenos Aires", "addr:country": "AR", "addr:housenumber": "3960", "addr:postcode": "1419", "addr:street": "Fern\u00e1ndez de Enciso", "craft": "electronics_repair", "name": "Service TV Color", "opening_hours": "Mo-Sa 08:00-18:00"}}, {"type": "node", "id": 5823540403, "lat": -34.6278654, "lon": -58.4586068}, {"type": "node", "id": 5823540404, "lat": -34.6277997, "lon": -58.4584948}, {"type": "node", "id": 5823540405, "lat": -34.6277911, "lon": -58.4583621}, {"type": "node", "id": 5823540406, "lat": -34.6277574, "lon": -58.458229}, {"type": "node", "id": 5823540407, "lat": -34.6278823, "lon": -58.458173}, {"type": "node", "id": 5823540408, "lat": -34.627982, "lon": -58.4585518}, {"type": "node", "id": 5837221606, "lat": -34.6114821, "lon": -58.4452687, "tags": {"addr:city": "Ciudad Aut\u00f3noma de Buenos Aires", "addr:country": "AR", "addr:housenumber": "807", "addr:street": "Rojas", "craft": "upholsterer", "name": "Tapiceria Norte"}}, {"type": "node", "id": 5838344667, "lat": -34.6104627, "lon": -58.4457267, "tags": {"addr:city": "Ciudad Aut\u00f3noma de Buenos Aires", "addr:country": "AR", "addr:housenumber": "915", "addr:postcode": "C1405ABO", "addr:street": "Rojas", "craft": "locksmith", "name": "Cerrajeria \"Palacios\"", "operator": "Andres", "phone": "+54 11 4433-2782"}}, {"type": "node", "id": 5895201729, "lat": -34.553498, "lon": -58.4712687}, {"type": "node", "id": 5905516427, "lat": -34.6119338, "lon": -58.5286517, "tags": {"check_date": "2023-12-27", "craft": "window_construction", "name": "Aberturas El Vasco", "opening_hours": "Mo-Fr 09:00-19:00; Sa-Su off"}}, {"type": "node", "id": 5923058985, "lat": -34.5920747, "lon": -58.3895905, "tags": {"craft": "shoemaker", "name": "Fix", "name:en": "Fix Shoe", "name:es": "Fix Shoe"}}, {"type": "node", "id": 5965410022, "lat": -34.5693914, "lon": -58.5083758, "tags": {"check_date": "2024-06-11", "craft": "upholsterer", "name": "Di Menza"}}, {"type": "node", "id": 6008882000, "lat": -34.6402468, "lon": -58.5242314, "tags": {"addr:city": "Ciudad Aut\u00f3noma de Buenos Aires", "addr:country": "AR", "addr:housenumber": "6944", "addr:street": "Coronel Ram\u00f3n Lorenzo Falc\u00f3n", "craft": "upholsterer", "description": "tapicer\u00eda", "name": "Gustavo"}}, {"type": "node", "id": 6032147964, "lat": -34.6403027, "lon": -58.5230404, "tags": {"addr:city": "Ciudad Aut\u00f3noma de Buenos Aires", "addr:country": "AR", "addr:housenumber": "6860", "addr:street": "Coronel Ram\u00f3n Lorenzo Falc\u00f3n", "craft": "locksmith", "name": "Las Tunas", "opening_hours": "24/7"}}, {"type": "node", "id": 6032152509, "lat": -34.641078, "lon": -58.5233717, "tags": {"addr:city": "Ciudad Aut\u00f3noma de Buenos Aires", "addr:country": "AR", "addr:housenumber": "168", "addr:street": "Cosqu\u00edn", "craft": "electronics_repair", "name": "Servicio T\u00e9cnico"}}, {"type": "node", "id": 6040634534, "lat": -34.6414423, "lon": -58.5247673, "tags": {"addr:city": "Ciudad Aut\u00f3noma de Buenos Aires", "addr:country": "AR", "addr:housenumber": "200", "addr:street": "Carhu\u00e9", "craft": "shoemaker", "name": "Carhu\u00e9"}}, {"type": "node", "id": 6062354233, "lat": -34.5985225, "lon": -58.4996251, "tags": {"addr:city": "Ciudad Aut\u00f3noma de Buenos Aires", "addr:country": "AR", "addr:housenumber": "3320", "addr:street": "Avenida Francisco Beir\u00f3", "craft": "electronics_repair", "name": "Service Beir\u00f3", "phone": "+54 11 45036426"}}, {"type": "node", "id": 6177714722, "lat": -34.6252659, "lon": -58.4839507, "tags": {"addr:city": "Ciudad Aut\u00f3noma de Buenos Aires", "addr:country": "AR", "addr:housenumber": "4299", "addr:postcode": "C1407FAQ", "addr:street": "Avenida Gaona", "craft": "brewery", "name": "Open Door"}}, {"type": "node", "id": 6226289084, "lat": -34.6155952, "lon": -58.4480622, "tags": {"craft": "blacksmith"}}, {"type": "node", "id": 6260206870, "lat": -34.6105297, "lon": -58.4482128, "tags": {"craft": "shoemaker"}}, {"type": "node", "id": 6306546968, "lat": -34.5837251, "lon": -58.4431963}, {"type": "node", "id": 6306546969, "lat": -34.5836938, "lon": -58.4431617}, {"type": "node", "id": 6306546973, "lat": -34.5837513, "lon": -58.4432267}, {"type": "node", "id": 6308444660, "lat": -34.5836312, "lon": -58.4433795}, {"type": "node", "id": 6308444661, "lat": -34.5835722, "lon": -58.443314}, {"type": "node", "id": 6331372614, "lat": -34.5714998, "lon": -58.4414064, "tags": {"addr:city": "Ciudad Aut\u00f3noma de Buenos Aires", "addr:housenumber": "469", "addr:postcode": "C1426", "addr:street": "Avenida Cabildo", "craft": "locksmith", "name": "M\u00e1rquez", "phone": "+54 11 4774-8158", "shop": "locksmith"}}, {"type": "node", "id": 6332064029, "lat": -34.5908911, "lon": -58.4667677, "tags": {"check_date": "2024-09-19", "craft": "stonemason", "name": "Marmoler\u00eda"}}, {"type": "node", "id": 6333424175, "lat": -34.5917916, "lon": -58.5037732, "tags": {"craft": "electronics_repair", "name": "Tecnovip"}}, {"type": "node", "id": 6338075438, "lat": -34.6398105, "lon": -58.52231, "tags": {"addr:city": "Ciudad Aut\u00f3noma de Buenos Aires", "addr:country": "AR", "addr:housenumber": "74", "addr:street": "Timoteo Gordillo", "craft": "electronics_repair", "description": "Sonido e iluminaci\u00f3n"}}, {"type": "node", "id": 6340968059, "lat": -34.6404197, "lon": -58.5222306, "tags": {"craft": "electronics_repair", "name": "Servicio T\u00e9nico"}}, {"type": "node", "id": 6360577640, "lat": -34.6335821, "lon": -58.5032018, "tags": {"craft": "brewery", "name": "Beer Time"}}, {"type": "node", "id": 6397710322, "lat": -34.6277698, "lon": -58.4583794}, {"type": "node", "id": 6397710323, "lat": -34.6278217, "lon": -58.4584853}, {"type": "node", "id": 6432893962, "lat": -34.5476279, "lon": -58.4528776, "tags": {"addr:housenumber": "1322", "addr:street": "Avenida Guillermo Udaondo", "craft": "window_construction", "name": "Forti"}}, {"type": "node", "id": 6575750578, "lat": -34.5950379, "lon": -58.5014779, "tags": {"craft": "window_construction", "name": "Romero Aberturas"}}, {"type": "node", "id": 6581743125, "lat": -34.6345299, "lon": -58.5225408}, {"type": "node", "id": 6713257691, "lat": -34.5726993, "lon": -58.4400897, "tags": {"addr:city": "Ciudad Aut\u00f3noma de Buenos Aires", "addr:country": "AR", "addr:housenumber": "324", "addr:street": "Avenida Cabildo", "addr:suburb": "Palermo", "craft": "carpenter", "name": "El carpintero Daniel", "phone": "+54 11 4771-8802", "website": "http://www.todoelarte.com"}}, {"type": "node", "id": 6751539456, "lat": -34.5421659, "lon": -58.4707075, "tags": {"craft": "shoemaker", "name": "Mari Mar"}}, {"type": "node", "id": 6803083137, "lat": -34.632818, "lon": -58.5205889, "tags": {"craft": "brewery", "name": "Lumberjack"}}, {"type": "node", "id": 6813399660, "lat": -34.5627159, "lon": -58.4432552, "tags": {"addr:city": "Ciudad Aut\u00f3noma de Buenos Aires", "addr:country": "AR", "addr:housenumber": "1582", "addr:street": "Virrey Loreto", "addr:suburb": "Belgrano", "craft": "tailor", "name": "El Carretel de la Nona"}}, {"type": "node", "id": 6927537507, "lat": -34.5583729, "lon": -58.4567532, "tags": {"craft": "upholsterer", "name": "Cristiani"}}, {"type": "node", "id": 6951940756, "lat": -34.5579966, "lon": -58.4452316, "tags": {"craft": "shoemaker", "name": "Antonio"}}, {"type": "node", "id": 6951949545, "lat": -34.557706, "lon": -58.4453716, "tags": {"craft": "tailor", "name": "Mirta"}}, {"type": "node", "id": 6951949947, "lat": -34.5574163, "lon": -58.4456225, "tags": {"craft": "electronics_repair", "shop": "hardware"}}, {"type": "node", "id": 6951957227, "lat": -34.5584812, "lon": -58.4456639, "tags": {"craft": "carpenter", "name": "Carpinter\u00eda"}}, {"type": "node", "id": 6966478561, "lat": -34.6252743, "lon": -58.4299677, "tags": {"addr:city": "Ciudad Aut\u00f3noma de Buenos Aires", "addr:country": "AR", "addr:housenumber": "199", "addr:street": "Avenida Pedro Goyena", "contact:instagram": "https://www.instagram.com/p/B4VWfYnlks8/", "craft": "brewery", "description:cuisine": "Fusion", "email": "alvarezcerveceria@outlook.com", "name": "Cervecer\u00eda Alvarez", "phone": "+54 11 5953-5764", "takeaway": "no"}}, {"type": "node", "id": 7056594171, "lat": -34.6079467, "lon": -58.3777177, "tags": {"addr:city": "Ciudad Aut\u00f3noma de Buenos Aires", "addr:country": "AR", "addr:housenumber": "51", "addr:street": "Esmeralda", "craft": "brewery", "description": "cervezer\u00eda artesanal", "name": "The Capital Beer"}}, {"type": "node", "id": 7056595175, "lat": -34.6091419, "lon": -58.3776688, "tags": {"addr:city": "Ciudad Aut\u00f3noma de Buenos Aires", "addr:country": "AR", "addr:housenumber": "78", "addr:street": "Piedras", "craft": "brewery", "description": "cervezeria", "name": "The Clover Irish Pub", "opening_hours": "Mo-Su 17:00-04:00", "phone": "+54 11 4331-9700"}}, {"type": "node", "id": 7137239672, "lat": -34.5617642, "lon": -58.4632562, "tags": {"craft": "electronics_repair", "name": "Miyagi"}}, {"type": "node", "id": 7137268775, "lat": -34.5900899, "lon": -58.5154575, "tags": {"craft": "window_construction", "name": "Milpuertasweb.com"}}, {"type": "node", "id": 7149377022, "lat": -34.6155405, "lon": -58.4009769, "tags": {"addr:city": "Ciudad Aut\u00f3noma de Buenos Aires", "addr:country": "AR", "addr:housenumber": "2392", "addr:street": "Venezuela", "craft": "dressmaker", "name": "Textil Once", "shop": "clothes"}}, {"type": "node", "id": 7156317308, "lat": -34.5692311, "lon": -58.4452552, "tags": {"addr:city": "Ciudad Aut\u00f3noma de Buenos Aires", "addr:housenumber": "2388", "addr:postcode": "C1426", "addr:street": "Teodoro Garc\u00eda", "craft": "dressmaker", "name": "El Rayo"}}, {"type": "node", "id": 7217584192, "lat": -34.5854782, "lon": -58.5018705}, {"type": "node", "id": 7217584193, "lat": -34.5853924, "lon": -58.5017331}, {"type": "node", "id": 7217584194, "lat": -34.5856754, "lon": -58.501472}, {"type": "node", "id": 7236010885, "lat": -34.6526377, "lon": -58.5070094, "tags": {"addr:city": "Ciudad Aut\u00f3noma de Buenos Aires", "addr:country": "AR", "addr:door": "4", "addr:housenumber": "1441", "addr:postcode": "C1440CNG", "addr:street": "Murguiondo", "communication:mobile_phone": "11-3572-0302", "craft": "workplace", "description": "Serigrafia. Impresiones sobre TODO tipo de material y en CUALQUIER espesor. Impresiones de hata 3 mts. x 1,60 mts. Impresion de aluminio, metales, plasticos, etc.", "email": "marcialserigrafia@yahoo.com.ar", "internet_access": "wlan", "name": "Marcial Serigraf\u00eda", "opening_hours": "Mo-Fr 09:00-16:00", "operator": "type=private", "phone": "+5491135720302", "product": "decals,serigraphy;silkscreen;screen_printing", "website": "https://www.marcial.com.ar"}}, {"type": "node", "id": 7693438850, "lat": -34.5675608, "lon": -58.4550828, "tags": {"craft": "shoemaker", "name": "Danillo"}}, {"type": "node", "id": 7693447723, "lat": -34.5833977, "lon": -58.4773998, "tags": {"craft": "window_construction", "name": "N\u00e9stor Salini"}}, {"type": "node", "id": 7741877523, "lat": -34.5701455, "lon": -58.4577202, "tags": {"addr:city": "Ciudad Aut\u00f3noma de Buenos Aires", "addr:housenumber": "2920", "addr:postcode": "C1426", "addr:street": "Avenida Elcano", "check_date": "2025-11-17", "craft": "floorer", "description": "Pulido plastificado", "name": "Elcano", "website": "https://www.plastificadoselcano.com/"}}, {"type": "node", "id": 7797489808, "lat": -34.5686547, "lon": -58.4569404, "tags": {"craft": "computer", "name": "Encoder Print", "shop": "locksmith"}}, {"type": "node", "id": 7808675192, "lat": -34.5862703, "lon": -58.4806617, "tags": {"craft": "electronics_repair", "name": "Sertronic"}}, {"type": "node", "id": 7891636568, "lat": -34.5674437, "lon": -58.4484286, "tags": {"addr:city": "Ciudad Aut\u00f3noma de Buenos Aires", "addr:housenumber": "2318", "addr:postcode": "C1426", "addr:street": "Zabala", "craft": "tailor", "name": "El Rayo"}}, {"type": "node", "id": 7895384731, "lat": -34.6026668, "lon": -58.5069125, "tags": {"craft": "upholsterer", "name": "Tapitel S.A."}}, {"type": "node", "id": 7899191490, "lat": -34.5794283, "lon": -58.4713687, "tags": {"check_date": "2023-08-27", "craft": "hvac", "name": "Crisol"}}, {"type": "node", "id": 7899196986, "lat": -34.5861597, "lon": -58.4810606, "tags": {"craft": "electronics_repair", "name": "Tele Sam"}}, {"type": "node", "id": 7899198185, "lat": -34.5814471, "lon": -58.4751192, "tags": {"craft": "electronics_repair", "name": "E Tec"}}, {"type": "node", "id": 7979359374, "lat": -34.5711553, "lon": -58.4585034, "tags": {"craft": "electronics_repair", "name": "Go Fix"}}, {"type": "node", "id": 7979366012, "lat": -34.6173289, "lon": -58.5296715, "tags": {"addr:city": "Ciudad Aut\u00f3noma de Buenos Aires", "addr:country": "AR", "addr:housenumber": "5733", "addr:street": "Avenida Francisco Beir\u00f3", "craft": "electronics_repair", "description": "Venta y reparaci\u00f3n de nebulizadores", "medical_supply": "respiratory", "name": "Nebulizador Service", "phone": "+54 11 4644-3809", "shop": "medical_supply"}}, {"type": "node", "id": 8008103959, "lat": -34.5707981, "lon": -58.4441589, "tags": {"addr:city": "Ciudad Aut\u00f3noma de Buenos Aires", "addr:housenumber": "2429", "addr:postcode": "C1426", "addr:street": "Olleros", "craft": "shoemaker", "name": "La Flecha"}}, {"type": "node", "id": 8094621110, "lat": -34.5735495, "lon": -58.4323405, "tags": {"craft": "shoemaker", "name": "Danelly"}}, {"type": "node", "id": 8298740658, "lat": -34.6542355, "lon": -58.4680705, "tags": {"addr:city": "Ciudad Aut\u00f3noma de Buenos Aires", "addr:country": "AR", "addr:housenumber": "3870", "addr:postcode": "1407", "addr:street": "Teniente General Lu\u00eds Dellepiane", "craft": "blacksmith", "name": "Herreria BR1"}}, {"type": "node", "id": 8319836707, "lat": -34.5492099, "lon": -58.5002273, "tags": {"craft": "window_construction", "name": "Aberturas"}}, {"type": "node", "id": 8426580310, "lat": -34.5880049, "lon": -58.4506845, "tags": {"addr:city": "Ciudad Aut\u00f3noma de Buenos Aires", "addr:country": "AR", "addr:housenumber": "4035", "addr:postcode": "C1427EGG", "addr:street": "Avenida Jorge Newbery", "craft": "pottery", "image": "https://photos.app.goo.gl/9fcB5LMbPWzoVeXs7", "name": "Taller Fiammante", "opening_hours": "Mo-Su 09:00-21:00", "operator": "Mart\u00edn Rolando", "phone": "+5491151617866"}}, {"type": "node", "id": 8533942411, "lat": -34.6254609, "lon": -58.5094087}, {"type": "node", "id": 8581257511, "lat": -34.56203, "lon": -58.4593138, "tags": {"addr:city": "Ciudad Aut\u00f3noma de Buenos Aires", "addr:housenumber": "2589", "addr:postcode": "C1428", "addr:street": "Mendoza", "craft": "shoemaker", "name": "Danelly"}}, {"type": "node", "id": 8633164177, "lat": -34.6359226, "lon": -58.4768411}, {"type": "node", "id": 8633190102, "lat": -34.6390988, "lon": -58.4825085}, {"type": "node", "id": 8633190103, "lat": -34.6391066, "lon": -58.4824991}, {"type": "node", "id": 8710981797, "lat": -34.6449458, "lon": -58.4398641, "tags": {"addr:city": "Ciudad Aut\u00f3noma de Buenos Aires", "addr:country": "AR", "addr:street": "Presidente Torres y Tenorio", "craft": "glaziery", "name": "Vidrieria"}}, {"type": "node", "id": 8853825657, "lat": -34.6430503, "lon": -58.5228543, "tags": {"addr:city": "Ciudad Aut\u00f3noma de Buenos Aires", "addr:country": "AR", "addr:housenumber": "332", "addr:street": "Facundo", "craft": "cleaning", "description": "Limpieza de tanques", "name": "JM Limpieza", "opening_hours": "Mo-Fr 09:00-18:00", "phone": "+54 11 39224809"}}, {"type": "node", "id": 8999352590, "lat": -34.5801919, "lon": -58.4513499, "tags": {"addr:city": "Ciudad Aut\u00f3noma de Buenos Aires", "addr:country": "AR", "addr:housenumber": "631", "addr:postcode": "C1427CCG", "addr:street": "Avenida \u00c1lvarez Thomas", "addr:suburb": "Colegiales", "contact:facebook": "https://www.facebook.com/usertecarg/", "contact:twitter": "https://twitter.com/usertecarg/", "contact:whatsapp": "+54 11 6726 1652", "craft": "electronics_repair", "description": "Service y Reparaci\u00f3n Colegiales - Belgrano", "name": "Usertec", "official_name": "Usertec ARG", "opening_hours": "Mo-Fr 09:00-13:30,15:00-17:00", "phone": "+54 11 4552 8582", "website": "https://usertec-arg.business.site/"}}, {"type": "node", "id": 9005287730, "lat": -34.6155863, "lon": -58.401821, "tags": {"craft": "window_construction", "name": "Center Aluminio"}}, {"type": "node", "id": 9121494599, "lat": -34.5604822, "lon": -58.4593662, "tags": {"craft": "electronics_repair", "name": "Aqu\u00ed Service"}}, {"type": "node", "id": 9241023689, "lat": -34.5925499, "lon": -58.3968633, "tags": {"craft": "shoemaker", "name": "Tumango"}}, {"type": "node", "id": 9291513907, "lat": -34.588128, "lon": -58.4507208}, {"type": "node", "id": 9291513908, "lat": -34.5880947, "lon": -58.4507112}, {"type": "node", "id": 9291513909, "lat": -34.5880833, "lon": -58.4507782}, {"type": "node", "id": 9291513910, "lat": -34.5881166, "lon": -58.4507878}, {"type": "node", "id": 9291513911, "lat": -34.588121, "lon": -58.4507569}, {"type": "node", "id": 9377983273, "lat": -34.5566381, "lon": -58.4788862, "tags": {"craft": "electronics_repair", "name": "Auvicom"}}, {"type": "node", "id": 9427028641, "lat": -34.5898828, "lon": -58.4795037}, {"type": "node", "id": 9427028642, "lat": -34.5898023, "lon": -58.4793678}, {"type": "node", "id": 9427028643, "lat": -34.589741, "lon": -58.4794214}, {"type": "node", "id": 9427028644, "lat": -34.5898214, "lon": -58.4795573}, {"type": "node", "id": 9427028645, "lat": -34.5898448, "lon": -58.4794395}, {"type": "node", "id": 9439550231, "lat": -34.6427259, "lon": -58.3930561}, {"type": "node", "id": 9439692700, "lat": -34.6416058, "lon": -58.3932909}, {"type": "node", "id": 9439692701, "lat": -34.6416768, "lon": -58.3935237}, {"type": "node", "id": 9439692702, "lat": -34.6416029, "lon": -58.3935357}, {"type": "node", "id": 9439692703, "lat": -34.6416425, "lon": -58.3936437}, {"type": "node", "id": 9439692704, "lat": -34.641696, "lon": -58.3936812}, {"type": "node", "id": 9439692705, "lat": -34.6428329, "lon": -58.3934606}, {"type": "node", "id": 9439692706, "lat": -34.6428673, "lon": -58.3933949}, {"type": "node", "id": 9555359660, "lat": -34.661628, "lon": -58.5079615, "tags": {"craft": "electronics_repair", "name": "MS"}}, {"type": "node", "id": 9625328423, "lat": -34.6330401, "lon": -58.5148585, "tags": {"craft": "window_construction", "name": "Senyk"}}, {"type": "node", "id": 9676011433, "lat": -34.6619573, "lon": -58.44562}, {"type": "node", "id": 9676011434, "lat": -34.6619254, "lon": -58.4455812}, {"type": "node", "id": 9676011435, "lat": -34.661918, "lon": -58.4455064}, {"type": "node", "id": 9676011436, "lat": -34.661993, "lon": -58.4454152}, {"type": "node", "id": 9676011437, "lat": -34.6620594, "lon": -58.4454959}, {"type": "node", "id": 9682912012, "lat": -34.6067158, "lon": -58.395104, "tags": {"addr:city": "Ciudad Aut\u00f3noma de Buenos Aires", "addr:country": "AR", "addr:housenumber": "228", "addr:street": "Ayacucho", "craft": "optician", "name": "\u00d3ptica Focault"}}, {"type": "node", "id": 9859382213, "lat": -34.5675267, "lon": -58.4862551, "tags": {"craft": "window_construction", "name": "Rub\u00e9n Resultado"}}, {"type": "node", "id": 9871106945, "lat": -34.5843211, "lon": -58.4776442, "tags": {"craft": "hvac", "name": "Airmax"}}, {"type": "node", "id": 9931989432, "lat": -34.599635, "lon": -58.4465009, "tags": {"craft": "hvac", "name": "RR"}}, {"type": "node", "id": 9935731430, "lat": -34.5672493, "lon": -58.4330094, "tags": {"craft": "locksmith", "name": "Digital Keys", "shop": "locksmith"}}, {"type": "node", "id": 9981830638, "lat": -34.6004469, "lon": -58.3856026, "tags": {"addr:housenumber": "1309", "addr:street": "Viamonte", "craft": "tailor", "name": "MoRaN - Camisas a medida"}}, {"type": "node", "id": 10126104937, "lat": -34.6247559, "lon": -58.4075036}, {"type": "node", "id": 10126104939, "lat": -34.6245103, "lon": -58.4073299}, {"type": "node", "id": 10126104940, "lat": -34.6247568, "lon": -58.4072777}, {"type": "node", "id": 10126104941, "lat": -34.6245325, "lon": -58.407529}, {"type": "node", "id": 10221600370, "lat": -34.6005723, "lon": -58.5113283, "tags": {"addr:city": "Ciudad Aut\u00f3noma de Buenos Aires", "addr:country": "AR", "addr:housenumber": "3430", "addr:street": "Chivilcoy", "craft": "brewery", "name": "Antares"}}, {"type": "node", "id": 10226151070, "lat": -34.5406063, "lon": -58.4722336, "tags": {"craft": "shoemaker", "name": "Andy"}}, {"type": "node", "id": 10281519289, "lat": -34.6499581, "lon": -58.5258459, "tags": {"craft": "glaziery", "name": "Daniel Pontoriero"}}, {"type": "node", "id": 10284055219, "lat": -34.6467436, "lon": -58.5039204, "tags": {"craft": "upholsterer", "name": "Dandelion"}}, {"type": "node", "id": 10296374168, "lat": -34.6155635, "lon": -58.4027595, "tags": {"craft": "blacksmith", "name": "Herrer\u00eda"}}, {"type": "node", "id": 10559846109, "lat": -34.585807, "lon": -58.4167236, "tags": {"craft": "electronics_repair", "name": "Apple servicio"}}, {"type": "node", "id": 10571945210, "lat": -34.5865151, "lon": -58.4144741, "tags": {"craft": "tailor"}}, {"type": "node", "id": 10597023505, "lat": -34.5794415, "lon": -58.4152751, "tags": {"craft": "shoemaker"}}, {"type": "node", "id": 10675449600, "lat": -34.5560978, "lon": -58.4469318, "tags": {"craft": "shoemaker", "name": "Cl\u00ednica del Calzado III"}}, {"type": "node", "id": 10779727752, "lat": -34.5934998, "lon": -58.4251055, "tags": {"addr:city": "Ciudad Aut\u00f3noma de Buenos Aires", "addr:country": "AR", "addr:housenumber": "4399", "addr:street": "Gorriti", "addr:suburb": "Palermo", "amenity": "cafe", "check_date": "2023-11-30", "craft": "bakery", "name": "Juani Caf\u00e9", "opening_hours": "09:00-20:00", "payment:cash": "yes", "payment:credit_cards": "yes", "payment:debit_cards": "yes", "payment:mastercard": "yes", "payment:visa": "yes"}}, {"type": "node", "id": 10837863405, "lat": -34.5820977, "lon": -58.4208899, "tags": {"addr:city": "Ciudad Aut\u00f3noma de Buenos Aires", "addr:country": "AR", "addr:housenumber": "2489", "addr:street": "Jorge Luis Borges", "addr:suburb": "Palermo", "craft": "photographer", "name": "Kodak Serrano"}}, {"type": "node", "id": 10845041131, "lat": -34.5544065, "lon": -58.4631986, "tags": {"craft": "electronics_repair", "name": "Service Quesada"}}, {"type": "node", "id": 10863453812, "lat": -34.5819533, "lon": -58.4210589, "tags": {"addr:city": "Ciudad Aut\u00f3noma de Buenos Aires", "addr:housenumber": "2488", "addr:postcode": "C1425", "addr:street": "Jorge Luis Borges", "craft": "electronics_repair", "mobile_phone:repair": "yes", "name": "iPhone Palermo Tech"}}, {"type": "node", "id": 10887072105, "lat": -34.5850369, "lon": -58.4126314, "tags": {"craft": "shoemaker"}}, {"type": "node", "id": 10940207463, "lat": -34.5857828, "lon": -58.4180668, "tags": {"craft": "electronics_repair", "electronics_repair": "phone"}}, {"type": "node", "id": 10996275411, "lat": -34.5951501, "lon": -58.4431396, "tags": {"craft": "shoemaker", "name": "El Gran Zapat\u00f3n"}}, {"type": "node", "id": 11006369800, "lat": -34.5806798, "lon": -58.4112868, "tags": {"addr:city": "Ciudad Aut\u00f3noma de Buenos Aires", "addr:country": "AR", "addr:housenumber": "3658", "addr:street": "Cabello", "addr:suburb": "Palermo", "craft": "electronics_repair", "mobile_phone:repair": "yes", "name": "GoFix"}}, {"type": "node", "id": 11012539603, "lat": -34.5609394, "lon": -58.4621845, "tags": {"craft": "shoemaker", "name": "Danello"}}, {"type": "node", "id": 11074435665, "lat": -34.6364095, "lon": -58.4998147, "tags": {"craft": "locksmith", "name": "Mac"}}, {"type": "node", "id": 11139784805, "lat": -34.5937829, "lon": -58.4146266, "tags": {"craft": "electronics_repair"}}, {"type": "node", "id": 11139817805, "lat": -34.5895221, "lon": -58.4106534, "tags": {"craft": "electronics_repair", "name": "Applar"}}, {"type": "node", "id": 11183441611, "lat": -34.633277, "lon": -58.4279521}, {"type": "node", "id": 11183441612, "lat": -34.6332209, "lon": -58.4276635}, {"type": "node", "id": 11183441613, "lat": -34.6332937, "lon": -58.4276426}, {"type": "node", "id": 11183441614, "lat": -34.6333498, "lon": -58.4279311}, {"type": "node", "id": 11187147511, "lat": -34.5853038, "lon": -58.431582}, {"type": "node", "id": 11187147512, "lat": -34.5853758, "lon": -58.4314701}, {"type": "node", "id": 11187147513, "lat": -34.585222, "lon": -58.4317092}, {"type": "node", "id": 11187147515, "lat": -34.5856159, "lon": -58.4321923}, {"type": "node", "id": 11187147517, "lat": -34.5859363, "lon": -58.4319736}, {"type": "node", "id": 11187147518, "lat": -34.5854513, "lon": -58.4315321}, {"type": "node", "id": 11187147521, "lat": -34.5853995, "lon": -58.4314896}, {"type": "node", "id": 11187147522, "lat": -34.5855674, "lon": -58.4314318}, {"type": "node", "id": 11189654468, "lat": -34.5812002, "lon": -58.4306342, "tags": {"addr:city": "Ciudad Aut\u00f3noma de Buenos Aires", "addr:country": "AR", "addr:housenumber": "5471", "addr:postcode": "C1425BVE", "addr:street": "Guatemala", "addr:suburb": "Palermo", "contact:facebook": "https://www.facebook.com/panzeresseguridad/", "contact:instagram": "https://www.instagram.com/panzer.cerraduras/", "contact:linkedin": "https://www.linkedin.com/company/panzer/", "contact:website": "https://www.panzer.com.ar/", "craft": "key_cutter", "name": "Panzer"}}, {"type": "node", "id": 11189654534, "lat": -34.5879514, "lon": -58.4304764}, {"type": "node", "id": 11189654535, "lat": -34.5879783, "lon": -58.4304398}, {"type": "node", "id": 11189654536, "lat": -34.5880318, "lon": -58.4305065}, {"type": "node", "id": 11189660937, "lat": -34.587887, "lon": -58.43041}, {"type": "node", "id": 11189660938, "lat": -34.5880695, "lon": -58.4301387}, {"type": "node", "id": 11189660939, "lat": -34.5882182, "lon": -58.4303431}, {"type": "node", "id": 11189660940, "lat": -34.5881733, "lon": -58.4304126}, {"type": "node", "id": 11189660941, "lat": -34.5883263, "lon": -58.4306069}, {"type": "node", "id": 11189660942, "lat": -34.588219, "lon": -58.4307709}, {"type": "node", "id": 11189660943, "lat": -34.5882127, "lon": -58.4303362}, {"type": "node", "id": 11236474839, "lat": -34.5885216, "lon": -58.4095795, "tags": {"addr:city": "Ciudad Aut\u00f3noma de Buenos Aires", "addr:country": "AR", "addr:housenumber": "1989", "addr:street": "Avenida Coronel D\u00edaz", "craft": "electronics_repair", "name": "Fix Zone"}}, {"type": "node", "id": 11236474840, "lat": -34.5858521, "lon": -58.4076435, "tags": {"addr:city": "Ciudad Aut\u00f3noma de Buenos Aires", "addr:country": "AR", "addr:housenumber": "2289", "addr:street": "Avenida Coronel D\u00edaz", "craft": "electronics_repair", "name": "GoFix"}}, {"type": "node", "id": 11244326738, "lat": -34.6231061, "lon": -58.5211344, "tags": {"craft": "electronics_repair", "name": "Electr\u00f3nica Integral"}}, {"type": "node", "id": 11244326740, "lat": -34.6231325, "lon": -58.5214375, "tags": {"craft": "signmaker", "name": "Plotteo Carteles Gigantograf\u00edas"}}, {"type": "node", "id": 11274086835, "lat": -34.5980811, "lon": -58.3757225, "tags": {"check_date:currency:XBT": "2023-10-19", "craft": "watchmaker", "currency:XBT": "yes", "name": "GR Relojer\u00eda-Joyer\u00eda", "payment:lightning": "yes", "payment:onchain": "yes"}}, {"type": "node", "id": 11274233691, "lat": -34.6040364, "lon": -58.3836273, "tags": {"check_date:currency:XBT": "2023-10-19", "craft": "watchmaker", "currency:XBT": "yes", "name": "Watch Doctors", "payment:lightning": "yes", "payment:onchain": "yes"}}, {"type": "node", "id": 11310316673, "lat": -34.5880703, "lon": -58.4142909, "tags": {"addr:city": "Ciudad Aut\u00f3noma de Buenos Aires", "addr:country": "AR", "addr:housenumber": "1905", "addr:street": "Jer\u00f3nimo Salguero", "addr:suburb": "Palermo", "craft": "electronics_repair"}}, {"type": "node", "id": 11401186670, "lat": -34.5977419, "lon": -58.38548, "tags": {"craft": "shoemaker", "name": "Fix Shoe de Midean"}}, {"type": "node", "id": 11414660943, "lat": -34.6068901, "lon": -58.3891929, "tags": {"addr:city": "Ciudad Aut\u00f3noma de Buenos Aires", "addr:country": "AR", "addr:housenumber": "181", "addr:street": "Montevideo", "craft": "cabinet_maker", "name": "Los Artesanos"}}, {"type": "node", "id": 11414666795, "lat": -34.6070635, "lon": -58.3891862, "tags": {"addr:city": "Ciudad Aut\u00f3noma de Buenos Aires", "addr:country": "AR", "addr:housenumber": "165", "addr:street": "Montevideo", "craft": "hvac", "name": "Ventilacion"}}, {"type": "node", "id": 11549049510, "lat": -34.6090018, "lon": -58.3903491, "tags": {"addr:city": "Ciudad Aut\u00f3noma de Buenos Aires", "addr:country": "AR", "addr:housenumber": "1697", "craft": "watchmaker", "name": "Luna de Oro"}}, {"type": "node", "id": 11683762639, "lat": -34.5723364, "lon": -58.486527, "tags": {"craft": "electronics_repair", "name": "Service Cullen"}}, {"type": "node", "id": 11683816931, "lat": -34.5722599, "lon": -58.4900697, "tags": {"craft": "blacksmith", "name": "Herrer\u00eda HP"}}, {"type": "node", "id": 11745892025, "lat": -34.5895284, "lon": -58.4231501, "tags": {"craft": "handicraft", "name": "Hagamos que el Arte Suceda"}}, {"type": "node", "id": 11807671022, "lat": -34.5941433, "lon": -58.4059074, "tags": {"craft": "upholsterer", "name": "Mart\u00edn"}}, {"type": "node", "id": 11839849183, "lat": -34.6625188, "lon": -58.4285198, "tags": {"addr:city": "Ciudad Aut\u00f3noma de Buenos Aires", "addr:country": "AR", "addr:housenumber": "3675", "addr:postcode": "1437", "addr:street": "Rivera Indarte", "craft": "electronics_repair", "name": "'' Zahorecz '' Refrigeraciones y Servicio Tecnico", "opening_hours": "Mo-Fr 08:00-17:30", "phone": "1159126194"}}, {"type": "node", "id": 11839849184, "lat": -34.6598987, "lon": -58.42732, "tags": {"addr:city": "Ciudad Aut\u00f3noma de Buenos Aires", "addr:country": "AR", "addr:housenumber": "3415", "addr:postcode": "1437", "addr:street": "O'Gorman", "craft": "electronics_repair", "name": "Servicio T\u00e9cnico '' Berni ''", "phone": "1530130349"}}, {"type": "node", "id": 11873410330, "lat": -34.6218432, "lon": -58.4267117, "tags": {"craft": "carpenter", "name": "Casa de Cillis - Maderas Cortes A Medida"}}, {"type": "node", "id": 11873439138, "lat": -34.6218447, "lon": -58.4273376, "tags": {"craft": "electronics_repair", "name": "FixTech - Caballito"}}, {"type": "node", "id": 11873450418, "lat": -34.6202769, "lon": -58.4279902, "tags": {"craft": "electronics_repair", "name": "Fix and Buy"}}, {"type": "node", "id": 11873456724, "lat": -34.6203568, "lon": -58.4279769, "tags": {"craft": "carpenter", "name": "LC Deco Muebles"}}, {"type": "node", "id": 11873508469, "lat": -34.6186536, "lon": -58.4286278, "tags": {"craft": "electronics_repair", "name": "Servicio Tecnico - Carlos Cos"}}, {"type": "node", "id": 11873557138, "lat": -34.6245687, "lon": -58.4074486, "tags": {"craft": "carpenter", "name": "Maderera San Juan"}}, {"type": "node", "id": 11873665879, "lat": -34.6211373, "lon": -58.4166911, "tags": {"craft": "electronics_repair", "name": "Phone Store", "opening_hours": "Mo-Fr 10:00-19:00; Sa 10:00-19:00"}}, {"type": "node", "id": 11873725624, "lat": -34.6244093, "lon": -58.4178982, "tags": {"craft": "electronics_repair", "name": "S.I Computaci\u00f3n"}}, {"type": "node", "id": 11873907888, "lat": -34.6265114, "lon": -58.4223578, "tags": {"craft": "glaziery", "name": "TALLER DE CUADROS"}}, {"type": "node", "id": 11873909520, "lat": -34.6261402, "lon": -58.421831, "tags": {"craft": "hvac", "name": "Aire Acondicionado Automotores"}}, {"type": "node", "id": 11884629201, "lat": -34.5923341, "lon": -58.4227652, "tags": {"craft": "glaziery"}}, {"type": "node", "id": 11887898902, "lat": -34.6430647, "lon": -58.3966249, "tags": {"craft": "blacksmith", "name": "Herrer\u00eda"}}, {"type": "node", "id": 11889958199, "lat": -34.5699162, "lon": -58.4356001, "tags": {"craft": "clockmaker", "name:signed": "no"}}, {"type": "node", "id": 11890408928, "lat": -34.6432108, "lon": -58.3969121, "tags": {"craft": "plumber", "name": "Sector Plomer\u00eda"}}, {"type": "node", "id": 11890408929, "lat": -34.6432588, "lon": -58.3970031, "tags": {"craft": "carpenter", "name": "Carpinter\u00eda"}}, {"type": "node", "id": 11910628069, "lat": -34.5903315, "lon": -58.4017749, "tags": {"craft": "key_cutter"}}, {"type": "node", "id": 11938259695, "lat": -34.5996975, "lon": -58.4042893, "tags": {"craft": "shoemaker", "name": "Mundial 78"}}, {"type": "node", "id": 11952160672, "lat": -34.5906949, "lon": -58.4026823, "tags": {"addr:housenumber": "2525", "addr:street": "Juncal", "craft": "electronics_repair", "name": "Teveotecno"}}, {"type": "node", "id": 11960989466, "lat": -34.6005328, "lon": -58.3781362, "tags": {"craft": "tailor", "name": "Todo Arreglo"}}, {"type": "node", "id": 12008706443, "lat": -34.5558169, "lon": -58.4508497, "tags": {"craft": "electric_motors", "name": "Leo Pump"}}, {"type": "node", "id": 12038510601, "lat": -34.611869, "lon": -58.3963081, "tags": {"craft": "shoemaker", "name": "Romeo"}}, {"type": "node", "id": 12047608568, "lat": -34.6626344, "lon": -58.4302284, "tags": {"addr:city": "CABA", "addr:housenumber": "2520", "addr:postcode": "1437", "addr:street": "Ber\u00f3n de Astrada", "craft": "upholsterer", "name": "Tapicer\u00eda de Vincenti", "opening_hours": "Mo-Fr 08:30-18:00", "phone": "011 6473-5457"}}, {"type": "node", "id": 12047771334, "lat": -34.5508966, "lon": -58.4637274, "tags": {"craft": "shoemaker", "name": "Dany"}}, {"type": "node", "id": 12055469703, "lat": -34.5555081, "lon": -58.4593083, "tags": {"craft": "curtain", "name": "Darkmann", "shop": "curtain"}}, {"type": "node", "id": 12056393634, "lat": -34.548945, "lon": -58.4652619, "tags": {"craft": "fumigation", "name": "Fumiba", "website": "http://fumiba.com.ar/"}}, {"type": "node", "id": 12057790554, "lat": -34.6225585, "lon": -58.4092369, "tags": {"craft": "confectionery"}}, {"type": "node", "id": 12057808851, "lat": -34.6236224, "lon": -58.4093073, "tags": {"craft": "glaziery", "name": "Leva Vidrier\u00eda y Cerramientos"}}, {"type": "node", "id": 12064152492, "lat": -34.5555832, "lon": -58.4539183, "tags": {"craft": "window_construction", "name": "L' Hermetique"}}, {"type": "node", "id": 12070212969, "lat": -34.5918924, "lon": -58.4074418, "tags": {"addr:housenumber": "1578", "addr:street": "Ag\u00fcero", "craft": "electronics_repair", "name": "Apple Doctor"}}, {"type": "node", "id": 12088170122, "lat": -34.5518581, "lon": -58.4615562, "tags": {"craft": "upholsterer", "name": "Iber\u00e1"}}, {"type": "node", "id": 12092066500, "lat": -34.6229116, "lon": -58.4205726, "tags": {"craft": "glaziery", "name": "Vidriera Express"}}, {"type": "node", "id": 12111681153, "lat": -34.5584978, "lon": -58.4478466, "tags": {"craft": "tailor", "name": "Yamila", "shop": "sewing"}}, {"type": "node", "id": 12156704119, "lat": -34.5951674, "lon": -58.3971871, "tags": {"craft": "electronics_repair", "name": "iPower fix"}}, {"type": "node", "id": 12156867945, "lat": -34.5939058, "lon": -58.4056158, "tags": {"craft": "tailor", "name": "Anna", "shop": "tailor"}}, {"type": "node", "id": 12168410901, "lat": -34.5938854, "lon": -58.4000947, "tags": {"addr:housenumber": "2349", "addr:street": "Arenales", "craft": "tailor", "name": "Sastreria Fabio"}}, {"type": "node", "id": 12168462002, "lat": -34.6022951, "lon": -58.398619, "tags": {"craft": "electronics_repair", "name": "On.Click"}}, {"type": "node", "id": 12169177624, "lat": -34.5953072, "lon": -58.4038023, "tags": {"craft": "locksmith", "name": "Postay", "shop": "locksmith"}}, {"type": "node", "id": 12175951960, "lat": -34.5690342, "lon": -58.434843, "tags": {"craft": "locksmith", "name": "Horario", "shop": "locksmith"}}, {"type": "node", "id": 12242839286, "lat": -34.5946993, "lon": -58.4940301, "tags": {"craft": "upholsterer", "name": "N\u00e9stor Giordano"}}, {"type": "node", "id": 12246591801, "lat": -34.5936903, "lon": -58.4034994, "tags": {"addr:housenumber": "1424", "addr:street": "Ecuador", "craft": "electronics_repair", "name": "Reparalo"}}, {"type": "node", "id": 12304547002, "lat": -34.5781602, "lon": -58.4278149, "tags": {"addr:city": "Ciudad Aut\u00f3noma de Buenos Aires", "addr:housenumber": "2486", "addr:postcode": "C1425", "addr:street": "Humboldt", "craft": "winery", "name": "Conrado"}}, {"type": "node", "id": 12304557402, "lat": -34.5781847, "lon": -58.4278375, "tags": {"addr:street": "Humboldt", "craft": "key_cutter", "name": "Cerrajeria"}}, {"type": "node", "id": 12320917802, "lat": -34.588575, "lon": -58.4006381, "tags": {"addr:housenumber": "2583", "addr:street": "Pe\u00f1a", "craft": "electronics_repair"}}, {"type": "node", "id": 12324587901, "lat": -34.6029136, "lon": -58.4332086, "tags": {"addr:street": "R\u00edo de Janeiro", "craft": "key_cutter", "name": "Cerrajeria"}}, {"type": "node", "id": 12331161405, "lat": -34.622595, "lon": -58.4817353, "tags": {"addr:street": "Avenida Juan Bautista Justo", "craft": "key_cutter", "name": "Cerrajeria Silveiro"}}, {"type": "node", "id": 12331306391, "lat": -34.665433, "lon": -58.4330993}, {"type": "node", "id": 12331306392, "lat": -34.6653888, "lon": -58.4330189}, {"type": "node", "id": 12331306393, "lat": -34.6655201, "lon": -58.4329169}, {"type": "node", "id": 12331306394, "lat": -34.6655631, "lon": -58.4329974}, {"type": "node", "id": 12342750699, "lat": -34.5899668, "lon": -58.5160571, "tags": {"addr:city": "Ciudad Aut\u00f3noma de Buenos Aires", "addr:country": "AR", "addr:housenumber": "7265", "addr:street": "Avenida San Mart\u00edn", "craft": "hvac", "name": "Electro Frig"}}, {"type": "node", "id": 12342751417, "lat": -34.590607, "lon": -58.5139671, "tags": {"craft": "window_construction", "name": "W&W Vidrios", "source": "Reconocimiento terrestre por Kaart 2016"}}, {"type": "node", "id": 12344489301, "lat": -34.5797539, "lon": -58.4315219, "tags": {"addr:street": "Fitz Roy", "craft": "electronics_repair", "name": "iPhone Repair"}}, {"type": "node", "id": 12387463801, "lat": -34.5845089, "lon": -58.4365766, "tags": {"addr:street": "Fitz Roy", "craft": "electronics_repair", "name": "GoFix"}}, {"type": "node", "id": 12411910114, "lat": -34.599905, "lon": -58.3740673, "tags": {"addr:housenumber": "689", "addr:street": "San Mart\u00edn", "craft": "tailor", "name": "Casa Rep.- Rapid", "phone": "1166678456"}}, {"type": "node", "id": 12487559101, "lat": -34.6034682, "lon": -58.4572779, "tags": {"addr:street": "Avenida Juan Bautista Justo", "craft": "metal_construction", "name": "El Taller"}}, {"type": "node", "id": 12539212921, "lat": -34.5529852, "lon": -58.4652398, "tags": {"craft": "electronics_repair", "name": "Tecnosoluciones"}}, {"type": "node", "id": 12588526881, "lat": -34.6551453, "lon": -58.4926032, "tags": {"addr:city": "Ciudad Aut\u00f3noma de Buenos Aires", "addr:housenumber": "5425", "addr:postcode": "1440", "addr:street": "Remedios", "craft": "electronics_repair", "name": "Patrick Heladeras", "opening_hours": "Mo-Fr 08:00-20:00 & Sa 08:30-14:00", "phone": "011 15-7080-5658"}}, {"type": "node", "id": 12641980402, "lat": -34.5867998, "lon": -58.4021513, "tags": {"addr:housenumber": "2275", "addr:street": "Austria", "craft": "key_cutter"}}, {"type": "node", "id": 12666105243, "lat": -34.6164677, "lon": -58.5280549, "tags": {"craft": "electronics_repair", "name": "Servitek"}}, {"type": "node", "id": 12677329823, "lat": -34.6597833, "lon": -58.4328282, "tags": {"craft": "cleaning", "name": "Servicio T\u00e9cnico ''Berni''"}}, {"type": "node", "id": 12700877401, "lat": -34.5947581, "lon": -58.3998318, "tags": {"craft": "electronics_repair", "name": "Case Store Fix"}}, {"type": "node", "id": 12705474502, "lat": -34.5909723, "lon": -58.4059436, "tags": {"addr:housenumber": "2895", "addr:street": "Arenales", "craft": "tailor"}}, {"type": "node", "id": 12705475202, "lat": -34.5888647, "lon": -58.4085825, "tags": {"addr:housenumber": "3181", "addr:street": "Arenales", "craft": "shoemaker"}}, {"type": "node", "id": 12706360623, "lat": -34.5576442, "lon": -58.4586347, "tags": {"craft": "tailor"}}, {"type": "node", "id": 12712268435, "lat": -34.6652944, "lon": -58.4425993, "tags": {"craft": "electronics_repair", "name": "Pilo Box"}}, {"type": "node", "id": 12712268457, "lat": -34.664612, "lon": -58.4434455, "tags": {"craft": "electronics_repair", "name": "Boutique \"Luj\u00e1n\""}}, {"type": "node", "id": 12712268497, "lat": -34.664241, "lon": -58.4439115, "tags": {"craft": "blacksmith", "name": "Compro Metales"}}, {"type": "node", "id": 12773564702, "lat": -34.5901486, "lon": -58.3982553, "tags": {"addr:housenumber": "2730", "addr:street": "Pe\u00f1a", "craft": "shoemaker"}}, {"type": "node", "id": 12779849029, "lat": -34.5553966, "lon": -58.455252, "tags": {"craft": "glaziery"}}, {"type": "node", "id": 12844753805, "lat": -34.591102, "lon": -58.401915, "tags": {"addr:housenumber": "2475", "addr:street": "Juncal", "craft": "electronics_repair"}}, {"type": "node", "id": 12893928513, "lat": -34.5640155, "lon": -58.4363866, "tags": {"craft": "electronics_repair", "name": "Tecbox"}}, {"type": "node", "id": 12958135103, "lat": -34.6185095, "lon": -58.4755678, "tags": {"craft": "electronics_repair", "name": "Refrifer"}}, {"type": "node", "id": 12997441426, "lat": -34.5946514, "lon": -58.3957933, "tags": {"addr:city": "Ciudad Aut\u00f3noma de Buenos Aires", "addr:housenumber": "1994", "addr:street": "Arenales", "craft": "electronics_repair", "name": "Pineapple Shop", "phone": "+54 11 3311 0324"}}, {"type": "node", "id": 12999450501, "lat": -34.6020707, "lon": -58.3964537, "tags": {"addr:housenumber": "2063", "addr:street": "Tucum\u00e1n", "craft": "electronics_repair"}}, {"type": "node", "id": 12999500202, "lat": -34.6008981, "lon": -58.4406715, "tags": {"addr:housenumber": "144", "addr:street": "Avenida Ra\u00fal Scalabrini Ortiz", "craft": "electronics_repair"}}, {"type": "node", "id": 13005680037, "lat": -34.5468138, "lon": -58.4667901, "tags": {"craft": "floorer", "name": "La Criollita"}}, {"type": "node", "id": 13102960480, "lat": -34.5587214, "lon": -58.4537024, "tags": {"craft": "tailor", "name": "R Moda"}}, {"type": "node", "id": 13166719933, "lat": -34.5904749, "lon": -58.3972696, "tags": {"craft": "window_construction"}}, {"type": "node", "id": 13188002007, "lat": -34.5884276, "lon": -58.4044861, "tags": {"addr:housenumber": "2051", "addr:street": "Austria", "craft": "window_construction"}}, {"type": "node", "id": 13190877627, "lat": -34.5517731, "lon": -58.4529135, "tags": {"craft": "electronics_repair", "name": "PoloArg"}}, {"type": "node", "id": 13191635003, "lat": -34.580825, "lon": -58.426809, "tags": {"craft": "tailor", "name": "Anna"}}, {"type": "node", "id": 13236609078, "lat": -34.6398856, "lon": -58.4779525, "tags": {"addr:city": "Ciudad Aut\u00f3noma de Buenos Aires", "addr:housenumber": "3833", "addr:street": "Avenida Directorio", "craft": "pest_control", "name": "Efaser", "opening_hours": "Mo-Fr 08:00-17:00", "phone": "+54 911 3329-1260", "website": "https://www.efaser.com.ar/"}}, {"type": "way", "id": 321518649, "nodes": [3282738431, 4588123334, 4588123333, 4588123331, 4588123332, 3282738499, 3282738459, 3282738437, 3282738431], "tags": {"addr:city": "Ciudad Aut\u00f3noma de Buenos Aires", "addr:country": "AR", "addr:street": "Avenida 27 de Febrero", "building": "yes", "craft": "metal_construction", "layer": "1", "name": "Klockmetal"}}, {"type": "way", "id": 460030766, "nodes": [4557191089, 11187147517, 4557191091, 4557191090, 11187147522, 4557189188, 11187147518, 11187147521, 11187147512, 11187147511, 11187147513, 11187147515, 4557191089], "tags": {"building": "yes", "building:material": "brick", "craft": "winery", "name": "Bodegas y Vi\u00f1edos L\u00f3pez"}}, {"type": "way", "id": 461231754, "nodes": [4567652845, 4567652846, 4567652847, 4567652844, 4567652848, 4567652845], "tags": {"building": "yes", "craft": "confectionery", "name": "Del Rededor", "source": "Reconocimiento cartogr\u00e1fico 2016 por KG"}}, {"type": "way", "id": 462845746, "nodes": [4581793522, 4581793523, 4581793524, 4581793525, 4581793522], "tags": {"addr:city": "Ciudad Aut\u00f3noma de Buenos Aires", "addr:country": "AR", "building": "yes", "craft": "window_construction", "name": "Fabrica de Aberturas de Aluminio"}}, {"type": "way", "id": 462845748, "nodes": [4581793527, 4581793528, 4581793529, 4581793530, 4581793527], "tags": {"addr:city": "Ciudad Aut\u00f3noma de Buenos Aires", "addr:country": "AR", "addr:street": "Avenida General Francisco Fern\u00e1ndez de La Cruz", "building": "yes", "craft": "metal_construction", "name": "Metalurgica Pastoriza"}}, {"type": "way", "id": 463696545, "nodes": [4589423355, 4589423356, 4589423357, 4589423358, 4589423355], "tags": {"addr:city": "Ciudad Aut\u00f3noma de Buenos Aires", "addr:country": "AR", "addr:street": "Avenida General Francisco Fern\u00e1ndez de La Cruz", "building": "yes", "craft": "metal_construction", "name": "Indus Trade"}}, {"type": "way", "id": 465523797, "nodes": [4604821311, 4604821312, 4604821313, 4604821314, 4604821315, 4604821311], "tags": {"addr:city": "Ciudad Aut\u00f3noma de Buenos Aires", "addr:country": "AR", "addr:street": "Avenida Amancio Alcorta", "building": "yes", "craft": "glaziery", "name": "Integral Pompeya"}}, {"type": "way", "id": 467230403, "nodes": [4618775019, 4618775020, 4618775021, 4618775022, 4618775019], "tags": {"building": "yes", "craft": "window_construction", "name": "Maglei Aberturas", "source": "Reconocimiento cartogr\u00e1fico de campo 2016 por KG"}}, {"type": "way", "id": 467259177, "nodes": [4619015468, 4619015469, 4619015470, 4619015471, 4619015468], "tags": {"building": "yes", "craft": "saddler", "name": "Ruiz D\u00edaz Saddles", "source": "Reconocimiento cartogr\u00e1fico de campo 2016 por KG"}}, {"type": "way", "id": 469236409, "nodes": [4636211839, 4636211840, 4636211841, 4636211842, 4636211843, 4636211839], "tags": {"building": "yes", "craft": "glaziery", "description": "Parabrisas polarizados", "name": "Cristales San Mart\u00edn"}}, {"type": "way", "id": 470263317, "nodes": [4644627669, 4644627670, 8533942411, 4644627671, 4644627672, 4644627669], "tags": {"addr:city": "Ciudad Aut\u00f3noma de Buenos Aires", "addr:country": "AR", "addr:street": "Avenida Lope de Vega", "building": "industrial", "craft": "metal_construction", "name": "Osias Brudno E Hijos"}}, {"type": "way", "id": 470415086, "nodes": [4646135441, 4646135442, 4646135443, 4646135444, 4646135441], "tags": {"building": "yes", "craft": "winery", "name": "S.A. Establecimientos Viti-Vinicolas Escorihuela"}}, {"type": "way", "id": 470830361, "nodes": [4650164549, 4650164550, 4650164551, 4650164552, 4650164549], "tags": {"addr:city": "Ciudad Aut\u00f3noma de Buenos Aires", "addr:country": "AR", "addr:street": "Galv\u00e1n", "building": "yes", "craft": "confectionery", "name": "La Estrella Azul"}}, {"type": "way", "id": 471223817, "nodes": [4653904120, 4653904121, 4653904122, 4653904123, 4653904124, 4653904120], "tags": {"addr:city": "Ciudad Aut\u00f3noma de Buenos Aires", "addr:country": "AR", "addr:street": "Avenida C\u00f3rdoba", "addr:suburb": "Palermo", "building": "yes", "craft": "brewery", "name": "Difei"}}, {"type": "way", "id": 471257030, "nodes": [4654288784, 4654288785, 4654288786, 4654288787, 4654288784], "tags": {"addr:city": "Ciudad Aut\u00f3noma de Buenos Aires", "addr:country": "AR", "addr:street": "Avenida Juan Bautista Justo", "building": "yes", "craft": "upholsterer", "name": "Tapicer\u00eda Modelo"}}, {"type": "way", "id": 471297501, "nodes": [4654616975, 4654616976, 4654616977, 4654616978, 4654616979, 4654616975], "tags": {"addr:city": "Ciudad Aut\u00f3noma de Buenos Aires", "addr:country": "AR", "addr:street": "Llavallol", "building": "yes", "craft": "window_construction", "name": "Aberturas de Alumino Fabrica"}}, {"type": "way", "id": 471549837, "nodes": [4657098575, 4657098574, 6581743125, 4657098576, 4657098577, 4657098575], "tags": {"addr:city": "Ciudad Aut\u00f3noma de Buenos Aires", "addr:country": "AR", "addr:street": "Avenida Juan Bautista Justo", "building": "yes", "craft": "window_construction", "name": "Tecsha S.A."}}, {"type": "way", "id": 471550346, "nodes": [4657104504, 4657104505, 4657104506, 4657104507, 4657104508, 4657104504], "tags": {"addr:city": "Ciudad Aut\u00f3noma de Buenos Aires", "addr:country": "AR", "addr:housenumber": "3902", "addr:street": "Avenida de los Constituyentes", "building": "retail", "craft": "window_construction", "name": "Expo Aberturas"}}, {"type": "way", "id": 471570885, "nodes": [4657306809, 4657306811, 4657306812, 4657306808, 4657306809], "tags": {"addr:city": "Ciudad Aut\u00f3noma de Buenos Aires", "addr:country": "AR", "addr:street": "Avenida \u00c1lvarez Thomas", "addr:suburb": "Colegiales", "building": "yes", "craft": "glaziery", "name": "Castro"}}, {"type": "way", "id": 471589535, "nodes": [4657507623, 4657507624, 4657507625, 4657507626, 4657507623], "tags": {"addr:city": "Ciudad Aut\u00f3noma de Buenos Aires", "addr:country": "AR", "addr:street": "Asunci\u00f3n", "building": "yes", "craft": "blacksmith", "name": "Ciclomet"}}, {"type": "way", "id": 471601155, "nodes": [4657637049, 4657637050, 4657637051, 4657637052, 4657637049], "tags": {"addr:city": "Ciudad Aut\u00f3noma de Buenos Aires", "addr:country": "AR", "addr:street": "General C\u00e9sar D\u00edaz", "building": "yes", "craft": "metal_construction", "name": "Fabrica de Cortinas Metalicas"}}, {"type": "way", "id": 471608839, "nodes": [4657626513, 4657626514, 4657626515, 4657626516, 4657626513], "tags": {"building": "yes", "craft": "confectionery", "name": "Confiter\u00eda San Jose", "source": "Reconocimiento terrestre por Kaart 2016"}}, {"type": "way", "id": 471617322, "nodes": [4657793229, 4657793234, 4657793239, 4657793235, 4657793236, 4657793232, 4657793229], "tags": {"addr:city": "Ciudad Aut\u00f3noma de Buenos Aires", "addr:country": "AR", "addr:street": "Capit\u00e1n General Ram\u00f3n Freire", "addr:suburb": "Colegiales", "building": "yes", "craft": "confectionery", "name": "Mangini"}}, {"type": "way", "id": 471651558, "nodes": [4658124175, 4658124176, 4658124177, 4658124178, 4658124175], "tags": {"addr:city": "Ciudad Aut\u00f3noma de Buenos Aires", "addr:country": "AR", "addr:street": "Cuenca", "building": "yes", "craft": "confectionery"}}, {"type": "way", "id": 471652693, "nodes": [4658178152, 4658178156, 4658178157, 4658178158, 4658178153, 4658178152], "tags": {"addr:city": "Ciudad Aut\u00f3noma de Buenos Aires", "addr:country": "AR", "addr:housenumber": "3351", "addr:street": "Avenida Monroe", "addr:suburb": "Coghlan", "building": "yes", "craft": "electronics_repair", "name": "Attendance"}}, {"type": "way", "id": 471879507, "nodes": [4660309492, 4660309493, 4660309494, 4660309495, 4660309492], "tags": {"addr:city": "Ciudad Aut\u00f3noma de Buenos Aires", "addr:country": "AR", "addr:street": "Avenida Salvador Mar\u00eda del Carril", "building": "yes", "craft": "electronics_repair", "name": "Cuyo"}}, {"type": "way", "id": 471930801, "nodes": [4660801817, 4660801818, 4660801819, 5895201729, 4660801820, 4660801817], "tags": {"building": "yes", "craft": "metal_construction", "name": "Herreria Toldos Balbin", "source": "Reconocimiento terrestre por Kaart 2016"}}, {"type": "way", "id": 471935385, "nodes": [4660848411, 4660848412, 4660848413, 4660848414, 4660848411], "tags": {"addr:city": "Ciudad Aut\u00f3noma de Buenos Aires", "addr:country": "AR", "addr:street": "Segurola", "building": "yes", "craft": "watchmaker", "name": "Relojeria Bugauza"}}, {"type": "way", "id": 471965448, "nodes": [4661146516, 4661146517, 4661146518, 4661146519, 4661146516], "tags": {"addr:city": "Ciudad Aut\u00f3noma de Buenos Aires", "addr:country": "AR", "addr:street": "Segurola", "building": "yes", "craft": "confectionery", "name": "Confiteriea Despacho"}}, {"type": "way", "id": 472676816, "nodes": [4668691189, 4668691192, 4668691193, 4668691194, 4668691195, 4668691189], "tags": {"addr:city": "Ciudad Aut\u00f3noma de Buenos Aires", "addr:country": "AR", "addr:housenumber": "2539", "addr:street": "\u00c1lvarez Jonte", "building": "yes", "craft": "hvac", "name": "Mariano Compresores"}}, {"type": "way", "id": 472679199, "nodes": [4668709372, 4668709378, 4668709379, 4668709373, 4668709372], "tags": {"building": "yes", "craft": "glaziery", "name": "Cristal City"}}, {"type": "way", "id": 472755221, "nodes": [4669639422, 4669639423, 4669639424, 4669639425, 4669639422], "tags": {"building": "yes", "craft": "metal_construction", "name": "Todo Aluminio Carpinteria", "source": "Reconocimiento terrestre por Kaart 2016"}}, {"type": "way", "id": 473390198, "nodes": [4675107170, 4675107171, 4675107172, 4675107173, 4675107170], "tags": {"addr:city": "Ciudad Aut\u00f3noma de Buenos Aires", "addr:country": "AR", "addr:street": "\u00c1lvarez Jonte", "building": "yes", "craft": "window_construction", "name": "Vidrieria"}}, {"type": "way", "id": 473449445, "nodes": [4675661228, 4675661229, 4675661230, 4675661231, 4675661228], "tags": {"addr:city": "Ciudad Aut\u00f3noma de Buenos Aires", "addr:country": "AR", "addr:street": "Avenida Estado de Israel", "building": "yes", "craft": "hvac", "name": "Carrier", "operator": "Brignone"}}, {"type": "way", "id": 473606128, "nodes": [4676832868, 4676832867, 4676832869, 4676832870, 4676832868], "tags": {"addr:city": "Ciudad Aut\u00f3noma de Buenos Aires", "addr:country": "AR", "addr:street": "Lavalle", "building": "yes", "craft": "hvac", "name": "Tomasino Termomecanica", "phone": "+54 11 4862 - 0379"}}, {"type": "way", "id": 473850926, "nodes": [4678867571, 4678867572, 4678867573, 4678867574, 4678867571], "tags": {"addr:city": "Ciudad Aut\u00f3noma de Buenos Aires", "addr:country": "AR", "addr:street": "Avenida Rivadavia", "building": "yes", "craft": "hvac", "name": "Surrey"}}, {"type": "way", "id": 474438963, "nodes": [4683946105, 4683946106, 4683946107, 4683946108, 4683946109, 4683946105], "tags": {"addr:city": "Ciudad Aut\u00f3noma de Buenos Aires", "addr:country": "AR", "addr:street": "Avenida Emilio Castro", "building": "yes", "craft": "carpenter", "name": "Carpinteria Emilio Castro"}}, {"type": "way", "id": 474493643, "nodes": [4684420271, 4684420272, 4684420273, 4684420274, 4684420271], "tags": {"addr:city": "Ciudad Aut\u00f3noma de Buenos Aires", "addr:country": "AR", "addr:street": "Avenida Juan Bautista Alberdi", "building": "yes", "craft": "confectionery", "name": "La Nueva Alberdi"}}, {"type": "way", "id": 475206698, "nodes": [4689892674, 4689892675, 4689892676, 4689892677, 4689892674], "tags": {"addr:city": "Ciudad Aut\u00f3noma de Buenos Aires", "addr:country": "AR", "addr:street": "Avenida D\u00edaz V\u00e9lez", "building": "yes", "building:levels": "2", "craft": "caterer", "name": "Astesiano"}}, {"type": "way", "id": 476140877, "nodes": [4697885912, 4697885913, 4697885914, 4697885915, 4697885916, 4697885912], "tags": {"addr:city": "Ciudad Aut\u00f3noma de Buenos Aires", "addr:country": "AR", "addr:street": "Cosqu\u00edn", "building": "yes", "craft": "upholsterer", "name": "Tapiceria Universal"}}, {"type": "way", "id": 476957491, "nodes": [4703774549, 4703774550, 4703774551, 4703774552, 4703774553, 4703774549], "tags": {"addr:city": "Ciudad Aut\u00f3noma de Buenos Aires", "addr:country": "AR", "addr:street": "Oliden", "building": "yes", "craft": "metal_construction", "name": "Compro Metales"}}, {"type": "way", "id": 476962478, "nodes": [4703818170, 4703818175, 4703818176, 4703818177, 4703818170], "tags": {"addr:city": "Ciudad Aut\u00f3noma de Buenos Aires", "addr:country": "AR", "addr:street": "Avenida Eva Per\u00f3n", "building": "yes", "craft": "metal_construction", "name": "Compro Metales"}}, {"type": "way", "id": 477532929, "nodes": [4708665735, 4708665736, 8633164177, 4708665737, 4708665733, 4708665735], "tags": {"addr:street": "Avenida Juan Bautista Alberdi", "building": "yes", "craft": "window_construction", "name": "Mia Porta", "source": "Reconocimiento terrestre por Kaart 2016."}}, {"type": "way", "id": 477544395, "nodes": [4708759257, 4708759258, 4708759259, 4708759260, 4708759257], "tags": {"addr:street": "Avenida Directorio", "building": "yes", "craft": "window_construction", "fixme": "name", "source": "Reconocimiento terrestre por Kaart 2016."}}, {"type": "way", "id": 477545017, "nodes": [2873897723, 4708763297, 4708763291, 4708763292, 4708763293, 2873897723], "tags": {"addr:city": "Ciudad Aut\u00f3noma de Buenos Aires", "addr:country": "AR", "addr:street": "Avenida Carlos Calvo", "building": "yes", "craft": "brewery", "name": "Cossab"}}, {"type": "way", "id": 477599254, "nodes": [4709196237, 4709196238, 4709196239, 4709196240, 4709196237], "tags": {"addr:city": "Ciudad Aut\u00f3noma de Buenos Aires", "addr:country": "AR", "addr:street": "Avenida Juan Bautista Alberdi", "building": "yes", "craft": "glaziery", "name": "Cristales para el Automovil"}}, {"type": "way", "id": 477605645, "nodes": [4709243400, 4709243403, 4709243406, 4709243404, 4709243405, 4709243400], "tags": {"addr:city": "Ciudad Aut\u00f3noma de Buenos Aires", "addr:country": "AR", "addr:housenumber": "4074", "addr:street": "Avenida Juan Bautista Alberdi", "building": "yes", "craft": "window_construction", "name": "Aberturas"}}, {"type": "way", "id": 477605648, "nodes": [4709243411, 4709243414, 4709243415, 4709243416, 8633190103, 8633190102, 4709243417, 4709243412, 4709243411], "tags": {"addr:city": "Ciudad Aut\u00f3noma de Buenos Aires", "addr:country": "AR", "addr:housenumber": "4100", "addr:street": "Avenida Juan Bautista Alberdi", "building": "yes", "craft": "window_construction", "name": "Oblak"}}, {"type": "way", "id": 545312689, "nodes": [5270507138, 5270507139, 5270507140, 5270507141, 5270507142, 5270507138], "tags": {"addr:street": "Jos\u00e9 Ignacio Rucci", "building": "yes", "craft": "glaziery", "name": "Aberturas Viamonte"}}, {"type": "way", "id": 615884061, "nodes": [5823540403, 6397710323, 5823540404, 6397710322, 5823540405, 5823540406, 5823540407, 5823540408, 5823540403], "tags": {"addr:city": "Ciudad Aut\u00f3noma de Buenos Aires", "addr:country": "AR", "addr:housenumber": "46", "addr:postcode": "C1406GLV", "addr:street": "Camacu\u00e1", "building": "office", "building:levels": "3", "craft": "electronics_repair", "name": "TechGo", "roof:shape": "flat"}}, {"type": "way", "id": 673432605, "nodes": [6308444660, 6306546973, 6306546968, 6306546969, 6308444661, 6308444660], "tags": {"building": "yes", "craft": "glaziery"}}, {"type": "way", "id": 773025597, "nodes": [4656720498, 7217584192, 7217584193, 7217584194, 4656720498], "tags": {"building": "yes", "craft": "shoemaker", "name": "Roble"}}, {"type": "way", "id": 1007153835, "nodes": [9291513907, 9291513908, 9291513909, 9291513910, 9291513911, 9291513907], "tags": {"addr:city": "Ciudad Aut\u00f3noma de Buenos Aires", "addr:country": "AR", "addr:housenumber": "4035", "addr:postcode": "1427", "addr:street": "Avenida Jorge Newbery", "building": "yes", "craft": "pottery", "name": "Tienda y Taller Fiammante", "opening_hours": "Mo-Sa 10:00-20:00", "phone": "+54 9 11 5161-7866", "website": "https://taller-fiammante.negocio.site/?utm_source=gmb&utm_medium=referral"}}, {"type": "way", "id": 1022136596, "nodes": [9427028641, 9427028645, 9427028642, 9427028643, 9427028644, 9427028641], "tags": {"addr:city": "Ciudad Aut\u00f3noma de Buenos Aires", "addr:country": "AR", "addr:housenumber": "1142", "addr:postcode": "1427", "addr:street": "Barzana", "building": "yes", "contact:whatsapp": "+54 9 11 4437-4939", "craft": "electrician", "email": "info@sigmatron.com.ar", "name": "Sigmatron", "phone": "+54 9 11 2068-8896", "website": "https://www.sigmatron.com.ar/"}}, {"type": "way", "id": 1023639837, "nodes": [9439692700, 9439692701, 9439692702, 9439692703, 9439692704, 9439692705, 9439692706, 9439550231, 9439692700], "tags": {"building": "yes", "craft": "printer", "name": "Editorial Santillana"}}, {"type": "way", "id": 1052879095, "nodes": [9676011433, 9676011434, 9676011435, 9676011436, 9676011437, 9676011433], "tags": {"building": "yes", "craft": "electronics_repair"}}, {"type": "way", "id": 1106586121, "nodes": [10126104939, 10126104941, 10126104937, 10126104940, 10126104939], "tags": {"addr:street": "Avenida San Juan", "building": "yes", "craft": "carpenter", "name": "Maderera San Juan"}}, {"type": "way", "id": 1206899595, "nodes": [11183441611, 11183441612, 11183441613, 11183441614, 11183441611], "tags": {"addr:city": "Ciudad Aut\u00f3noma de Buenos Aires", "addr:country": "AR", "addr:housenumber": "1434", "addr:postcode": "1424", "addr:street": "Doblas", "building": "yes", "craft": "electronics_repair", "name": "Alteknia", "opening_hours": "Mo-Fr 08:00-17:00", "phone": "011 4921-3466", "website": "https://alteknia.negocio.site"}}, {"type": "way", "id": 1207652924, "nodes": [11189660942, 11189660941, 11189660940, 11189660939, 11189660943, 11189660938, 11189660937, 11189654534, 11189654535, 11189654536, 11189660942], "tags": {"addr:city": "Ciudad Aut\u00f3noma de Buenos Aires", "addr:country": "AR", "addr:housenumber": "5051", "addr:postcode": "C1414BMQ", "addr:street": "Honduras", "addr:suburb": "Palermo", "building": "yes", "contact:email": "hierrosratti@gmail.com", "contact:website": "https://www.hierrosratti.com.ar/", "craft": "metal_construction", "name": "Ratti", "opening_hours": "Mo-Fr 08:00-12:00,14:30-17:00", "operator": "Hijos de Segundo Ratti S.R.L.", "roof:height": "2", "roof:material": "metal", "roof:shape": "gabled"}}, {"type": "way", "id": 1332910964, "nodes": [12331306391, 12331306392, 12331306393, 12331306394, 12331306391], "tags": {"addr:city": "CABA", "addr:housenumber": "2818", "addr:postcode": "C1437FVD", "addr:street": "Ferr\u00e9", "building": "yes", "craft": "blacksmith", "name": "HG Herrer\u00eda", "note": "Si encuentran el facebook del local por favor a\u00f1adirlo en sitio web.", "phone": "011 15-6201-8386"}}]}