{"version": 0.6, "generator": "Overpass API 0.7.62.8 e802775f", "osm3s": {"timestamp_osm_base": "2025-12-02T17:53:13Z", "copyright": "The data included in this document is from www.openstreetmap.org. The data is made available under ODbL."}, "elements": [{"type": "node", "id": 1292036659, "lat": -34.6744034, "lon": -58.4580937}, {"type": "node", "id": 2330170866, "lat": -34.5925284, "lon": -58.4012936, "tags": {"addr:city": "Ciudad Aut\u00f3noma de Buenos Aires", "addr:country": "AR", "addr:housenumber": "1601", "addr:street": "Avenida Pueyrred\u00f3n", "clothes": "babies", "name": "Miel de Beb\u00e9", "shop": "clothes"}}, {"type": "node", "id": 2703921813, "lat": -34.5620259, "lon": -58.4569417, "tags": {"addr:city": "Ciudad Aut\u00f3noma de Buenos Aires", "addr:country": "AR", "addr:housenumber": "2102", "addr:postcode": "C1428AAQ", "addr:street": "Avenida Cabildo", "addr:suburb": "Belgrano", "clothes": "women", "name": "Rakis", "shop": "clothes"}}, {"type": "node", "id": 2703921820, "lat": -34.5631622, "lon": -58.4559976, "tags": {"addr:city": "Ciudad Aut\u00f3noma de Buenos Aires", "addr:country": "AR", "addr:housenumber": "2000", "addr:postcode": "C1428AAO", "addr:street": "Avenida Cabildo", "addr:suburb": "Belgrano", "check_date": "2025-10-20", "clothes": "women", "name": "Tribeca", "opening_hours": "Mo-Sa 10:30-19:00; Su off", "payment:cash": "yes", "payment:credit_cards": "yes", "payment:debit_cards": "yes", "payment:mastercard": "yes", "payment:visa": "yes", "shop": "clothes"}}, {"type": "node", "id": 2741580741, "lat": -34.6075746, "lon": -58.4054712, "tags": {"addr:city": "Ciudad Aut\u00f3noma de Buenos Aires", "addr:country": "AR", "addr:housenumber": "2755", "addr:postcode": "1040", "addr:street": "Teniente General Juan Domingo Per\u00f3n", "clothes": "babies", "contact:email": "babychikylu@gmail.com", "name": "Chikylu", "phone": "+54 11 4867-4027", "shop": "clothes", "website": "http://chikylu.blogspot.com/"}}, {"type": "node", "id": 2922298302, "lat": -34.5959783, "lon": -58.3944882, "tags": {"addr:city": "Ciudad Aut\u00f3noma de Buenos Aires", "addr:country": "AR", "addr:housenumber": "1884", "addr:street": "Avenida Santa Fe", "brand": "Columbia", "brand:wikidata": "Q1112588", "check_date": "2023-12-09", "clothes": "outdoor", "name": "Columbia", "official_name": "Columbia Sportswear", "opening_hours": "Mo-Sa 10:00-20:00", "payment:cash": "yes", "payment:credit_cards": "yes", "payment:debit_cards": "yes", "phone": "+54 11 4816 0737", "shop": "clothes", "website": "http://columbiasportswear.com.ar"}}, {"type": "node", "id": 3142926029, "lat": -34.59261, "lon": -58.4062948, "tags": {"addr:city": "Ciudad Aut\u00f3noma de Buenos Aires", "addr:country": "AR", "addr:housenumber": "2802", "addr:street": "Avenida Santa Fe", "check_date": "2024-01-15", "clothes": "men", "name": "Rever Pass", "opening_hours": "Mo-Sa 10:00-20:00; Su 11:00-19:00", "payment:cash": "yes", "payment:credit_cards": "yes", "payment:debit_cards": "yes", "payment:mastercard": "yes", "payment:visa": "yes", "shop": "clothes", "website": "https://www.reverpass.com"}}, {"type": "node", "id": 3183120261, "lat": -34.5974834, "lon": -58.3799422, "tags": {"clothes": "children", "shop": "clothes"}}, {"type": "node", "id": 3223532269, "lat": -34.5936605, "lon": -58.4395512, "tags": {"addr:city": "Ciudad Aut\u00f3noma de Buenos Aires", "addr:country": "AR", "addr:housenumber": "974", "addr:postcode": "1414", "addr:street": "Aguirre", "clothes": "underwear", "contact:facebook": "https://www.facebook.com/innocenza.arg/", "contact:website": "https://shop.innocenza.com.ar/", "name": "Innocenza", "shop": "clothes"}}, {"type": "node", "id": 3223580655, "lat": -34.5942288, "lon": -58.4389154, "tags": {"addr:city": "Ciudad Aut\u00f3noma de Buenos Aires", "addr:country": "AR", "addr:housenumber": "896", "addr:street": "Aguirre", "clothes": "men", "name": "Airborn", "shop": "clothes", "website": "https://www.airborn.com.ar/"}}, {"type": "node", "id": 3243846420, "lat": -34.5788299, "lon": -58.4266248, "tags": {"brand": "Billabong", "brand:wikidata": "Q862718", "brand:wikipedia": "en:Billabong (clothing)", "clothes": "men;women", "name": "Billabong", "shop": "clothes"}}, {"type": "node", "id": 3243846441, "lat": -34.5801014, "lon": -58.427706, "tags": {"brand": "Levi's", "brand:wikidata": "Q127962", "clothes": "denim;men;women", "name": "Levi's", "shop": "clothes"}}, {"type": "node", "id": 3577375893, "lat": -34.5632174, "lon": -58.4553921, "tags": {"addr:city": "Ciudad Aut\u00f3noma de Buenos Aires", "addr:country": "AR", "addr:housenumber": "1969", "addr:street": "Avenida Cabildo", "addr:suburb": "Belgrano", "clothes": "women", "name": "Rafina", "shop": "clothes"}}, {"type": "node", "id": 3577375993, "lat": -34.5633216, "lon": -58.4553129, "tags": {"addr:city": "Ciudad Aut\u00f3noma de Buenos Aires", "addr:country": "AR", "addr:housenumber": "1953", "addr:street": "Avenida Cabildo", "addr:suburb": "Belgrano", "clothes": "women", "name": "Luz de Mar", "shop": "clothes"}}, {"type": "node", "id": 3729723936, "lat": -34.5651725, "lon": -58.4542808, "tags": {"addr:city": "Ciudad Aut\u00f3noma de Buenos Aires", "addr:country": "AR", "addr:housenumber": "1784", "addr:postcode": "C1428", "addr:street": "Avenida Cabildo", "addr:suburb": "Belgrano", "check_date": "2025-10-23", "clothes": "men", "name": "VanComoPi\u00f1a", "shop": "clothes", "website": "https://vcp.com.ar/"}}, {"type": "node", "id": 3786187459, "lat": -34.5588324, "lon": -58.4591794, "tags": {"addr:city": "Ciudad Aut\u00f3noma de Buenos Aires", "addr:country": "AR", "addr:housenumber": "2427", "addr:street": "Avenida Cabildo", "addr:suburb": "Belgrano", "clothes": "women", "name": "City", "shop": "clothes"}}, {"type": "node", "id": 4036698220, "lat": -34.5504455, "lon": -58.4667012, "tags": {"clothes": "children", "name": "Monikids", "shop": "clothes"}}, {"type": "node", "id": 4174211390, "lat": -34.5561325, "lon": -58.4616254, "tags": {"addr:housenumber": "2809", "addr:street": "Avenida Cabildo", "clothes": "women", "name": "Kitapena", "shop": "clothes"}}, {"type": "node", "id": 4250383004, "lat": -34.5941472, "lon": -58.4370924}, {"type": "node", "id": 4315225522, "lat": -34.5729564, "lon": -58.4595369, "tags": {"addr:city": "Ciudad Aut\u00f3noma de Buenos Aires", "addr:country": "AR", "addr:housenumber": "3187", "addr:postcode": "1426", "addr:street": "Avenida Elcano", "addr:suburb": "Colegiales", "clothes": "women", "name": "Isadora", "shop": "clothes", "website": "http://www.isadora.com.ar/"}}, {"type": "node", "id": 4355953942, "lat": -34.6071686, "lon": -58.5276984, "tags": {"check_date": "2023-12-27", "clothes": "sports", "name": "Stock Center", "opening_hours": "Mo-Sa 09:30-20:30; Su 10:00-20:30", "payment:cash": "yes", "payment:credit_cards": "yes", "payment:debit_cards": "yes", "payment:mastercard": "yes", "payment:visa": "yes", "shop": "clothes", "website": "https://www.stockcenter.com.ar"}}, {"type": "node", "id": 4408280617, "lat": -34.5500682, "lon": -58.4675845, "tags": {"addr:housenumber": "3602", "addr:street": "Avenida Cabildo", "check_date": "2025-05-23", "clothes": "men", "name": "Kevingston", "opening_hours": "Mo-Sa 10:00-19:00; Su off", "payment:cash": "yes", "payment:credit_cards": "yes", "payment:debit_cards": "yes", "payment:mastercard": "yes", "payment:visa": "yes", "shop": "clothes", "website": "https://www.kevingston.com"}}, {"type": "node", "id": 4419128648, "lat": -34.5428397, "lon": -58.4725792, "tags": {"clothes": "men", "name": "Zehone", "shop": "clothes"}}, {"type": "node", "id": 4432846672, "lat": -34.5580975, "lon": -58.4603722, "tags": {"clothes": "men", "name": "Vicenzo", "shop": "clothes"}}, {"type": "node", "id": 4487062667, "lat": -34.5600001, "lon": -58.4534869, "tags": {"addr:city": "Ciudad Aut\u00f3noma de Buenos Aires", "addr:country": "AR", "addr:housenumber": "2047", "addr:street": "Avenida Juramento", "addr:suburb": "Belgrano", "clothes": "women", "shop": "vacant"}}, {"type": "node", "id": 4490809853, "lat": -34.5604186, "lon": -58.4583316, "tags": {"addr:country": "AR", "addr:housenumber": "2296", "addr:street": "Avenida Cabildo", "addr:suburb": "Belgrano", "check_date": "2025-03-11", "clothes": "women", "internet_access": "no", "name": "Crew", "payment:cash": "yes", "payment:credit_cards": "yes", "payment:debit_cards": "yes", "payment:mastercard": "yes", "payment:visa": "yes", "second_hand": "no", "shop": "clothes"}}, {"type": "node", "id": 4502578062, "lat": -34.5552856, "lon": -58.4624014, "tags": {"addr:city": "Ciudad Aut\u00f3noma de Buenos Aires", "addr:housenumber": "2901", "addr:postcode": "C1428", "addr:street": "Avenida Cabildo", "brand": "Todomoda", "brand:wikidata": "Q115898759", "clothes": "women", "name": "Todomoda", "shop": "clothes"}}, {"type": "node", "id": 4565820124, "lat": -34.5609839, "lon": -58.4646822, "tags": {"clothes": "workwear", "name": "Seleccion Hassan", "shop": "clothes"}}, {"type": "node", "id": 4591595905, "lat": -34.5705953, "lon": -58.4432143, "tags": {"addr:city": "Ciudad Aut\u00f3noma de Buenos Aires", "addr:housenumber": "623", "addr:postcode": "C1426", "addr:street": "Avenida Cabildo", "clothes": "men", "name": "Explora", "opening_hours": "Mo-Fr 10:00-19:00", "shop": "outdoor", "survey:date": "2022-09-10", "website": "http://www.exploraindumentaria.com/"}}, {"type": "node", "id": 4617601290, "lat": -34.5881009, "lon": -58.411726, "tags": {"addr:city": "Ciudad Aut\u00f3noma de Buenos Aires", "addr:housenumber": "3302", "addr:postcode": "C1425", "addr:street": "Avenida Santa Fe", "clothes": "men", "name": "Equus", "name:es": "Equus", "payment:cash": "yes", "payment:credit_cards": "yes", "payment:debit_cards": "yes", "phone": "+541139005458", "shop": "clothes", "website": "https://www.equus.com.ar/"}}, {"type": "node", "id": 4620958810, "lat": -34.5589505, "lon": -58.4590835, "tags": {"addr:city": "Ciudad Aut\u00f3noma de Buenos Aires", "addr:country": "AR", "addr:housenumber": "2417", "addr:street": "Avenida Cabildo", "addr:suburb": "Belgrano", "clothes": "men", "name": "Go Club", "shop": "clothes"}}, {"type": "node", "id": 4620958811, "lat": -34.5589253, "lon": -58.4591038, "tags": {"addr:city": "Ciudad Aut\u00f3noma de Buenos Aires", "addr:country": "AR", "addr:housenumber": "2419", "addr:postcode": "C1428", "addr:street": "Avenida Cabildo", "addr:suburb": "Belgrano", "clothes": "women", "name": "Hispanic", "shop": "clothes"}}, {"type": "node", "id": 4620958828, "lat": -34.5583557, "lon": -58.4595877, "tags": {"addr:city": "Ciudad Aut\u00f3noma de Buenos Aires", "addr:country": "AR", "addr:street": "Avenida Cabildo", "addr:suburb": "Belgrano", "clothes": "women", "name": "Sweet Victorian", "shop": "clothes"}}, {"type": "node", "id": 4620960649, "lat": -34.5592408, "lon": -58.4588289, "tags": {"addr:city": "Ciudad Aut\u00f3noma de Buenos Aires", "addr:country": "AR", "addr:housenumber": "2387", "addr:postcode": "C1428", "addr:street": "Avenida Cabildo", "addr:suburb": "Belgrano", "clothes": "women", "name": "Di Que Si", "shop": "clothes", "website": "https://diquesi.com.ar/"}}, {"type": "node", "id": 4620996002, "lat": -34.5574864, "lon": -58.4603841, "tags": {"addr:city": "Ciudad Aut\u00f3noma de Buenos Aires", "addr:postcode": "C1428", "addr:street": "Avenida Cabildo", "clothes": "women", "name": "Ch\u00e2telet", "shop": "clothes", "source": "Reconocimiento terrestre por Kaart 2016", "website": "https://www.chatelet.com.ar/"}}, {"type": "node", "id": 4621011563, "lat": -34.5554969, "lon": -58.4621892, "tags": {"addr:city": "Ciudad Aut\u00f3noma de Buenos Aires", "addr:housenumber": "2895", "addr:postcode": "C1428", "addr:street": "Avenida Cabildo", "check_date": "2025-05-02", "clothes": "women", "name": "Magnifique", "opening_hours": "Mo-Sa 11:00-20:00; Su off", "payment:cash": "yes", "payment:credit_cards": "yes", "payment:debit_cards": "yes", "payment:mastercard": "yes", "payment:visa": "yes", "shop": "clothes"}}, {"type": "node", "id": 4630877693, "lat": -34.570728, "lon": -58.4844616, "tags": {"check_date": "2023-10-20", "clothes": "children;babies;maternity", "name": "Cheeky", "shop": "clothes", "source": "Reconocimiento terrestre por Kaart 2016"}}, {"type": "node", "id": 4635304491, "lat": -34.5788259, "lon": -58.4245245, "tags": {"addr:city": "Ciudad Aut\u00f3noma de Buenos Aires", "addr:country": "AR", "addr:housenumber": "4531", "addr:postcode": "C1425", "addr:street": "Avenida Santa Fe", "addr:suburb": "Palermo", "clothes": "sports", "name": "Casa Cesto", "shop": "clothes", "website": "http://www.casacesto.com.ar/"}}, {"type": "node", "id": 4635820155, "lat": -34.585681, "lon": -58.4804435, "tags": {"addr:city": "Ciudad Aut\u00f3noma de Buenos Aires", "addr:country": "AR", "addr:street": "Avenida de los Incas", "clothes": "underwear", "name": "Los Tres Patitos", "shop": "clothes"}}, {"type": "node", "id": 4636060677, "lat": -34.5974624, "lon": -58.4979549, "tags": {"addr:city": "Ciudad Aut\u00f3noma de Buenos Aires", "addr:country": "AR", "addr:street": "Avenida Francisco Beir\u00f3", "clothes": "children", "name": "Bewiki", "shop": "clothes"}}, {"type": "node", "id": 4637946130, "lat": -34.5786936, "lon": -58.479382, "tags": {"addr:city": "Ciudad Aut\u00f3noma de Buenos Aires", "addr:country": "AR", "addr:housenumber": "4135", "addr:postcode": "1431", "addr:street": "Avenida Triunvirato", "check_date": "2023-09-27", "clothes": "underwear", "contact:facebook": "https://www.facebook.com/cocotdufourok/", "name": "Area Cocot", "phone": "+54 11 4521-9543", "shop": "clothes", "website": "https://cocot.com.ar/"}}, {"type": "node", "id": 4637946184, "lat": -34.5775224, "lon": -58.4811639, "tags": {"addr:city": "Ciudad Aut\u00f3noma de Buenos Aires", "addr:country": "AR", "addr:housenumber": "4295", "addr:postcode": "1431", "addr:street": "Avenida Triunvirato", "clothes": "children", "contact:facebook": "https://www.facebook.com/grisino.ropaparajugar/", "name": "Grisino", "opening_hours": "Mo-Sa 10:00-14:00,16:00-20:00", "phone": "+54 11 4521-2921", "shop": "clothes", "website": "https://www.grisino.com/"}}, {"type": "node", "id": 4637946185, "lat": -34.5774965, "lon": -58.4812046, "tags": {"addr:city": "Ciudad Aut\u00f3noma de Buenos Aires", "addr:country": "AR", "addr:housenumber": "4297", "addr:postcode": "1431", "addr:street": "Avenida Triunvirato", "clothes": "women", "name": "Scombro", "phone": "+54 11 4523-4813", "shop": "clothes"}}, {"type": "node", "id": 4637947691, "lat": -34.5774632, "lon": -58.4812061, "tags": {"addr:city": "Ciudad Aut\u00f3noma de Buenos Aires", "addr:country": "AR", "addr:housenumber": "4299", "addr:postcode": "1431", "addr:street": "Avenida Triunvirato", "clothes": "denim", "name": "Narrow", "shop": "clothes"}}, {"type": "node", "id": 4638114578, "lat": -34.5788405, "lon": -58.4796549, "tags": {"addr:city": "Ciudad Aut\u00f3noma de Buenos Aires", "addr:country": "AR", "addr:housenumber": "4150", "addr:postcode": "1431", "addr:street": "Avenida Triunvirato", "clothes": "women", "contact:facebook": "https://www.facebook.com/melaniavillaurquiza/", "name": "Melania", "opening_hours": "Mo-Sa 10:00-20:00", "phone": "+54 11 4523-6844", "shop": "clothes"}}, {"type": "node", "id": 4638787477, "lat": -34.5643753, "lon": -58.4694099, "tags": {"addr:city": "Ciudad Aut\u00f3noma de Buenos Aires", "addr:country": "AR", "addr:suburb": "Belgrano", "clothes": "underwear", "name": "Los Tres Patitos", "shop": "clothes"}}, {"type": "node", "id": 4644668089, "lat": -34.5752213, "lon": -58.4851842, "tags": {"addr:city": "Ciudad Aut\u00f3noma de Buenos Aires", "addr:country": "AR", "addr:housenumber": "4568", "addr:postcode": "1431", "addr:street": "Avenida Triunvirato", "brand": "Sel\u00fa", "clothes": "underwear", "name": "Los 3 Patitos", "opening_hours": "Mo-Sa 09:00-20:00", "phone": "+54 11 4521-2468", "shop": "clothes"}}, {"type": "node", "id": 4644900030, "lat": -34.5746969, "lon": -58.4855654, "tags": {"addr:city": "Ciudad Aut\u00f3noma de Buenos Aires", "addr:country": "AR", "addr:housenumber": "4627", "addr:postcode": "1431", "addr:street": "Avenida Triunvirato", "clothes": "children", "contact:facebook": "https://www.facebook.com/AtomikOficial/", "name": "Atomik", "opening_hours": "Mo-Sa 09:30-20:30", "phone": "+54 11 4521-3998", "shop": "clothes", "website": "https://www.atomik.com.ar/"}}, {"type": "node", "id": 4645223874, "lat": -34.5655848, "lon": -58.4528767, "tags": {"addr:city": "Ciudad Aut\u00f3noma de Buenos Aires", "addr:country": "AR", "addr:housenumber": "1699", "addr:postcode": "C1426", "addr:street": "Avenida Cabildo", "addr:suburb": "Belgrano", "branch": "Belgrano", "clothes": "women", "name": "Sweet", "shop": "clothes"}}, {"type": "node", "id": 4645228089, "lat": -34.5649505, "lon": -58.4538484, "tags": {"addr:city": "Ciudad Aut\u00f3noma de Buenos Aires", "addr:country": "AR", "addr:housenumber": "1781", "addr:street": "Avenida Cabildo", "addr:suburb": "Belgrano", "check_date": "2023-09-14", "clothes": "women", "name": "Mar\u00eda Enriqueta", "shop": "clothes"}}, {"type": "node", "id": 4645228097, "lat": -34.5649189, "lon": -58.4538954, "tags": {"addr:city": "Ciudad Aut\u00f3noma de Buenos Aires", "addr:country": "AR", "addr:street": "Avenida Cabildo", "addr:suburb": "Belgrano", "check_date": "2023-09-14", "clothes": "women", "name": "Kiwano", "shop": "clothes"}}, {"type": "node", "id": 4645388101, "lat": -34.5641397, "lon": -58.4546042, "tags": {"addr:city": "Ciudad Aut\u00f3noma de Buenos Aires", "addr:country": "AR", "addr:housenumber": "1865", "addr:street": "Avenida Cabildo", "addr:suburb": "Belgrano", "clothes": "men", "name": "Efecto Uno", "shop": "clothes"}}, {"type": "node", "id": 4645388112, "lat": -34.5638769, "lon": -58.4548202, "tags": {"check_date": "2023-08-26", "clothes": "women", "name": "Ayres", "shop": "clothes"}}, {"type": "node", "id": 4645388118, "lat": -34.5637294, "lon": -58.454954, "tags": {"addr:city": "Ciudad Aut\u00f3noma de Buenos Aires", "addr:housenumber": "1901", "addr:postcode": "C1426", "addr:street": "Avenida Cabildo", "clothes": "women", "name": "Portsaid", "shop": "clothes", "website": "https://www.portsaid.com.ar/"}}, {"type": "node", "id": 4645388122, "lat": -34.563654, "lon": -58.4550384, "tags": {"addr:city": "Ciudad Aut\u00f3noma de Buenos Aires", "addr:country": "AR", "addr:housenumber": "1915", "addr:street": "Avenida Cabildo", "addr:suburb": "Belgrano", "clothes": "women", "name": "Modelina", "shop": "clothes"}}, {"type": "node", "id": 4645388144, "lat": -34.5627882, "lon": -58.4557663, "tags": {"check_date": "2023-08-26", "clothes": "women", "name": "City", "shop": "clothes"}}, {"type": "node", "id": 4645718194, "lat": -34.5623645, "lon": -58.4561387, "tags": {"addr:city": "Ciudad Aut\u00f3noma de Buenos Aires", "addr:country": "AR", "addr:housenumber": "2051", "addr:street": "Avenida Cabildo", "addr:suburb": "Belgrano", "clothes": "women", "name": "Materia", "shop": "clothes"}}, {"type": "node", "id": 4645718209, "lat": -34.5617743, "lon": -58.4566422, "tags": {"addr:city": "Ciudad Aut\u00f3noma de Buenos Aires", "addr:country": "AR", "addr:housenumber": "2109", "addr:street": "Avenida Cabildo", "addr:suburb": "Belgrano", "clothes": "women", "name": "Sweet", "shop": "clothes"}}, {"type": "node", "id": 4645718210, "lat": -34.561742, "lon": -58.4566704, "tags": {"addr:city": "Ciudad Aut\u00f3noma de Buenos Aires", "addr:country": "AR", "addr:housenumber": "2119", "addr:street": "Avenida Cabildo", "addr:suburb": "Belgrano", "clothes": "women", "name": "Marcela Koury", "shop": "clothes"}}, {"type": "node", "id": 4645718217, "lat": -34.5617016, "lon": -58.4567021, "tags": {"addr:city": "Ciudad Aut\u00f3noma de Buenos Aires", "addr:country": "AR", "addr:housenumber": "2121", "addr:postcode": "C1428", "addr:street": "Avenida Cabildo", "addr:suburb": "Belgrano", "clothes": "women", "name": "Sant Antoni", "shop": "clothes"}}, {"type": "node", "id": 4645718224, "lat": -34.5615432, "lon": -58.4568341, "tags": {"addr:city": "Ciudad Aut\u00f3noma de Buenos Aires", "addr:country": "AR", "addr:housenumber": "2143", "addr:street": "Avenida Cabildo", "addr:suburb": "Belgrano", "clothes": "underwear", "name": "Cocot Dufour", "shop": "clothes"}}, {"type": "node", "id": 4645718239, "lat": -34.5611704, "lon": -58.4571546, "tags": {"addr:city": "Ciudad Aut\u00f3noma de Buenos Aires", "addr:country": "AR", "addr:housenumber": "2187", "addr:postcode": "C1428", "addr:street": "Avenida Cabildo", "addr:suburb": "Belgrano", "clothes": "men", "name": "Olegario", "shop": "clothes"}}, {"type": "node", "id": 4645760169, "lat": -34.5608344, "lon": -58.4574627, "tags": {"addr:city": "Ciudad Aut\u00f3noma de Buenos Aires", "addr:country": "AR", "addr:housenumber": "2209", "addr:postcode": "C1428", "addr:street": "Avenida Cabildo", "addr:suburb": "Belgrano", "branch": "Cabildo", "clothes": "women", "name": "Ted Bodin", "shop": "clothes", "website": "https://www.tedbodin.com/"}}, {"type": "node", "id": 4645760183, "lat": -34.5605936, "lon": -58.4576479, "tags": {"addr:city": "Ciudad Aut\u00f3noma de Buenos Aires", "addr:country": "AR", "addr:housenumber": "2239", "addr:postcode": "C1428", "addr:street": "Avenida Cabildo", "addr:suburb": "Belgrano", "clothes": "sports", "name": "Muni", "shop": "clothes", "website": "https://www.munidepot.com/"}}, {"type": "node", "id": 4645760186, "lat": -34.5604994, "lon": -58.457757, "tags": {"addr:city": "Ciudad Aut\u00f3noma de Buenos Aires", "addr:country": "AR", "addr:housenumber": "2257", "addr:street": "Avenida Cabildo", "addr:suburb": "Belgrano", "clothes": "women", "name": "Wupper", "shop": "clothes"}}, {"type": "node", "id": 4645760187, "lat": -34.5604539, "lon": -58.4578, "tags": {"addr:city": "Ciudad Aut\u00f3noma de Buenos Aires", "addr:country": "AR", "addr:housenumber": "2265", "addr:postcode": "C1428", "addr:street": "Avenida Cabildo", "addr:suburb": "Belgrano", "clothes": "men", "name": "Narrow", "opening_hours": "Mo-Sa 10:00-20:00", "shop": "clothes"}}, {"type": "node", "id": 4645864138, "lat": -34.5638433, "lon": -58.4553962, "tags": {"addr:city": "Ciudad Aut\u00f3noma de Buenos Aires", "addr:country": "AR", "addr:street": "Avenida Cabildo", "addr:suburb": "Belgrano", "check_date": "2023-08-26", "clothes": "children", "name": "Grisino", "shop": "clothes"}}, {"type": "node", "id": 4645864150, "lat": -34.5630622, "lon": -58.4563889}, {"type": "node", "id": 4645864154, "lat": -34.5629261, "lon": -58.4561559}, {"type": "node", "id": 4645864155, "lat": -34.5629847, "lon": -58.4564561}, {"type": "node", "id": 4645864156, "lat": -34.5628479, "lon": -58.4562287}, {"type": "node", "id": 4645864161, "lat": -34.562574, "lon": -58.4564761}, {"type": "node", "id": 4645864165, "lat": -34.5627103, "lon": -58.4567137}, {"type": "node", "id": 4645864166, "lat": -34.5626369, "lon": -58.456775}, {"type": "node", "id": 4645864167, "lat": -34.5625056, "lon": -58.4565398}, {"type": "node", "id": 4645951725, "lat": -34.5619805, "lon": -58.456993, "tags": {"addr:city": "Ciudad Aut\u00f3noma de Buenos Aires", "addr:country": "AR", "addr:housenumber": "2110", "addr:postcode": "C1428", "addr:street": "Avenida Cabildo", "addr:suburb": "Belgrano", "clothes": "women", "name": "Gloom", "shop": "clothes"}}, {"type": "node", "id": 4645951733, "lat": -34.5616634, "lon": -58.4572681, "tags": {"clothes": "men", "name": "Orso", "shop": "clothes", "website": "https://www.orsobianco.com.ar/"}}, {"type": "node", "id": 4645951734, "lat": -34.5616422, "lon": -58.4572868, "tags": {"addr:city": "Ciudad Aut\u00f3noma de Buenos Aires", "addr:country": "AR", "addr:housenumber": "2140", "addr:street": "Avenida Cabildo", "addr:suburb": "Belgrano", "clothes": "men", "name": "Macowens", "shop": "clothes"}}, {"type": "node", "id": 4645951757, "lat": -34.5595127, "lon": -58.4591091, "tags": {"addr:city": "Ciudad Aut\u00f3noma de Buenos Aires", "addr:country": "AR", "addr:street": "Avenida Cabildo", "addr:suburb": "Belgrano", "clothes": "underwear", "name": "Free Donna", "shop": "clothes"}}, {"type": "node", "id": 4646134211, "lat": -34.5615313, "lon": -58.458457, "tags": {"addr:city": "Ciudad Aut\u00f3noma de Buenos Aires", "addr:housenumber": "2499", "addr:postcode": "C1428", "addr:street": "Mendoza", "check_date": "2025-10-16", "clothes": "women", "name": "Melanie", "shop": "clothes", "survey:date": "2022-01-04"}}, {"type": "node", "id": 4646134216, "lat": -34.5612508, "lon": -58.4579556, "tags": {"addr:city": "Ciudad Aut\u00f3noma de Buenos Aires", "addr:country": "AR", "addr:housenumber": "2160", "addr:postcode": "C1428", "addr:street": "Mendoza", "addr:suburb": "Belgrano", "clothes": "swimwear", "name": "Luz de Mar", "shop": "clothes", "survey:date": "2022-01-04"}}, {"type": "node", "id": 4646205021, "lat": -34.5476418, "lon": -58.4695239, "tags": {"addr:city": "Ciudad Aut\u00f3noma de Buenos Aires", "addr:country": "AR", "addr:housenumber": "3892", "addr:street": "Avenida Cabildo", "addr:suburb": "Saavedra", "check_date": "2025-03-06", "clothes": "men", "name": "Old Bridge", "opening_hours": "Mo-Sa 10:00-20:00; Su off", "payment:cash": "yes", "payment:credit_cards": "yes", "payment:debit_cards": "yes", "payment:mastercard": "yes", "payment:visa": "yes", "shop": "clothes", "website": "https://www.oldbridge.com.ar"}}, {"type": "node", "id": 4648698323, "lat": -34.5579526, "lon": -58.4605191, "tags": {"addr:city": "Ciudad Aut\u00f3noma de Buenos Aires", "addr:housenumber": "2552", "addr:postcode": "C1428", "addr:street": "Avenida Cabildo", "clothes": "men", "name": "Pakman", "shop": "clothes"}}, {"type": "node", "id": 4648698326, "lat": -34.5579889, "lon": -58.4604788, "tags": {"addr:city": "Ciudad Aut\u00f3noma de Buenos Aires", "addr:housenumber": "2544", "addr:postcode": "C1428", "addr:street": "Avenida Cabildo", "clothes": "women", "name": "Ram\u00f3n", "shop": "clothes"}}, {"type": "node", "id": 4648698342, "lat": -34.5586422, "lon": -58.4598318, "tags": {"addr:city": "Ciudad Aut\u00f3noma de Buenos Aires", "addr:country": "AR", "addr:housenumber": "2476", "addr:postcode": "C1428", "addr:street": "Avenida Cabildo", "addr:suburb": "Belgrano", "clothes": "men", "name": "Bross", "shop": "clothes", "website": "https://www.bross.com.ar/"}}, {"type": "node", "id": 4648698347, "lat": -34.559087, "lon": -58.4594745, "tags": {"addr:city": "Ciudad Aut\u00f3noma de Buenos Aires", "addr:country": "AR", "addr:street": "Avenida Cabildo", "addr:suburb": "Belgrano", "clothes": "women", "name": "Luck", "shop": "clothes"}}, {"type": "node", "id": 4648698352, "lat": -34.5592464, "lon": -58.4593453, "tags": {"addr:city": "Ciudad Aut\u00f3noma de Buenos Aires", "addr:housenumber": "2402", "addr:postcode": "C1428", "addr:street": "Avenida Cabildo", "clothes": "men", "name": "Rever Pass", "opening_hours": "Mo-Su 10:00-20:00", "phone": "+54 11 4511-7680", "shop": "clothes", "survey:date": "2022-09-05", "website": "https://www.reverpass.com/"}}, {"type": "node", "id": 4648837284, "lat": -34.5605811, "lon": -58.4582006, "tags": {"addr:city": "Ciudad Aut\u00f3noma de Buenos Aires", "addr:country": "AR", "addr:housenumber": "2264", "addr:street": "Avenida Cabildo", "addr:suburb": "Belgrano", "brand": "Desigual", "brand:wikidata": "Q83750", "brand:wikipedia": "en:Desigual", "clothes": "men", "name": "Desigual", "shop": "clothes"}}, {"type": "node", "id": 4648837287, "lat": -34.5607959, "lon": -58.4580063, "tags": {"clothes": "underwear", "name": "Cool Covers", "shop": "mobile_phone"}}, {"type": "node", "id": 4648838201, "lat": -34.561271, "lon": -58.4576066, "tags": {"addr:city": "Ciudad Aut\u00f3noma de Buenos Aires", "addr:country": "AR", "addr:housenumber": "2196", "addr:postcode": "C1428", "addr:street": "Avenida Cabildo", "addr:suburb": "Belgrano", "clothes": "women", "name": "Fanamoda", "shop": "clothes", "wheelchair": "yes"}}, {"type": "node", "id": 4648838204, "lat": -34.561335, "lon": -58.4575563, "tags": {"addr:city": "Ciudad Aut\u00f3noma de Buenos Aires", "addr:country": "AR", "addr:housenumber": "2188", "addr:postcode": "C1428", "addr:street": "Avenida Cabildo", "addr:suburb": "Belgrano", "clothes": "men", "name": "Devr\u00e9", "opening_hours": "Mo-Sa 09:00-20:00", "payment:cash": "yes", "payment:credit_cards": "yes", "payment:debit_cards": "yes", "phone": "+54 11 4784-7610", "shop": "clothes", "website": "https://www.devre.la/", "wheelchair": "limited"}}, {"type": "node", "id": 4648838205, "lat": -34.561368, "lon": -58.4575285, "tags": {"addr:city": "Ciudad Aut\u00f3noma de Buenos Aires", "addr:country": "AR", "addr:street": "Avenida Cabildo", "addr:suburb": "Belgrano", "check_date": "2025-06-03", "clothes": "women", "name": "Koxis", "shop": "clothes", "wheelchair": "yes"}}, {"type": "node", "id": 4648838208, "lat": -34.5619106, "lon": -58.4570451, "tags": {"addr:city": "Ciudad Aut\u00f3noma de Buenos Aires", "addr:country": "AR", "addr:housenumber": "2118", "addr:postcode": "C1428", "addr:street": "Avenida Cabildo", "addr:suburb": "Belgrano", "clothes": "men", "name": "Equus", "payment:cash": "yes", "payment:credit_cards": "yes", "payment:debit_cards": "yes", "shop": "clothes", "survey:date": "2021-01-29", "website": "https://equus.com.ar/"}}, {"type": "node", "id": 4648838210, "lat": -34.5632534, "lon": -58.4559111, "tags": {"addr:city": "Ciudad Aut\u00f3noma de Buenos Aires", "addr:country": "AR", "addr:housenumber": "1986", "addr:postcode": "C1428", "addr:street": "Avenida Cabildo", "addr:suburb": "Belgrano", "check_date": "2025-10-20", "clothes": "children", "email": "cheekycabildo@gmail.com", "name": "Cheeky", "opening_hours": "Mo-Sa 09:00-20:30", "phone": "+54 11 4781-9597", "shop": "clothes", "website": "https://www.cheeky.com.ar/"}}, {"type": "node", "id": 4648838216, "lat": -34.5632017, "lon": -58.4559576, "tags": {"addr:city": "Ciudad Aut\u00f3noma de Buenos Aires", "addr:country": "AR", "addr:housenumber": "1996", "addr:postcode": "C1428", "addr:street": "Avenida Cabildo", "addr:suburb": "Belgrano", "check_date": "2025-10-20", "clothes": "women", "level": "0", "name": "La Roper\u00eda", "shop": "clothes"}}, {"type": "node", "id": 4648838222, "lat": -34.5635118, "lon": -58.4556826, "tags": {"addr:city": "Ciudad Aut\u00f3noma de Buenos Aires", "addr:country": "AR", "addr:housenumber": "1956", "addr:postcode": "C1428", "addr:street": "Avenida Cabildo", "addr:suburb": "Belgrano", "clothes": "men", "name": "MD 58", "shop": "clothes", "website": "https://md58jeans.com.ar/"}}, {"type": "node", "id": 4648872268, "lat": -34.5644582, "lon": -58.4549063, "tags": {"addr:city": "Ciudad Aut\u00f3noma de Buenos Aires", "addr:country": "AR", "addr:housenumber": "1856", "addr:postcode": "C1428", "addr:street": "Avenida Cabildo", "addr:suburb": "Belgrano", "check_date": "2025-10-20", "clothes": "men", "name": "Legacy", "opening_hours": "Mo-Sa 10:00-20:00", "payment:cash": "yes", "payment:credit_cards": "yes", "payment:debit_cards": "yes", "payment:mastercard": "yes", "payment:visa": "yes", "shop": "clothes", "website": "https://www.legacy.com.ar/", "wheelchair": "yes"}}, {"type": "node", "id": 4648872273, "lat": -34.5647952, "lon": -58.4546111, "tags": {"addr:city": "Ciudad Aut\u00f3noma de Buenos Aires", "addr:country": "AR", "addr:housenumber": "1816", "addr:postcode": "C1428", "addr:street": "Avenida Cabildo", "addr:suburb": "Belgrano", "clothes": "children", "name": "Advanced", "shop": "clothes"}}, {"type": "node", "id": 4649059616, "lat": -34.5664465, "lon": -58.4521047, "tags": {"addr:city": "Ciudad Aut\u00f3noma de Buenos Aires", "addr:country": "AR", "addr:housenumber": "1576", "addr:postcode": "C1426", "addr:street": "Avenida Cabildo", "addr:suburb": "Colegiales", "clothes": "workwear;schoolwear", "name": "D'Ony", "shop": "clothes"}}, {"type": "node", "id": 4649059642, "lat": -34.5670069, "lon": -58.451051, "tags": {"addr:city": "Ciudad Aut\u00f3noma de Buenos Aires", "addr:country": "AR", "addr:housenumber": "1502", "addr:postcode": "C1426", "addr:street": "Avenida Cabildo", "addr:suburb": "Colegiales", "clothes": "sports", "name": "Tommy", "shop": "clothes", "website": "https://www.tommyargentina.com/"}}, {"type": "node", "id": 4649059648, "lat": -34.5673052, "lon": -58.4504968, "tags": {"clothes": "underwear", "name": "Aretha", "shop": "clothes"}}, {"type": "node", "id": 4649252915, "lat": -34.5685259, "lon": -58.448177, "tags": {"addr:city": "Ciudad Aut\u00f3noma de Buenos Aires", "addr:housenumber": "1198", "addr:postcode": "C1426", "addr:street": "Avenida Cabildo", "clothes": "denim", "name": "Saber", "shop": "clothes"}}, {"type": "node", "id": 4649252944, "lat": -34.5695658, "lon": -58.4461903, "tags": {"addr:city": "Ciudad Aut\u00f3noma de Buenos Aires", "addr:country": "AR", "addr:housenumber": "928", "addr:postcode": "C1426", "addr:street": "Avenida Cabildo", "addr:suburb": "Colegiales", "clothes": "underwear;men", "name": "Eyelit", "network": "Loter\u00eda de la Ciudad", "shop": "clothes", "website": "https://eyelit.com.ar/"}}, {"type": "node", "id": 4649252964, "lat": -34.5699577, "lon": -58.4453254, "tags": {"addr:city": "Ciudad Aut\u00f3noma de Buenos Aires", "addr:country": "AR", "addr:housenumber": "818", "addr:postcode": "C1426", "addr:street": "Avenida Cabildo", "addr:suburb": "Colegiales", "clothes": "underwear", "name": "Tesira", "shop": "clothes"}}, {"type": "node", "id": 4649407271, "lat": -34.5714044, "lon": -58.442322, "tags": {"clothes": "underwear", "name": "Ola Lola", "shop": "clothes"}}, {"type": "node", "id": 4649659109, "lat": -34.5610992, "lon": -58.4572117, "tags": {"addr:city": "Ciudad Aut\u00f3noma de Buenos Aires", "addr:country": "AR", "addr:housenumber": "2193", "addr:street": "Avenida Cabildo", "addr:suburb": "Belgrano", "clothes": "men", "name": "Mistral", "shop": "clothes"}}, {"type": "node", "id": 4649659124, "lat": -34.5733542, "lon": -58.4380513, "tags": {"addr:city": "Ciudad Aut\u00f3noma de Buenos Aires", "addr:housenumber": "187", "addr:postcode": "C1426", "addr:street": "Avenida Cabildo", "clothes": "women;men", "name": "Tienda Nova", "shop": "health_food"}}, {"type": "node", "id": 4649893264, "lat": -34.5764361, "lon": -58.4325714, "tags": {"addr:city": "Ciudad Aut\u00f3noma de Buenos Aires", "addr:country": "AR", "addr:street": "Avenida Santa Fe", "addr:suburb": "Palermo", "clothes": "men", "name": "Estuardo", "shop": "clothes"}}, {"type": "node", "id": 4649897212, "lat": -34.5777854, "lon": -58.428159, "tags": {"addr:city": "Ciudad Aut\u00f3noma de Buenos Aires", "addr:housenumber": "4854", "addr:postcode": "C1425", "addr:street": "Avenida Santa Fe", "clothes": "costumes", "name": "Disfraces MF", "shop": "clothes", "website": "https://www.disfracesmf.com/"}}, {"type": "node", "id": 4649897227, "lat": -34.5779195, "lon": -58.4277523, "tags": {"addr:city": "Ciudad Aut\u00f3noma de Buenos Aires", "addr:housenumber": "4810", "addr:postcode": "C1425", "addr:street": "Avenida Santa Fe", "clothes": "women", "name": "Mitzzi", "shop": "clothes"}}, {"type": "node", "id": 4656685126, "lat": -34.5868874, "lon": -58.4521821}, {"type": "node", "id": 4656685127, "lat": -34.5867552, "lon": -58.4521153}, {"type": "node", "id": 4656685128, "lat": -34.5867192, "lon": -58.4522222}, {"type": "node", "id": 4656685129, "lat": -34.5867748, "lon": -58.4523197}, {"type": "node", "id": 4656685130, "lat": -34.586891, "lon": -58.4522109}, {"type": "node", "id": 4657106082, "lat": -34.5733082, "lon": -58.484361, "tags": {"addr:city": "Ciudad Aut\u00f3noma de Buenos Aires", "addr:country": "AR", "addr:housenumber": "4924", "addr:postcode": "1431", "addr:street": "Monroe", "check_date": "2023-10-20", "clothes": "men", "name": "Digital", "payment:cash": "yes", "payment:credit_cards": "yes", "payment:debit_cards": "yes", "payment:mastercard": "yes", "payment:visa": "yes", "phone": "+54 11 4521-6721", "shop": "clothes", "wheelchair": "limited"}}, {"type": "node", "id": 4657285869, "lat": -34.5735876, "lon": -58.4853017, "tags": {"addr:city": "Ciudad Aut\u00f3noma de Buenos Aires", "addr:country": "AR", "addr:housenumber": "4983", "addr:postcode": "1431", "addr:street": "Monroe", "clothes": "women", "contact:facebook": "https://www.facebook.com/sixtyone.indumentaria/", "name": "Sixty One", "opening_hours": "Mo-Sa 10:00-20:00", "phone": "+54 11 4523-0760", "shop": "clothes"}}, {"type": "node", "id": 4657285870, "lat": -34.5736048, "lon": -58.4853369, "tags": {"addr:city": "Ciudad Aut\u00f3noma de Buenos Aires", "addr:country": "AR", "addr:housenumber": "4985", "addr:postcode": "1431", "addr:street": "Monroe", "clothes": "men", "name": "Lozio", "phone": "+54 11 4523-4935", "shop": "clothes"}}, {"type": "node", "id": 4657315934, "lat": -34.573848, "lon": -58.4857594, "tags": {"addr:city": "Ciudad Aut\u00f3noma de Buenos Aires", "addr:country": "AR", "addr:housenumber": "5025", "addr:postcode": "1431", "addr:street": "Monroe", "clothes": "underwear", "name": "Por Amor", "shop": "clothes"}}, {"type": "node", "id": 4657315960, "lat": -34.5745529, "lon": -58.4870416, "tags": {"addr:city": "Ciudad Aut\u00f3noma de Buenos Aires", "addr:country": "AR", "addr:street": "Monroe", "clothes": "children", "name": "Kinder", "shop": "clothes"}}, {"type": "node", "id": 4657846730, "lat": -34.6224281, "lon": -58.4961953}, {"type": "node", "id": 4657846731, "lat": -34.6226312, "lon": -58.4964374}, {"type": "node", "id": 4657846733, "lat": -34.6224835, "lon": -58.4961267}, {"type": "node", "id": 4657846734, "lat": -34.6226864, "lon": -58.4963737}, {"type": "node", "id": 4657889258, "lat": -34.5959856, "lon": -58.4998455, "tags": {"check_date": "2024-11-29", "clothes": "men", "name": "Cacher", "shop": "clothes"}}, {"type": "node", "id": 4658185176, "lat": -34.5772004, "lon": -58.4758309, "tags": {"addr:city": "Ciudad Aut\u00f3noma de Buenos Aires", "addr:country": "AR", "addr:housenumber": "2402", "addr:postcode": "1431", "addr:street": "Avenida \u00c1lvarez Thomas", "clothes": "men;discount", "name": "B.H. Polo Club", "phone": "+54 11 4523-8354", "shop": "clothes"}}, {"type": "node", "id": 4659951391, "lat": -34.5578039, "lon": -58.4493977, "tags": {"addr:city": "Ciudad Aut\u00f3noma de Buenos Aires", "addr:country": "AR", "addr:housenumber": "1658", "addr:street": "Juramento", "addr:suburb": "Belgrano", "clothes": "oversize", "name": "Van Roger", "shop": "clothes"}}, {"type": "node", "id": 4660797720, "lat": -34.6097102, "lon": -58.4829848, "tags": {"addr:city": "Ciudad Aut\u00f3noma de Buenos Aires", "addr:country": "AR", "addr:street": "Avenida Nazca", "clothes": "underwear", "name": "Area Cocot", "shop": "clothes"}}, {"type": "node", "id": 4660848417, "lat": -34.6226401, "lon": -58.4963114}, {"type": "node", "id": 4661052610, "lat": -34.6163156, "lon": -58.4994192, "tags": {"clothes": "underwear", "name": "Nury", "shop": "clothes"}}, {"type": "node", "id": 4661097725, "lat": -34.6017444, "lon": -58.494054, "tags": {"addr:city": "Ciudad Aut\u00f3noma de Buenos Aires", "addr:country": "AR", "addr:street": "Nazarre", "clothes": "children", "level": "0", "name": "Cheeke Outlet", "shop": "clothes"}}, {"type": "node", "id": 4668716472, "lat": -34.592816, "lon": -58.4326113, "tags": {"addr:city": "Ciudad Aut\u00f3noma de Buenos Aires", "addr:country": "AR", "addr:housenumber": "4802", "addr:street": "Avenida C\u00f3rdoba", "check_date": "2023-11-27", "clothes": "men", "internet_access": "wlan", "internet_access:fee": "customers", "name": "Wellington Polo Club", "opening_hours": "Mo-Sa 11:00-19:00; Su off", "payment:cash": "yes", "payment:credit_cards": "yes", "payment:debit_cards": "yes", "payment:mastercard": "yes", "payment:visa": "yes", "shop": "clothes", "wheelchair": "no"}}, {"type": "node", "id": 4668719358, "lat": -34.550201, "lon": -58.464016, "tags": {"addr:city": "Ciudad Aut\u00f3noma de Buenos Aires", "addr:country": "AR", "addr:housenumber": "2172", "addr:suburb": "N\u00fa\u00f1ez", "clothes": "underwear", "shop": "clothes"}}, {"type": "node", "id": 4669650786, "lat": -34.593981, "lon": -58.4370032}, {"type": "node", "id": 4669653689, "lat": -34.594047, "lon": -58.4369326}, {"type": "node", "id": 4669843892, "lat": -34.591887, "lon": -58.433396, "tags": {"addr:city": "Ciudad Aut\u00f3noma de Buenos Aires", "addr:country": "AR", "addr:street": "Gurruchaga", "addr:suburb": "Palermo", "check_date": "2023-11-27", "clothes": "men", "name": "Prototype", "opening_hours": "Mo-Sa 10:00-19:00; Su off", "payment:cash": "yes", "payment:credit_cards": "yes", "payment:debit_cards": "yes", "payment:mastercard": "yes", "payment:visa": "yes", "shop": "clothes", "website": "https://www.prototype.com.ar", "wheelchair": "no"}}, {"type": "node", "id": 4670184622, "lat": -34.6169667, "lon": -58.3621245, "tags": {"clothes": "men", "fixme": "name", "name": "Giorgio Redaelli", "shop": "clothes", "source": "Reconocimiento terrestre por Kaart 2016"}}, {"type": "node", "id": 4672292196, "lat": -34.6110372, "lon": -58.362821, "tags": {"clothes": "women", "name": "Burges", "shop": "clothes", "source": "Reconocimiento terrestre por Kaart 2016"}}, {"type": "node", "id": 4673236580, "lat": -34.6128617, "lon": -58.3915491, "tags": {"addr:city": "Ciudad Aut\u00f3noma de Buenos Aires", "addr:country": "AR", "addr:street": "Avenida Entre R\u00edos", "clothes": "men", "name": "Lauro", "shop": "clothes"}}, {"type": "node", "id": 4673757361, "lat": -34.6045985, "lon": -58.4038339, "tags": {"addr:city": "Ciudad Aut\u00f3noma de Buenos Aires", "addr:country": "AR", "addr:street": "Avenida Corrientes", "clothes": "swimwear", "name": "Sweet Victorian", "shop": "clothes"}}, {"type": "node", "id": 4675204446, "lat": -34.5845424, "lon": -58.4002414, "tags": {"addr:street": "Avenida General Las Heras", "clothes": "women", "name": "Kalabaza", "shop": "clothes"}}, {"type": "node", "id": 4675324590, "lat": -34.5843306, "lon": -58.4175483, "tags": {"addr:city": "Ciudad Aut\u00f3noma de Buenos Aires", "addr:country": "AR", "addr:housenumber": "3816", "addr:postcode": "C1425", "addr:street": "Avenida Santa Fe", "addr:suburb": "Palermo", "clothes": "men", "name": "Big & Tall", "shop": "clothes", "website": "https://bigandtall.com.ar/"}}, {"type": "node", "id": 4675430218, "lat": -34.586075, "lon": -58.3989752, "tags": {"addr:city": "Ciudad Aut\u00f3noma de Buenos Aires", "addr:country": "AR", "addr:street": "Avenida General Las Heras", "clothes": "women", "name": "Anteprima", "shop": "clothes"}}, {"type": "node", "id": 4675437621, "lat": -34.5873867, "lon": -58.3975638, "tags": {"check_date": "2024-01-19", "clothes": "women", "name": "Kill", "payment:cash": "yes", "payment:credit_cards": "yes", "payment:debit_cards": "yes", "payment:mastercard": "yes", "payment:visa": "yes", "shop": "clothes", "website": "https://www.kill.com.ar/"}}, {"type": "node", "id": 4675671002, "lat": -34.5945946, "lon": -58.4298882, "tags": {"addr:city": "Ciudad Aut\u00f3noma de Buenos Aires", "addr:country": "AR", "addr:street": "Avenida C\u00f3rdoba", "clothes": "men", "name": "Marks&Labels", "shop": "clothes"}}, {"type": "node", "id": 4675671012, "lat": -34.5942065, "lon": -58.4305254, "tags": {"addr:city": "Ciudad Aut\u00f3noma de Buenos Aires", "addr:country": "AR", "addr:street": "Avenida C\u00f3rdoba", "clothes": "women", "name": "Orix", "shop": "clothes"}}, {"type": "node", "id": 4675671014, "lat": -34.5941062, "lon": -58.4306056}, {"type": "node", "id": 4675671015, "lat": -34.594153, "lon": -58.4306005, "tags": {"addr:city": "Ciudad Aut\u00f3noma de Buenos Aires", "addr:country": "AR", "addr:street": "Avenida C\u00f3rdoba", "check_date": "2024-03-15", "clothes": "men", "name": "Macowens", "shop": "clothes"}}, {"type": "node", "id": 4675671016, "lat": -34.5942558, "lon": -58.4307479}, {"type": "node", "id": 4675671017, "lat": -34.5942322, "lon": -58.4307845}, {"type": "node", "id": 4675671018, "lat": -34.5942647, "lon": -58.4308154}, {"type": "node", "id": 4675671019, "lat": -34.5942414, "lon": -58.4308515}, {"type": "node", "id": 4675671020, "lat": -34.5940588, "lon": -58.430676}, {"type": "node", "id": 4676862876, "lat": -34.595255, "lon": -58.4282249, "tags": {"addr:city": "Ciudad Aut\u00f3noma de Buenos Aires", "addr:country": "AR", "addr:street": "Avenida C\u00f3rdoba", "addr:suburb": "Palermo", "check_date": "2023-11-28", "clothes": "men", "name": "Honky Tonk", "opening_hours": "Mo-Sa 11:00-19:00; Su off", "shop": "clothes", "website": "https://www.honky-tonk.com.ar/", "wheelchair": "no"}}, {"type": "node", "id": 4676864697, "lat": -34.5948958, "lon": -58.4288177, "tags": {"addr:city": "Ciudad Aut\u00f3noma de Buenos Aires", "addr:country": "AR", "addr:housenumber": "4481", "addr:street": "Avenida C\u00f3rdoba", "addr:suburb": "Palermo", "check_date": "2023-11-28", "clothes": "men", "name": "Dufour", "opening_hours": "Mo-Sa 10:00-19:00; Su off", "payment:cash": "yes", "payment:credit_cards": "yes", "payment:debit_cards": "yes", "payment:mastercard": "yes", "payment:visa": "yes", "shop": "clothes", "wheelchair": "no"}}, {"type": "node", "id": 4676880742, "lat": -34.5944648, "lon": -58.4294887, "tags": {"addr:city": "Ciudad Aut\u00f3noma de Buenos Aires", "addr:country": "AR", "addr:street": "Avenida C\u00f3rdoba", "addr:suburb": "Palermo", "clothes": "children", "name": "A Ke No Sabes", "shop": "clothes"}}, {"type": "node", "id": 4676880749, "lat": -34.5942924, "lon": -58.4297885, "tags": {"addr:city": "Ciudad Aut\u00f3noma de Buenos Aires", "addr:country": "AR", "addr:street": "Avenida C\u00f3rdoba", "addr:suburb": "Palermo", "clothes": "sports", "name": "Dass Outlet", "shop": "clothes"}}, {"type": "node", "id": 4676913010, "lat": -34.5933589, "lon": -58.4311722, "tags": {"check_date": "2023-11-27", "clothes": "men", "name": "Tascani", "opening_hours": "Mo-Sa 10:00-20:00; Su off", "payment:cash": "yes", "payment:credit_cards": "yes", "payment:debit_cards": "yes", "payment:mastercard": "yes", "payment:visa": "yes", "shop": "clothes", "website": "https://www.tascani.com.ar"}}, {"type": "node", "id": 4676913051, "lat": -34.5917649, "lon": -58.4335659, "tags": {"addr:city": "Ciudad Aut\u00f3noma de Buenos Aires", "addr:country": "AR", "addr:housenumber": "4931", "addr:street": "Avenida C\u00f3rdoba", "addr:suburb": "Palermo", "check_date": "2023-11-27", "clothes": "men;underwear", "name": "Eyelit", "opening_hours": "Mo-Sa 11:00-19:00; Su off", "payment:cash": "yes", "payment:credit_cards": "yes", "payment:debit_cards": "yes", "payment:mastercard": "yes", "payment:visa": "yes", "shop": "clothes", "website": "https://www.eyelit.com.ar", "wheelchair": "no"}}, {"type": "node", "id": 4676919142, "lat": -34.5362058, "lon": -58.477034, "tags": {"addr:street": "Avenida Maip\u00fa", "clothes": "women", "name": "Sink", "shop": "clothes"}}, {"type": "node", "id": 4677413932, "lat": -34.6208528, "lon": -58.3739336, "tags": {"clothes": "fancy_dress", "name": "Maria Tazmin", "shop": "clothes", "source": "Reconocimiento terrestre por Kaart 2016"}}, {"type": "node", "id": 4683817056, "lat": -34.6396793, "lon": -58.5249104, "tags": {"addr:city": "Ciudad Aut\u00f3noma de Buenos Aires", "addr:country": "AR", "addr:housenumber": "44", "addr:street": "Carhu\u00e9", "clothes": "underwear", "name": "Andressa", "shop": "clothes"}}, {"type": "node", "id": 4683907584, "lat": -34.6509189, "lon": -58.5135437, "tags": {"clothes": "women", "name": "Twins", "shop": "clothes"}}, {"type": "node", "id": 4684188808, "lat": -34.6393496, "lon": -58.5251962, "tags": {"clothes": "men", "name": "Borg\u00eda", "shop": "clothes"}}, {"type": "node", "id": 4684371787, "lat": -34.6503457, "lon": -58.5018281}, {"type": "node", "id": 4684371788, "lat": -34.6505364, "lon": -58.5015745}, {"type": "node", "id": 4684371989, "lat": -34.650479, "lon": -58.5015083}, {"type": "node", "id": 4684371990, "lat": -34.6504171, "lon": -58.5015138}, {"type": "node", "id": 4684371991, "lat": -34.6502573, "lon": -58.5017308}, {"type": "node", "id": 4684372008, "lat": -34.6510181, "lon": -58.502089}, {"type": "node", "id": 4684372009, "lat": -34.6509101, "lon": -58.5022185}, {"type": "node", "id": 4684372010, "lat": -34.6509744, "lon": -58.5022978}, {"type": "node", "id": 4698155307, "lat": -34.5965505, "lon": -58.3794842, "tags": {"addr:city": "Ciudad Aut\u00f3noma de Buenos Aires", "addr:country": "AR", "addr:street": "Marcelo T. de Alvear", "clothes": "men", "name": "Peleter\u00eda London", "shop": "clothes"}}, {"type": "node", "id": 4699740887, "lat": -34.606888, "lon": -58.3821802, "tags": {"addr:city": "Ciudad Aut\u00f3noma de Buenos Aires", "addr:country": "AR", "clothes": "mem", "name": "El Sr. Fernandez", "shop": "clothes"}}, {"type": "node", "id": 4699740888, "lat": -34.6069239, "lon": -58.3821765, "tags": {"addr:city": "Ciudad Aut\u00f3noma de Buenos Aires", "addr:country": "AR", "clothes": "underwear", "name": "Eviam", "shop": "clothes"}}, {"type": "node", "id": 4699907380, "lat": -34.5963737, "lon": -58.3792292, "tags": {"clothes": "men", "name": "F. Carazo", "shop": "clothes"}}, {"type": "node", "id": 4700067703, "lat": -34.6179262, "lon": -58.4364632, "tags": {"addr:city": "Ciudad Aut\u00f3noma de Buenos Aires", "addr:country": "AR", "addr:street": "Avenida Acoyte", "clothes": "children", "name": "Pachi", "shop": "clothes"}}, {"type": "node", "id": 4702498464, "lat": -34.5990077, "lon": -58.3776189, "tags": {"clothes": "men", "name": "Branley", "shop": "clothes"}}, {"type": "node", "id": 4707360733, "lat": -34.5957629, "lon": -58.3844373, "tags": {"addr:city": "Ciudad Aut\u00f3noma de Buenos Aires", "addr:country": "AR", "addr:housenumber": "1210", "addr:street": "Avenida Santa Fe", "clothes": "men", "name": "Waiting", "shop": "clothes"}}, {"type": "node", "id": 4707501265, "lat": -34.5959953, "lon": -58.392834, "tags": {"brand": "Levi's", "brand:wikidata": "Q127962", "brand:wikipedia": "en:Levi Strauss & Co.", "clothes": "denim;men;women", "name": "Levi's", "shop": "clothes", "source": "Reconocimiento terrestre por Kaart 2016"}}, {"type": "node", "id": 4708640312, "lat": -34.5911264, "lon": -58.407882, "tags": {"clothes": "underwear", "name": "Area Cocot", "shop": "clothes"}}, {"type": "node", "id": 4709049563, "lat": -34.5849016, "lon": -58.4153135, "tags": {"addr:city": "Ciudad Aut\u00f3noma de Buenos Aires", "addr:country": "AR", "addr:street": "Avenida Ra\u00fal Scalabrini Ortiz", "addr:suburb": "Palermo", "clothes": "women", "name": "Annette", "shop": "clothes"}}, {"type": "node", "id": 4709309163, "lat": -34.599104, "lon": -58.4373379}, {"type": "node", "id": 4709309164, "lat": -34.5991488, "lon": -58.4374101}, {"type": "node", "id": 4709309165, "lat": -34.5991751, "lon": -58.437415}, {"type": "node", "id": 4709309166, "lat": -34.5992452, "lon": -58.4373506}, {"type": "node", "id": 4709309167, "lat": -34.5991888, "lon": -58.43726}, {"type": "node", "id": 4709322918, "lat": -34.6004114, "lon": -58.4393399, "tags": {"addr:city": "Ciudad Aut\u00f3noma de Buenos Aires", "addr:country": "AR", "addr:street": "Avenida Ra\u00fal Scalabrini Ortiz", "clothes": "lingerie", "name": "Sweet Victoria", "shop": "clothes"}}, {"type": "node", "id": 4709424700, "lat": -34.5883727, "lon": -58.4213773, "tags": {"addr:city": "Ciudad Aut\u00f3noma de Buenos Aires", "addr:country": "AR", "addr:housenumber": "2018", "addr:street": "Avenida Ra\u00fal Scalabrini Ortiz", "addr:suburb": "Palermo", "clothes": "women", "name": "Cad\u00e1ver Exquisito", "shop": "clothes"}}, {"type": "node", "id": 4710344649, "lat": -34.5864397, "lon": -58.4137331, "tags": {"addr:city": "Ciudad Aut\u00f3noma de Buenos Aires", "addr:country": "AR", "addr:street": "Avenida Santa Fe", "addr:suburb": "Palermo", "clothes": "lingerie", "name": "Camila", "shop": "clothes"}}, {"type": "node", "id": 4710344668, "lat": -34.586828, "lon": -58.4131378, "tags": {"addr:city": "Ciudad Aut\u00f3noma de Buenos Aires", "addr:country": "AR", "addr:housenumber": "2401", "addr:street": "Avenida Santa Fe", "addr:suburb": "Palermo", "clothes": "dresses", "name": "Proverbio", "shop": "clothes"}}, {"type": "node", "id": 4710788499, "lat": -34.5877165, "lon": -58.4118109, "tags": {"addr:city": "Ciudad Aut\u00f3noma de Buenos Aires", "addr:country": "AR", "addr:street": "Avenida Santa Fe", "addr:suburb": "Palermo", "clothes": "lingerie", "name": "Sel\u00fa", "shop": "clothes"}}, {"type": "node", "id": 4711116957, "lat": -34.5906841, "lon": -58.4079385, "tags": {"addr:city": "Ciudad Aut\u00f3noma de Buenos Aires", "addr:country": "AR", "addr:street": "Avenida Santa Fe", "clothes": "underwear", "name": "Camila", "shop": "clothes"}}, {"type": "node", "id": 4711139594, "lat": -34.5916665, "lon": -58.4069251, "tags": {"addr:city": "Ciudad Aut\u00f3noma de Buenos Aires", "addr:country": "AR", "addr:street": "Avenida Santa Fe", "clothes": "dresses", "name": "Roc\u00edo", "shop": "clothes"}}, {"type": "node", "id": 4711390333, "lat": -34.5956226, "lon": -58.3886064, "tags": {"addr:city": "Ciudad Aut\u00f3noma de Buenos Aires", "addr:country": "AR", "addr:street": "Avenida Santa Fe", "clothes": "baby", "name": "Grisino", "shop": "clothes"}}, {"type": "node", "id": 4764348919, "lat": -34.5628825, "lon": -58.4529376, "tags": {"addr:city": "Ciudad Aut\u00f3noma de Buenos Aires", "addr:country": "AR", "addr:housenumber": "1893", "addr:street": "Cuba", "addr:suburb": "Belgrano", "clothes": "babies", "name": "Babycottons", "shop": "clothes"}}, {"type": "node", "id": 4767580616, "lat": -34.5626188, "lon": -58.451774, "tags": {"clothes": "women", "name": "Sole B\u00e8cu", "shop": "clothes"}}, {"type": "node", "id": 4768904222, "lat": -34.5708903, "lon": -58.4426178, "tags": {"addr:city": "Ciudad Aut\u00f3noma de Buenos Aires", "addr:housenumber": "593", "addr:postcode": "C1426", "addr:street": "Avenida Cabildo", "clothes": "men", "name": "Suaya", "shop": "clothes"}}, {"type": "node", "id": 4774980574, "lat": -34.559719, "lon": -58.4532012, "tags": {"addr:city": "Ciudad Aut\u00f3noma de Buenos Aires", "addr:country": "AR", "addr:housenumber": "2108", "addr:street": "O'Higgins", "addr:suburb": "Belgrano", "clothes": "women", "name": "Burkina", "opening_hours": "Mo-Fr 10:30-15:00, 16:00-19:00; Sa 10:00-15:00", "shop": "clothes"}}, {"type": "node", "id": 4779056423, "lat": -34.6021972, "lon": -58.3731393, "tags": {"clothes": "men", "level": "0", "name": "Halsey", "shop": "clothes"}}, {"type": "node", "id": 4804023992, "lat": -34.565784, "lon": -58.4533676, "tags": {"clothes": "underwear", "name": "Lencer\u00eda N.W", "shop": "clothes"}}, {"type": "node", "id": 4804027569, "lat": -34.563907, "lon": -58.4548266, "tags": {"check_date": "2023-08-26", "clothes": "socks", "name": "Almac\u00e9n de Medias", "shop": "clothes", "website": "https://www.almacendemedias.com.ar/"}}, {"type": "node", "id": 4804027571, "lat": -34.558222, "lon": -58.4528817, "tags": {"clothes": "women", "name": "Billybob", "shop": "clothes"}}, {"type": "node", "id": 4858736099, "lat": -34.563414, "lon": -58.456312, "tags": {"clothes": "sports", "name": "Modo Fit", "shop": "clothes"}}, {"type": "node", "id": 4879623282, "lat": -34.5651661, "lon": -58.4535347, "tags": {"addr:city": "Ciudad Aut\u00f3noma de Buenos Aires", "addr:country": "AR", "addr:housenumber": "1747", "addr:street": "Avenida Cabildo", "addr:suburb": "Belgrano", "clothes": "women", "name": "Todo Sobre Mi", "shop": "clothes"}}, {"type": "node", "id": 4879623283, "lat": -34.5651257, "lon": -58.4536037, "tags": {"addr:city": "Ciudad Aut\u00f3noma de Buenos Aires", "addr:housenumber": "1751", "addr:postcode": "C1426", "addr:street": "Avenida Cabildo", "clothes": "women", "name": "Rimmel", "shop": "clothes", "survey:date": "2021-05-11", "website": "https://www.rimmel.com.ar/"}}, {"type": "node", "id": 4883863918, "lat": -34.5647157, "lon": -58.4538179, "tags": {"clothes": "women", "name": "Wear", "shop": "clothes"}}, {"type": "node", "id": 4883864455, "lat": -34.5645094, "lon": -58.4538412, "tags": {"clothes": "children", "name": "Mar\u00eda de las Mercedes", "shop": "clothes"}}, {"type": "node", "id": 4883864741, "lat": -34.5654885, "lon": -58.4538757, "tags": {"clothes": "underwear", "name": "Mar\u00eda de las Mercedes", "shop": "clothes"}}, {"type": "node", "id": 4883864746, "lat": -34.5644818, "lon": -58.4537851, "tags": {"clothes": "children", "name": "El Principito", "shop": "clothes"}}, {"type": "node", "id": 4885829178, "lat": -34.5635825, "lon": -58.4519093, "tags": {"clothes": "women", "shop": "clothes"}}, {"type": "node", "id": 4885829329, "lat": -34.5642433, "lon": -58.4530015, "tags": {"clothes": "children", "name": "Sweet Hearts", "shop": "pet"}}, {"type": "node", "id": 4885830209, "lat": -34.5636365, "lon": -58.4519992, "tags": {"clothes": "maternity", "name": "Venga Madre", "shop": "clothes"}}, {"type": "node", "id": 4885830212, "lat": -34.5634826, "lon": -58.4517111, "tags": {"clothes": "women", "name": "El\u00e1stica", "shop": "clothes"}}, {"type": "node", "id": 4888803771, "lat": -34.5629959, "lon": -58.4512701, "tags": {"addr:housenumber": "2069", "addr:street": "La Pampa", "check_date": "2025-08-26", "clothes": "women", "name": "Julia Luque", "payment:cash": "yes", "payment:credit_cards": "yes", "payment:debit_cards": "yes", "payment:mastercard": "yes", "payment:visa": "yes", "shop": "clothes"}}, {"type": "node", "id": 4890069717, "lat": -34.5639288, "lon": -58.4548074, "tags": {"clothes": "women", "name": "Central", "shop": "clothes"}}, {"type": "node", "id": 4897664271, "lat": -34.5646916, "lon": -58.4546947, "tags": {"addr:city": "Ciudad Aut\u00f3noma de Buenos Aires", "addr:country": "AR", "addr:housenumber": "1838", "addr:street": "Avenida Cabildo", "addr:suburb": "Belgrano", "clothes": "women", "name": "Body Sculpt", "shop": "clothes", "survey:date": "2021-08-20"}}, {"type": "node", "id": 4897664272, "lat": -34.56442, "lon": -58.4549367, "tags": {"addr:city": "Ciudad Aut\u00f3noma de Buenos Aires", "addr:country": "AR", "addr:housenumber": "1858", "addr:postcode": "C1428", "addr:street": "Avenida Cabildo", "addr:suburb": "Belgrano", "clothes": "women", "name": "Mamy Blue", "shop": "clothes"}}, {"type": "node", "id": 4897664598, "lat": -34.5647577, "lon": -58.4546381, "tags": {"addr:city": "Ciudad Aut\u00f3noma de Buenos Aires", "addr:country": "AR", "addr:housenumber": "1820", "addr:postcode": "C1428", "addr:street": "Avenida Cabildo", "addr:suburb": "Belgrano", "branch": "Cabildo", "clothes": "women", "name": "Desiderata", "shop": "clothes", "website": "https://www.desiderata.com.ar/"}}, {"type": "node", "id": 4897664826, "lat": -34.564723, "lon": -58.4546596, "tags": {"addr:city": "Ciudad Aut\u00f3noma de Buenos Aires", "addr:housenumber": "1828", "addr:postcode": "C1428", "addr:street": "Avenida Cabildo", "clothes": "women", "name": "Ver", "shop": "clothes", "website": "https://www.ver.com.ar/"}}, {"type": "node", "id": 4900427254, "lat": -34.5635559, "lon": -58.4546556, "tags": {"addr:city": "Ciudad Aut\u00f3noma de Buenos Aires", "addr:housenumber": "2351", "addr:postcode": "C1428", "addr:street": "Mariscal Antonio Jos\u00e9 de Sucre", "clothes": "women", "name": "Hamart\u00eda", "shop": "clothes"}}, {"type": "node", "id": 4900467746, "lat": -34.563734, "lon": -58.4545851, "tags": {"addr:city": "Ciudad Aut\u00f3noma de Buenos Aires", "addr:country": "AR", "addr:housenumber": "2634", "addr:street": "Mariscal Antonio Jos\u00e9 de Sucre", "addr:suburb": "Belgrano", "clothes": "women", "shop": "clothes"}}, {"type": "node", "id": 4900468662, "lat": -34.5635494, "lon": -58.4542793, "tags": {"clothes": "children", "name": "Magdalena Esposito", "shop": "clothes"}}, {"type": "node", "id": 4900468663, "lat": -34.5635164, "lon": -58.4542186, "tags": {"clothes": "swimwear", "name": "Mir\u00f3 Sol", "shop": "clothes"}}, {"type": "node", "id": 4904145503, "lat": -34.56249, "lon": -58.4528836, "tags": {"clothes": "women", "name": "Naum", "shop": "clothes"}}, {"type": "node", "id": 4904145504, "lat": -34.562423, "lon": -58.4527937, "tags": {"clothes": "women", "name": "Gustavo Cesar", "shop": "clothes"}}, {"type": "node", "id": 4904147222, "lat": -34.5624673, "lon": -58.4528507, "tags": {"clothes": "men", "name": "J. Cabot", "shop": "clothes"}}, {"type": "node", "id": 4906116597, "lat": -34.5637486, "lon": -58.4554998, "tags": {"check_date": "2023-08-26", "clothes": "denim", "level": "0", "name": "Sergio Jeans", "shop": "clothes"}}, {"type": "node", "id": 4906478955, "lat": -34.5639006, "lon": -58.4553425, "tags": {"addr:city": "Ciudad Aut\u00f3noma de Buenos Aires", "addr:country": "AR", "addr:housenumber": "1910", "addr:street": "Avenida Cabildo", "addr:suburb": "Belgrano", "clothes": "women", "name": "Elementos Esenciales", "shop": "clothes"}}, {"type": "node", "id": 4913059843, "lat": -34.5627401, "lon": -58.4556656, "tags": {"addr:city": "Ciudad Aut\u00f3noma de Buenos Aires", "addr:housenumber": "2387", "addr:postcode": "C1428", "addr:street": "Echeverr\u00eda", "check_date": "2025-10-06", "clothes": "women", "name": "Isadora", "shop": "fashion_accessories", "website": "https://ar.isadoraonline.com/"}}, {"type": "node", "id": 4913060941, "lat": -34.5626515, "lon": -58.4550901, "tags": {"addr:city": "Ciudad Aut\u00f3noma de Buenos Aires", "addr:country": "AR", "addr:housenumber": "2334", "addr:postcode": "C1428", "addr:street": "Echeverr\u00eda", "addr:suburb": "Belgrano", "clothes": "women", "name": "Anteprima", "shop": "clothes", "wheelchair": "yes"}}, {"type": "node", "id": 4913060942, "lat": -34.5626127, "lon": -58.4550214, "tags": {"addr:city": "Ciudad Aut\u00f3noma de Buenos Aires", "addr:country": "AR", "addr:housenumber": "2332", "addr:street": "Echeverr\u00eda", "addr:suburb": "Belgrano", "clothes": "women", "name": "Kith", "shop": "clothes"}}, {"type": "node", "id": 4915567154, "lat": -34.5623807, "lon": -58.4546075, "tags": {"addr:city": "Ciudad Aut\u00f3noma de Buenos Aires", "addr:housenumber": "2284", "addr:postcode": "C1426", "addr:street": "Echeverr\u00eda", "clothes": "women", "name": "Tienda Country", "shop": "clothes"}}, {"type": "node", "id": 4915567335, "lat": -34.5623543, "lon": -58.4545545, "tags": {"addr:city": "Ciudad Aut\u00f3noma de Buenos Aires", "addr:country": "AR", "addr:housenumber": "2278", "addr:street": "Echeverr\u00eda", "addr:suburb": "Belgrano", "clothes": "women", "name": "Matilde", "shop": "clothes"}}, {"type": "node", "id": 4915567337, "lat": -34.5624131, "lon": -58.4546609, "tags": {"clothes": "women", "name": "San \u00c1ngel", "shop": "clothes"}}, {"type": "node", "id": 4929200980, "lat": -34.5575884, "lon": -58.4608629, "tags": {"addr:city": "Ciudad Aut\u00f3noma de Buenos Aires", "addr:housenumber": "2606", "addr:postcode": "C1428", "addr:street": "Avenida Cabildo", "clothes": "men", "name": "Suaya", "shop": "clothes", "website": "https://www.suayalocales.com.ar/"}}, {"type": "node", "id": 4929201679, "lat": -34.5579693, "lon": -58.447637, "tags": {"clothes": "women", "name": "Peca", "shop": "clothes"}}, {"type": "node", "id": 4932499403, "lat": -34.5583647, "lon": -58.4494319, "tags": {"clothes": "women", "shop": "clothes"}}, {"type": "node", "id": 4942459483, "lat": -34.5784503, "lon": -58.4373764, "tags": {"addr:city": "Ciudad Aut\u00f3noma de Buenos Aires", "addr:country": "AR", "addr:housenumber": "2005", "addr:postcode": "1414", "addr:street": "Ar\u00e9valo", "addr:suburb": "Palermo", "check_date": "2023-12-19", "clothes": "women", "contact:facebook": "https://www.facebook.com/atelierba.ar/", "email": "contacto@atelierba.com.ar", "name": "Galp\u00f3n De Ropa", "phone": "+54 11 3534-3889", "shop": "clothes", "website": "http://www.atelierba.com.ar/store"}}, {"type": "node", "id": 4942459484, "lat": -34.578679, "lon": -58.4374781, "tags": {"addr:city": "Ciudad Aut\u00f3noma de Buenos Aires", "addr:country": "AR", "addr:housenumber": "5984", "addr:postcode": "1414", "addr:street": "Nicaragua", "addr:suburb": "Palermo", "clothes": "women", "email": "info@edelerra.com", "name": "Edel Erra", "opening_hours": "Mo-Fr 09:00-18:00", "phone": "+54 11 4776-8361", "shop": "clothes", "website": "https://www.edelerra.com/"}}, {"type": "node", "id": 4942459485, "lat": -34.5787599, "lon": -58.4373728, "tags": {"addr:city": "Ciudad Aut\u00f3noma de Buenos Aires", "addr:country": "AR", "addr:housenumber": "5966", "addr:postcode": "1414", "addr:street": "Nicaragua", "addr:suburb": "Palermo", "clothes": "costumes", "name": "Sonia Williams", "opening_hours": "Mo-Fr 09:00-13:00,14:00-19:00; Sa 10:00-14:00", "phone": "+54 11 4771-8810", "shop": "clothes", "website": "http://www.soniawilliams.com.ar/"}}, {"type": "node", "id": 4944168358, "lat": -34.5626676, "lon": -58.4558794, "tags": {"addr:city": "Ciudad Aut\u00f3noma de Buenos Aires", "addr:country": "AR", "addr:housenumber": "2019", "addr:street": "Avenida Cabildo", "addr:suburb": "Belgrano", "clothes": "underwear", "name": "Sweet Victorian Tesira", "shop": "clothes", "survey:date": "2021-12-16"}}, {"type": "node", "id": 4951634817, "lat": -34.5732529, "lon": -58.4847491, "tags": {"addr:city": "Ciudad Aut\u00f3noma de Buenos Aires", "addr:country": "AR", "addr:housenumber": "4939", "addr:postcode": "1431", "addr:street": "Monroe", "clothes": "men", "name": "Siamo Fuori", "phone": "+54 11 4522-3623", "shop": "clothes", "website": "https://www.siamofuori.net/"}}, {"type": "node", "id": 4951635222, "lat": -34.5734513, "lon": -58.4851277, "tags": {"addr:city": "Ciudad Aut\u00f3noma de Buenos Aires", "addr:country": "AR", "addr:housenumber": "4965", "addr:postcode": "1431", "addr:street": "Monroe", "clothes": "denim", "contact:facebook": "https://www.facebook.com/Shicker.Jeans/", "email": "shicker_urquiza@hotmail.com", "name": "Shicker", "opening_hours": "Mo-Sa 09:30-20:00", "phone": "+54 11 4524-0448", "shop": "clothes"}}, {"type": "node", "id": 4955706647, "lat": -34.5737022, "lon": -58.4850101, "tags": {"addr:city": "Ciudad Aut\u00f3noma de Buenos Aires", "addr:country": "AR", "addr:housenumber": "4978", "addr:postcode": "1431", "addr:street": "Monroe", "clothes": "men", "name": "D' Uva", "opening_hours": "Mo-Sa 10:00-20:00", "phone": "+54 11 4524-1570", "shop": "clothes"}}, {"type": "node", "id": 4955706650, "lat": -34.5738043, "lon": -58.485184, "tags": {"addr:city": "Ciudad Aut\u00f3noma de Buenos Aires", "addr:country": "AR", "addr:housenumber": "4994", "addr:postcode": "1431", "addr:street": "Monroe", "clothes": "women", "name": "Sintoma", "opening_hours": "Mo-Sa 10:30-20:00", "phone": "+54 11 4524-2366", "shop": "clothes"}}, {"type": "node", "id": 4955706651, "lat": -34.5738335, "lon": -58.4852337, "tags": {"addr:city": "Ciudad Aut\u00f3noma de Buenos Aires", "addr:country": "AR", "addr:housenumber": "4996", "addr:postcode": "1431", "addr:street": "Monroe", "clothes": "children", "name": "Brisitas", "opening_hours": "Mo-Sa 10:30-20:00", "phone": "+54 11 4523-7009", "shop": "clothes"}}, {"type": "node", "id": 4957534707, "lat": -34.5741022, "lon": -58.4862291, "tags": {"addr:city": "Ciudad Aut\u00f3noma de Buenos Aires", "addr:country": "AR", "addr:housenumber": "5091", "addr:postcode": "1431", "addr:street": "Monroe", "check_date": "2023-10-20", "clothes": "denim;men", "contact:facebook": "https://www.facebook.com/sohodenim/", "name": "SOHO", "opening_hours": "Mo-Sa 09:30-20:30", "payment:cash": "yes", "payment:credit_cards": "yes", "payment:debit_cards": "yes", "payment:mastercard": "yes", "payment:visa": "yes", "phone": "+54 11 4524-7150", "shop": "clothes", "website": "https://www.sohodenim.com.ar/"}}, {"type": "node", "id": 4960530726, "lat": -34.5747122, "lon": -58.4855318, "tags": {"addr:city": "Ciudad Aut\u00f3noma de Buenos Aires", "addr:country": "AR", "addr:housenumber": "4625", "addr:postcode": "1431", "addr:street": "Avenida Triunvirato", "clothes": "sports", "email": "consultas@keywhoss.com", "name": "Keywhoss", "phone": "+54 11 4587-2118", "shop": "clothes", "website": "http://www.keywhoss.com/"}}, {"type": "node", "id": 4964634546, "lat": -34.574568, "lon": -58.4866368, "tags": {"clothes": "men", "name": "Maxera", "opening_hours": "Mo-Fr 10:30-19:00; Sa 10:30-14:30", "shop": "clothes"}}, {"type": "node", "id": 4964634560, "lat": -34.574706, "lon": -58.4860729, "tags": {"addr:city": "Ciudad Aut\u00f3noma de Buenos Aires", "addr:country": "AR", "addr:housenumber": "4656", "addr:postcode": "1431", "addr:street": "Avenida Triunvirato", "clothes": "women", "name": "Rosana Echt", "opening_hours": "Mo-Sa 10:00-20:30", "phone": "+54 11 4522-8022", "shop": "clothes"}}, {"type": "node", "id": 4970320429, "lat": -34.5752066, "lon": -58.484696, "tags": {"addr:city": "Ciudad Aut\u00f3noma de Buenos Aires", "addr:country": "AR", "addr:housenumber": "4547", "addr:postcode": "1431", "addr:street": "Avenida Triunvirato", "clothes": "underwear", "name": "La Reina de Urquiza", "phone": "+54 11 4521-4050", "shop": "clothes"}}, {"type": "node", "id": 4970320437, "lat": -34.5751949, "lon": -58.4852282, "tags": {"addr:city": "Ciudad Aut\u00f3noma de Buenos Aires", "addr:country": "AR", "addr:housenumber": "4570", "addr:postcode": "1431", "addr:street": "Avenida Triunvirato", "clothes": "underwear", "name": "Natalio", "phone": "+54 11 4522-4806", "shop": "clothes"}}, {"type": "node", "id": 4970320443, "lat": -34.5755, "lon": -58.484717, "tags": {"addr:city": "Ciudad Aut\u00f3noma de Buenos Aires", "addr:country": "AR", "addr:housenumber": "4514", "addr:postcode": "1431", "addr:street": "Avenida Triunvirato", "clothes": "women", "name": "3 Hermanas", "phone": "+54 11 4522-9296", "shop": "clothes"}}, {"type": "node", "id": 4972495227, "lat": -34.5758678, "lon": -58.4835735, "tags": {"addr:city": "Ciudad Aut\u00f3noma de Buenos Aires", "addr:country": "AR", "addr:housenumber": "4467", "addr:postcode": "1431", "addr:street": "Avenida Triunvirato", "clothes": "denim", "contact:facebook": "https://www.facebook.com/culturajeans/", "contact:instagram": "https://www.instagram.com/culturajeans", "name": "Cultura", "phone": "+54 11 4521-2950", "shop": "clothes", "website": "https://culturajean.com/"}}, {"type": "node", "id": 4972495240, "lat": -34.5760637, "lon": -58.4832777, "tags": {"addr:city": "Ciudad Aut\u00f3noma de Buenos Aires", "addr:country": "AR", "addr:housenumber": "4443", "addr:postcode": "1431", "addr:street": "Avenida Triunvirato", "clothes": "women", "name": "Simona", "shop": "clothes"}}, {"type": "node", "id": 4972495241, "lat": -34.5760723, "lon": -58.4832631, "tags": {"addr:city": "Ciudad Aut\u00f3noma de Buenos Aires", "addr:country": "AR", "addr:housenumber": "4441", "addr:postcode": "1431", "addr:street": "Avenida Triunvirato", "clothes": "babies", "contact:facebook": "https://www.facebook.com/Yo-te-cielo-778382025616996/", "name": "Yo te cielo", "opening_hours": "Mo-Sa 10:00-14:00,16:00-20:00", "phone": "+54 11 4522-6714", "shop": "clothes"}}, {"type": "node", "id": 4972495247, "lat": -34.5762737, "lon": -58.4829546, "tags": {"addr:city": "Ciudad Aut\u00f3noma de Buenos Aires", "addr:country": "AR", "addr:housenumber": "4419", "addr:postcode": "1431", "addr:street": "Avenida Triunvirato", "clothes": "women", "contact:facebook": "https://www.facebook.com/dionisia.com.ar/", "email": "info@dionisia.com.ar", "name": "Dionisia", "opening_hours": "Mo-Sa 09:00-20:00", "phone": "+54 11 4524-3467", "shop": "clothes", "website": "https://dionisia.com.ar/"}}, {"type": "node", "id": 4972495248, "lat": -34.5762991, "lon": -58.4829165, "tags": {"addr:city": "Ciudad Aut\u00f3noma de Buenos Aires", "addr:country": "AR", "addr:housenumber": "4413", "addr:postcode": "1431", "addr:street": "Avenida Triunvirato", "clothes": "women", "name": "Allora", "phone": "+54 11 4522-5598", "shop": "clothes"}}, {"type": "node", "id": 4981096036, "lat": -34.5759305, "lon": -58.4840526, "tags": {"addr:city": "Ciudad Aut\u00f3noma de Buenos Aires", "addr:country": "AR", "addr:housenumber": "4480", "addr:postcode": "1431", "addr:street": "Avenida Triunvirato", "clothes": "underwear", "name": "Jeric\u00f3", "phone": "+54 11 4521-3213", "shop": "clothes"}}, {"type": "node", "id": 4981096038, "lat": -34.5759939, "lon": -58.4839539, "tags": {"addr:city": "Ciudad Aut\u00f3noma de Buenos Aires", "addr:country": "AR", "addr:housenumber": "4474", "addr:postcode": "1431", "addr:street": "Avenida Triunvirato", "clothes": "underwear", "name": "Arwen", "opening_hours": "Mo-Sa 09:30-14:00,15:00-20:00", "phone": "+54 11 4523-1572", "shop": "clothes"}}, {"type": "node", "id": 4981096049, "lat": -34.5764229, "lon": -58.4832663, "tags": {"addr:city": "Ciudad Aut\u00f3noma de Buenos Aires", "addr:country": "AR", "addr:housenumber": "4420", "addr:postcode": "1431", "addr:street": "Avenida Triunvirato", "clothes": "sports", "contact:facebook": "https://www.facebook.com/AbyssArgentina/", "email": "info@abyssargentina.com", "name": "Abyss", "opening_hours": "Mo-Sa 10:00-20:00", "shop": "clothes", "website": "http://www.abyssargentina.com/"}}, {"type": "node", "id": 4985350209, "lat": -34.5769971, "lon": -58.4818933, "tags": {"addr:city": "Ciudad Aut\u00f3noma de Buenos Aires", "addr:country": "AR", "addr:housenumber": "4341", "addr:postcode": "1431", "addr:street": "Avenida Triunvirato", "clothes": "sports", "contact:facebook": "https://www.facebook.com/Kyoko-Sport-Wear-328512810494989/", "email": "loreleykyoko@gmail.com", "name": "Kyoko", "shop": "clothes", "website": "http://www.kyokowear.com.ar/"}}, {"type": "node", "id": 4985350216, "lat": -34.5771627, "lon": -58.481686, "tags": {"addr:city": "Ciudad Aut\u00f3noma de Buenos Aires", "addr:country": "AR", "addr:housenumber": "4325", "addr:postcode": "1431", "addr:street": "Avenida Triunvirato", "clothes": "women", "contact:facebook": "https://www.facebook.com/QueensNYCBA/", "email": "queensnycba@gmail.com", "name": "Queens NYC", "phone": "+54 11 4521-6950", "shop": "clothes"}}, {"type": "node", "id": 4993362489, "lat": -34.5775473, "lon": -58.4811186, "tags": {"addr:city": "Ciudad Aut\u00f3noma de Buenos Aires", "addr:country": "AR", "addr:housenumber": "4289", "addr:postcode": "1431", "addr:street": "Avenida Triunvirato", "clothes": "men", "contact:facebook": "https://www.facebook.com/OficialFarenheite/", "name": "Farenheite", "opening_hours": "Mo-Sa 10:00-14:00,16:00-20:00", "phone": "+54 11 4524-2813", "shop": "clothes", "website": "https://www.farenheite.com/"}}, {"type": "node", "id": 5000509099, "lat": -34.5601003, "lon": -58.4541995, "tags": {"clothes": "women", "name": "Galp\u00f3n de Ropa", "opening_hours": "Tu-Sa 10:00-20:00", "shop": "clothes", "website": "https://www.galponderopa.com/"}}, {"type": "node", "id": 5003159781, "lat": -34.5784481, "lon": -58.4797471, "tags": {"addr:city": "Ciudad Aut\u00f3noma de Buenos Aires", "addr:country": "AR", "addr:housenumber": "4179", "addr:postcode": "1431", "addr:street": "Avenida Triunvirato", "check_date": "2023-09-13", "clothes": "women", "name": "B.A. Woman", "phone": "+54 11 4521-9014", "shop": "clothes"}}, {"type": "node", "id": 5003159783, "lat": -34.5785638, "lon": -58.4795669, "tags": {"addr:city": "Ciudad Aut\u00f3noma de Buenos Aires", "addr:country": "AR", "addr:housenumber": "4161", "addr:postcode": "1431", "addr:street": "Avenida Triunvirato", "check_date": "2023-09-13", "clothes": "women;oversize", "contact:facebook": "https://www.facebook.com/PandoraModaFemenina/", "name": "Pandora", "opening_hours": "Mo-Fr 09:15-13:00,16:15-20:00; Sa 09:30-13:00", "phone": "+54 11 4523-7559", "shop": "clothes"}}, {"type": "node", "id": 5005993176, "lat": -34.5785563, "lon": -58.4800833, "tags": {"addr:city": "Ciudad Aut\u00f3noma de Buenos Aires", "addr:country": "AR", "addr:housenumber": "4198", "addr:postcode": "1431", "addr:street": "Avenida Triunvirato", "check_date": "2023-09-13", "clothes": "children", "name": "Cocochito", "opening_hours": "Mo-Fr 10:00-14:00,16:00-20:00; Sa 10:00-20:00", "phone": "+54 11 4524-6010", "shop": "clothes"}}, {"type": "node", "id": 5005993177, "lat": -34.5785797, "lon": -58.4800468, "tags": {"addr:city": "Ciudad Aut\u00f3noma de Buenos Aires", "addr:country": "AR", "addr:housenumber": "4196", "addr:postcode": "1431", "addr:street": "Avenida Triunvirato", "clothes": "unisex", "name": "Forza Italia", "phone": "+54 11 4521-1520", "shop": "clothes"}}, {"type": "node", "id": 5005993180, "lat": -34.5787358, "lon": -58.4798146, "tags": {"addr:city": "Ciudad Aut\u00f3noma de Buenos Aires", "addr:country": "AR", "addr:housenumber": "4176", "addr:postcode": "1431", "addr:street": "Avenida Triunvirato", "clothes": "underwear", "name": "Lve Lady Love", "opening_hours": "Mo-Fr 09:30-13:30,16:00-20:00; Sa 10:00-14:00", "shop": "clothes"}}, {"type": "node", "id": 5005993182, "lat": -34.5788679, "lon": -58.4796159, "tags": {"addr:city": "Ciudad Aut\u00f3noma de Buenos Aires", "addr:country": "AR", "addr:housenumber": "4146", "addr:postcode": "1431", "addr:street": "Avenida Triunvirato", "clothes": "children,discount", "contact:facebook": "https://www.facebook.com/Advanced-ropa-que-quiero-106637936032641/", "name": "Advanced", "opening_hours": "Mo-Sa 09:30-20:00", "phone": "+54 11 4522-1105", "shop": "clothes", "website": "https://www.advanced-adv.com/"}}, {"type": "node", "id": 5005993183, "lat": -34.5788791, "lon": -58.4795873, "tags": {"addr:city": "Ciudad Aut\u00f3noma de Buenos Aires", "addr:country": "AR", "addr:housenumber": "4142", "addr:postcode": "1431", "addr:street": "Avenida Triunvirato", "clothes": "underwear", "name": "Lady Love", "phone": "+54 11 4856-3585", "shop": "clothes", "website": "https://www.ladylove.com.ar/"}}, {"type": "node", "id": 5005993188, "lat": -34.5790702, "lon": -58.4793167, "tags": {"addr:city": "Ciudad Aut\u00f3noma de Buenos Aires", "addr:country": "AR", "addr:housenumber": "4110", "addr:postcode": "1431", "addr:street": "Avenida Triunvirato", "clothes": "women", "contact:facebook": "https://www.facebook.com/knauindumentaria/", "email": "knauindumentaria@gmail.com", "name": "Knau", "opening_hours": "Mo-Sa 10:00-20:00", "phone": "+54 11 4523-9969", "shop": "clothes"}}, {"type": "node", "id": 5009732556, "lat": -34.559567, "lon": -58.4527616, "tags": {"clothes": "underwear", "name": "Veneziani Lingerie", "shop": "clothes"}}, {"type": "node", "id": 5023283840, "lat": -34.5591015, "lon": -58.4519724, "tags": {"addr:housenumber": "1887", "addr:street": "Avenida Juramento", "check_date": "2024-05-18", "clothes": "women", "name": "Lucuma", "shop": "clothes"}}, {"type": "node", "id": 5023286745, "lat": -34.5591657, "lon": -58.4520746, "tags": {"addr:city": "Ciudad Aut\u00f3noma de Buenos Aires", "addr:country": "AR", "addr:housenumber": "1899", "addr:street": "Avenida Juramento", "addr:suburb": "Belgrano", "clothes": "women", "name": "Lugar", "shop": "clothes"}}, {"type": "node", "id": 5063215683, "lat": -34.5663195, "lon": -58.4390017, "tags": {"addr:city": "Ciudad Aut\u00f3noma de Buenos Aires", "addr:country": "AR", "addr:housenumber": "1085", "addr:postcode": "1426", "addr:street": "Avenida Luis Mar\u00eda Campos", "addr:suburb": "Palermo", "clothes": "women", "name": "Mil Ochenta y Cinco", "opening_hours": "Mo-Sa 10:00-20:00", "phone": "+54 11 4776-7674", "shop": "clothes"}}, {"type": "node", "id": 5066994022, "lat": -34.5881505, "lon": -58.4293621, "tags": {"addr:city": "Ciudad Aut\u00f3noma de Buenos Aires", "addr:country": "AR", "addr:housenumber": "1680", "addr:street": "Jorge Luis Borges", "addr:suburb": "Palermo", "check_date": "2024-03-07", "clothes": "women;men", "name": "Palito Bomb\u00f3n Vestite", "name:en": "Palito Bombon Vestite", "name:es": "Palito Bomb\u00f3n Vestite", "opening_hours": "Mo-Sa 10:00-21:00; Su 11:00-21:00", "phone": "+54 11 4833-0564", "shop": "clothes"}}, {"type": "node", "id": 5086039957, "lat": -34.5741098, "lon": -58.4322238, "tags": {"addr:city": "Ciudad Aut\u00f3noma de Buenos Aires", "addr:country": "AR", "addr:housenumber": "2798", "addr:postcode": "1426", "addr:street": "Avenida Dorrego", "addr:suburb": "Palermo", "clothes": "underwear", "contact:facebook": "https://www.facebook.com/kusskusstienda/", "name": "Kuss Kuss", "shop": "clothes"}}, {"type": "node", "id": 5098844987, "lat": -34.5768163, "lon": -58.4314366, "tags": {"addr:city": "Ciudad Aut\u00f3noma de Buenos Aires", "addr:country": "AR", "addr:housenumber": "5084", "addr:postcode": "1425", "addr:street": "Avenida Santa Fe", "addr:suburb": "Palermo", "clothes": "underwear", "name": "Casa Cilicia", "phone": "+54 11 4771-7958", "shop": "clothes"}}, {"type": "node", "id": 5135585173, "lat": -34.5572214, "lon": -58.4484705, "tags": {"clothes": "underwear", "name": "Lencer\u00eda Graciela", "shop": "clothes"}}, {"type": "node", "id": 5135585345, "lat": -34.5573711, "lon": -58.4486912, "tags": {"clothes": "women", "name": "Las Cebras", "shop": "clothes"}}, {"type": "node", "id": 5135585348, "lat": -34.5570955, "lon": -58.4482428, "tags": {"clothes": "women", "name": "Habibi", "shop": "clothes"}}, {"type": "node", "id": 5149963189, "lat": -34.5598906, "lon": -58.4587792, "tags": {"addr:city": "Ciudad Aut\u00f3noma de Buenos Aires", "addr:country": "AR", "addr:housenumber": "2338", "addr:street": "Avenida Cabildo", "addr:suburb": "Belgrano", "clothes": "women", "name": "Condominio", "shop": "clothes"}}, {"type": "node", "id": 5149963548, "lat": -34.560066, "lon": -58.458622, "tags": {"addr:city": "Ciudad Aut\u00f3noma de Buenos Aires", "addr:country": "AR", "addr:housenumber": "2314", "addr:street": "Avenida Cabildo", "addr:suburb": "Belgrano", "clothes": "women", "name": "Peuque", "shop": "clothes"}}, {"type": "node", "id": 5164310314, "lat": -34.5603386, "lon": -58.4583962, "tags": {"clothes": "women", "name": "Another by Gloom", "shop": "clothes"}}, {"type": "node", "id": 5164311011, "lat": -34.5603561, "lon": -58.458382, "tags": {"clothes": "women", "name": "Karins", "shop": "clothes"}}, {"type": "node", "id": 5164311014, "lat": -34.5533765, "lon": -58.4649317, "tags": {"clothes": "women", "name": "Eyelit", "shop": "clothes"}}, {"type": "node", "id": 5204484712, "lat": -34.5585473, "lon": -58.459944, "tags": {"clothes": "women", "name": "Sabrina", "shop": "clothes"}}, {"type": "node", "id": 5204484714, "lat": -34.5586166, "lon": -58.4598876, "tags": {"addr:city": "Ciudad Aut\u00f3noma de Buenos Aires", "addr:housenumber": "2482", "addr:postcode": "C1428", "addr:street": "Avenida Cabildo", "clothes": "women", "name": "Love Chuka", "shop": "clothes", "website": "https://www.lovechuka.com/"}}, {"type": "node", "id": 5204484715, "lat": -34.5586371, "lon": -58.4598664, "tags": {"clothes": "men", "name": "Macowens", "shop": "clothes"}}, {"type": "node", "id": 5204487122, "lat": -34.558125, "lon": -58.4603467, "tags": {"addr:housenumber": "2526", "addr:street": "Avenida Cabildo", "clothes": "women", "name": "Mix Urbano", "shop": "clothes"}}, {"type": "node", "id": 5216403802, "lat": -34.5580786, "lon": -58.4598505, "tags": {"clothes": "children", "name": "Timber", "shop": "clothes"}}, {"type": "node", "id": 5219833353, "lat": -34.556028, "lon": -58.4623642, "tags": {"addr:housenumber": "2846", "addr:street": "Avenida Cabildo", "clothes": "women", "name": "Butterfly", "shop": "clothes", "survey:date": "2022-09-05"}}, {"type": "node", "id": 5241188371, "lat": -34.5563881, "lon": -58.4613825, "tags": {"clothes": "women", "email": "info@caffedeldoge.com.ar", "name": "Meu Bem", "shop": "clothes"}}, {"type": "node", "id": 5241195574, "lat": -34.5571479, "lon": -58.4606886, "tags": {"clothes": "women", "name": "Zoom", "shop": "clothes"}}, {"type": "node", "id": 5244444769, "lat": -34.5609713, "lon": -58.4571522, "tags": {"addr:city": "Ciudad Aut\u00f3noma de Buenos Aires", "addr:country": "AR", "addr:housenumber": "2382", "addr:street": "Mendoza", "addr:suburb": "Belgrano", "clothes": "socks", "name": "Medias Mendoza", "shop": "clothes"}}, {"type": "node", "id": 5244444793, "lat": -34.5602172, "lon": -58.4562029, "tags": {"addr:city": "Ciudad Aut\u00f3noma de Buenos Aires", "addr:country": "AR", "addr:housenumber": "2277", "addr:street": "Mendoza", "addr:suburb": "Belgrano", "clothes": "children", "name": "Digitopuntura & Bienestar", "shop": "massage"}}, {"type": "node", "id": 5244444959, "lat": -34.560944, "lon": -58.4570964, "tags": {"addr:city": "Ciudad Aut\u00f3noma de Buenos Aires", "addr:country": "AR", "addr:housenumber": "2378", "addr:street": "Mendoza", "addr:suburb": "Belgrano", "clothes": "underwear", "name": "Medias Mendoza Lingerie", "shop": "clothes"}}, {"type": "node", "id": 5285249687, "lat": -34.5560819, "lon": -58.4512932, "tags": {"addr:city": "Ciudad Aut\u00f3noma de Buenos Aires", "addr:country": "AR", "addr:housenumber": "1686", "addr:street": "Olaz\u00e1bal", "addr:suburb": "Belgrano", "clothes": "women", "name": "Corona", "shop": "clothes"}}, {"type": "node", "id": 5285252312, "lat": -34.5600027, "lon": -58.4579046, "tags": {"addr:city": "Ciudad Aut\u00f3noma de Buenos Aires", "addr:country": "AR", "addr:housenumber": "2370", "addr:street": "Olaz\u00e1bal", "addr:suburb": "Belgrano", "clothes": "underwear", "name": "Turmalina", "shop": "religion"}}, {"type": "node", "id": 5291969255, "lat": -34.5589508, "lon": -58.4588431, "tags": {"addr:city": "Ciudad Aut\u00f3noma de Buenos Aires", "addr:country": "AR", "addr:housenumber": "2385", "addr:postcode": "C1428", "addr:street": "Blanco Encalada", "addr:suburb": "Belgrano", "clothes": "hats", "name": "Eva Rain", "shop": "clothes"}}, {"type": "node", "id": 5291969275, "lat": -34.5589279, "lon": -58.4587866, "tags": {"addr:city": "Ciudad Aut\u00f3noma de Buenos Aires", "addr:country": "AR", "addr:housenumber": "2381", "addr:street": "Blanco Encalada", "addr:suburb": "Belgrano", "clothes": "women", "name": "Iona", "shop": "hairdresser"}}, {"type": "node", "id": 5568049691, "lat": -34.5444265, "lon": -58.460429, "tags": {"clothes": "sports", "name": "Abyss", "shop": "clothes"}}, {"type": "node", "id": 5724442908, "lat": -34.6395655, "lon": -58.5277962, "tags": {"addr:city": "Ciudad Aut\u00f3noma de Buenos Aires", "addr:country": "AR", "addr:housenumber": "11", "addr:street": "Jos\u00e9 Le\u00f3n Su\u00e1rez", "clothes": "women", "name": "Dona Dona", "shop": "clothes"}}, {"type": "node", "id": 5758716878, "lat": -34.6398707, "lon": -58.5277732, "tags": {"clothes": "schoolwear", "name": "Michimuni", "shop": "clothes"}}, {"type": "node", "id": 5758724608, "lat": -34.6401689, "lon": -58.527749, "tags": {"addr:city": "Ciudad Aut\u00f3noma de Buenos Aires", "addr:country": "AR", "addr:housenumber": "87", "addr:street": "Jos\u00e9 Le\u00f3n Su\u00e1rez", "clothes": "children", "name": "Colorin Colorado", "shop": "clothes"}}, {"type": "node", "id": 5771819448, "lat": -34.6395748, "lon": -58.5275483, "tags": {"addr:city": "Ciudad Aut\u00f3noma de Buenos Aires", "addr:country": "AR", "addr:housenumber": "24", "addr:street": "Jos\u00e9 Le\u00f3n Su\u00e1rez", "clothes": "oversize", "name": "Izzullino", "shop": "clothes"}}, {"type": "node", "id": 5771819475, "lat": -34.639508, "lon": -58.5275514, "tags": {"clothes": "men", "name": "Farenheite", "shop": "clothes", "short_name": "FHT"}}, {"type": "node", "id": 5897284996, "lat": -34.6400555, "lon": -58.5252798, "tags": {"clothes": "underwear", "name": "Mae", "shop": "clothes"}}, {"type": "node", "id": 5897285000, "lat": -34.6400785, "lon": -58.5255469, "tags": {"clothes": "men", "name": "Farenheite", "shop": "clothes"}}, {"type": "node", "id": 5897285001, "lat": -34.6400975, "lon": -58.5257674, "tags": {"clothes": "women", "name": "Sax", "shop": "clothes"}}, {"type": "node", "id": 5897285452, "lat": -34.6401073, "lon": -58.5258812, "tags": {"clothes": "underwear", "name": "La Casa de las Medias", "shop": "clothes"}}, {"type": "node", "id": 5897285454, "lat": -34.6401126, "lon": -58.5259479, "tags": {"clothes": "babies", "name": "Coco & Oliva", "shop": "clothes"}}, {"type": "node", "id": 5897285455, "lat": -34.640115, "lon": -58.525971, "tags": {"clothes": "women", "name": "La Tienda", "shop": "clothes"}}, {"type": "node", "id": 5897285457, "lat": -34.6401224, "lon": -58.526041, "tags": {"addr:city": "Ciudad Aut\u00f3noma de Buenos Aires", "addr:country": "AR", "addr:housenumber": "7081", "addr:street": "Coronel Ram\u00f3n Lorenzo Falc\u00f3n", "clothes": "women", "name": "Chano", "shop": "clothes"}}, {"type": "node", "id": 5897285458, "lat": -34.6401317, "lon": -58.5261281, "tags": {"addr:city": "Ciudad Aut\u00f3noma de Buenos Aires", "addr:country": "AR", "addr:housenumber": "7095", "addr:street": "Coronel Ram\u00f3n Lorenzo Falc\u00f3n", "clothes": "children", "name": "Hechiceros", "shop": "clothes"}}, {"type": "node", "id": 5897285462, "lat": -34.6400863, "lon": -58.5256369, "tags": {"clothes": "men", "name": "Mockba", "shop": "clothes"}}, {"type": "node", "id": 5905516426, "lat": -34.6403175, "lon": -58.5258884, "tags": {"clothes": "socks;underwear", "name": "La Casa de las Medias", "shop": "clothes"}}, {"type": "node", "id": 5937004657, "lat": -34.6402082, "lon": -58.5269718, "tags": {"clothes": "children", "name": "Grisino", "shop": "clothes"}}, {"type": "node", "id": 5937004934, "lat": -34.6401939, "lon": -58.526806, "tags": {"clothes": "children", "name": "Cheeky", "shop": "clothes"}}, {"type": "node", "id": 5937004939, "lat": -34.6401885, "lon": -58.526728, "tags": {"clothes": "children", "name": "Grisino", "shop": "clothes"}}, {"type": "node", "id": 5937005026, "lat": -34.6403838, "lon": -58.5266236, "tags": {"clothes": "underwear", "name": "Kaury", "shop": "clothes"}}, {"type": "node", "id": 5937005028, "lat": -34.6404254, "lon": -58.5271388, "tags": {"clothes": "women", "shop": "clothes"}}, {"type": "node", "id": 5937005614, "lat": -34.6402193, "lon": -58.5271192, "tags": {"clothes": "women", "name": "Tropea", "shop": "clothes"}}, {"type": "node", "id": 5952804951, "lat": -34.6393537, "lon": -58.5262926, "tags": {"clothes": "men", "name": "Lewos", "shop": "clothes"}}, {"type": "node", "id": 5952807447, "lat": -34.6393238, "lon": -58.5262907, "tags": {"clothes": "children", "shop": "clothes"}}, {"type": "node", "id": 5952810145, "lat": -34.6392806, "lon": -58.5262934, "tags": {"clothes": "men", "name": "Fiebre Jeans", "shop": "clothes"}}, {"type": "node", "id": 5952810584, "lat": -34.6396481, "lon": -58.5262644, "tags": {"clothes": "children", "name": "Lo & Ca", "shop": "clothes"}}, {"type": "node", "id": 5952810621, "lat": -34.6394007, "lon": -58.5262921, "tags": {"clothes": "children", "name": "Cant\u00e9 Pri", "shop": "clothes"}}, {"type": "node", "id": 5965410013, "lat": -34.6398739, "lon": -58.5264975, "tags": {"clothes": "children", "name": "Viva La Pepa", "shop": "clothes"}}, {"type": "node", "id": 5968053778, "lat": -34.5888414, "lon": -58.4105921, "tags": {"clothes": "women", "name": "Materia", "shop": "clothes"}}, {"type": "node", "id": 5978898207, "lat": -34.6400542, "lon": -58.5243232, "tags": {"addr:city": "Ciudad Aut\u00f3noma de Buenos Aires", "addr:country": "AR", "addr:housenumber": "6957", "addr:street": "Coronel Ram\u00f3n Lorenzo Falc\u00f3n", "clothes": "women", "shop": "clothes"}}, {"type": "node", "id": 5978898211, "lat": -34.640063, "lon": -58.5240701, "tags": {"clothes": "underwear", "name": "Casa Julieta", "shop": "clothes"}}, {"type": "node", "id": 5996591217, "lat": -34.5922917, "lon": -58.4062052, "tags": {"clothes": "underwear", "name": "Lody", "shop": "clothes"}}, {"type": "node", "id": 6032138861, "lat": -34.542819, "lon": -58.4724823, "tags": {"clothes": "women", "name": "Zehone", "shop": "clothes"}}, {"type": "node", "id": 6032147965, "lat": -34.6402888, "lon": -58.523223, "tags": {"addr:city": "Ciudad Aut\u00f3noma de Buenos Aires", "addr:country": "AR", "addr:housenumber": "6884", "addr:street": "Coronel Ram\u00f3n Lorenzo Falc\u00f3n", "clothes": "men", "name": "Orso Bianco", "shop": "clothes"}}, {"type": "node", "id": 6032148480, "lat": -34.6401065, "lon": -58.5233536, "tags": {"addr:city": "Ciudad Aut\u00f3noma de Buenos Aires", "addr:country": "AR", "addr:housenumber": "6889", "addr:street": "Coronel Ram\u00f3n Lorenzo Falc\u00f3n", "clothes": "women", "name": "Bella Boutique", "shop": "clothes"}}, {"type": "node", "id": 6032149735, "lat": -34.6403145, "lon": -58.5228392, "tags": {"clothes": "women", "name": "Progressive Style", "shop": "clothes"}}, {"type": "node", "id": 6032151170, "lat": -34.6402954, "lon": -58.5231164, "tags": {"addr:city": "Ciudad Aut\u00f3noma de Buenos Aires", "addr:country": "AR", "addr:housenumber": "6872", "addr:street": "Coronel Ram\u00f3n Lorenzo Falc\u00f3n", "clothes": "women", "name": "Soy Guapa", "shop": "clothes"}}, {"type": "node", "id": 6114387385, "lat": -34.5865279, "lon": -58.4164463, "tags": {"addr:city": "Ciudad Aut\u00f3noma de Buenos Aires", "addr:country": "AR", "addr:street": "Ar\u00e1oz", "addr:suburb": "Palermo", "clothes": "children", "name": "Miminimundo", "shop": "clothes"}}, {"type": "node", "id": 6178531846, "lat": -34.6412574, "lon": -58.5250106, "tags": {"clothes": "children", "shop": "clothes"}}, {"type": "node", "id": 6181094129, "lat": -34.6405699, "lon": -58.5261935, "tags": {"clothes": "oversize", "name": "Mamushka Liniers", "shop": "clothes"}}, {"type": "node", "id": 6194248612, "lat": -34.5593711, "lon": -58.4595325, "tags": {"clothes": "children", "name": "So Cippo!", "shop": "clothes"}}, {"type": "node", "id": 6251797044, "lat": -34.6410916, "lon": -58.5264091, "tags": {"addr:city": "Ciudad Aut\u00f3noma de Buenos Aires", "addr:country": "AR", "addr:housenumber": "163", "addr:street": "Montiel", "clothes": "children", "shop": "clothes"}}, {"type": "node", "id": 6251797235, "lat": -34.6406479, "lon": -58.526442, "tags": {"clothes": "women", "shop": "clothes"}}, {"type": "node", "id": 6303668758, "lat": -34.6229649, "lon": -58.3971164, "tags": {"clothes": "workwear", "name": "Quintas", "shop": "clothes"}}, {"type": "node", "id": 6307387141, "lat": -34.536928, "lon": -58.4770934, "tags": {"addr:housenumber": "150", "addr:street": "Avenida Maip\u00fa", "check_date": "2024-09-20", "clothes": "men", "name": "RO 30", "payment:cash": "yes", "shop": "clothes"}}, {"type": "node", "id": 6325673991, "lat": -34.6399462, "lon": -58.5225158, "tags": {"clothes": "children", "name": "Piedra Libre", "shop": "clothes"}}, {"type": "node", "id": 6338075992, "lat": -34.6400889, "lon": -58.5222704, "tags": {"clothes": "children", "name": "Al Don Piru Lero", "shop": "clothes"}}, {"type": "node", "id": 6340967843, "lat": -34.6404942, "lon": -58.5224531, "tags": {"clothes": "women", "name": "Indara", "shop": "clothes"}}, {"type": "node", "id": 6354862281, "lat": -34.6415238, "lon": -58.5260968, "tags": {"clothes": "workwear", "name": "Impacto", "shop": "clothes"}}, {"type": "node", "id": 6354864125, "lat": -34.6415232, "lon": -58.5260236, "tags": {"clothes": "women", "name": "Viviana Moda", "shop": "clothes"}}, {"type": "node", "id": 6410372810, "lat": -34.561784, "lon": -58.4632694, "tags": {"clothes": "underwear", "name": "Promesse", "shop": "clothes"}}, {"type": "node", "id": 6443797065, "lat": -34.5896222, "lon": -58.4002691, "tags": {"addr:city": "Ciudad Aut\u00f3noma de Buenos Aires", "addr:country": "AR", "addr:housenumber": "1856", "addr:street": "Avenida Pueyrred\u00f3n", "clothes": "children", "name": "Rayuela", "opening_hours": "Mo-Fr 11:00-19:30; Sa 10:30-13:30", "ref:vatin": "AR20329897703", "shop": "clothes"}}, {"type": "node", "id": 6443797071, "lat": -34.5897544, "lon": -58.4003415, "tags": {"addr:city": "Ciudad Aut\u00f3noma de Buenos Aires", "addr:country": "AR", "addr:housenumber": "1840", "addr:street": "Avenida Pueyrred\u00f3n", "clothes": "children", "name": "Pip Kids", "shop": "clothes"}}, {"type": "node", "id": 6462174662, "lat": -34.6397838, "lon": -58.5265019, "tags": {"clothes": "underwear", "shop": "clothes"}}, {"type": "node", "id": 6550480369, "lat": -34.5767244, "lon": -58.448897, "tags": {"clothes": "underwear", "name": "Aurora", "shop": "clothes"}}, {"type": "node", "id": 6550503251, "lat": -34.5873548, "lon": -58.4128871, "tags": {"clothes": "children", "name": "Little Apple", "shop": "clothes"}}, {"type": "node", "id": 6575749901, "lat": -34.5975066, "lon": -58.4979909, "tags": {"clothes": "sports", "name": "Glow", "shop": "clothes"}}, {"type": "node", "id": 6575755621, "lat": -34.5972458, "lon": -58.4975804, "tags": {"clothes": "sport", "name": "Body Sculpt", "shop": "clothes"}}, {"type": "node", "id": 6652323284, "lat": -34.5794913, "lon": -58.4706733, "tags": {"check_date": "2024-01-31", "clothes": "men", "name": "Detroit Industry", "shop": "clothes"}}, {"type": "node", "id": 6661709973, "lat": -34.5549366, "lon": -58.4634414, "tags": {"addr:city": "Ciudad Aut\u00f3noma de Buenos Aires", "addr:country": "AR", "addr:housenumber": "2974", "addr:street": "Avenida Cabildo", "addr:suburb": "N\u00fa\u00f1ez", "clothes": "underwear", "name": "Andressa", "shop": "clothes"}}, {"type": "node", "id": 6941297970, "lat": -34.554285, "lon": -58.4634672, "tags": {"clothes": "women", "name": "NMO", "shop": "clothes"}}, {"type": "node", "id": 6957954617, "lat": -34.5663644, "lon": -58.4526347, "tags": {"clothes": "women", "name": "Cabo Blanco", "shop": "clothes"}}, {"type": "node", "id": 7132124564, "lat": -34.5882221, "lon": -58.4115576, "tags": {"addr:city": "Ciudad Aut\u00f3noma de Buenos Aires", "addr:housenumber": "3300", "addr:postcode": "C1425", "addr:street": "Avenida Santa Fe", "clothes": "women", "name": "City", "shop": "clothes", "website": "https://www.cityargentina.com/"}}, {"type": "node", "id": 7132141046, "lat": -34.6009193, "lon": -58.3932319, "tags": {"clothes": "underwear", "name": "Santa Teresita", "shop": "clothes"}}, {"type": "node", "id": 7220879477, "lat": -34.6283093, "lon": -58.4749367, "tags": {"addr:housenumber": "305", "addr:street": "Cuenca", "clothes": "denim", "email": "wrge@ciudad.com.ar", "name": "Wrge Jeans", "phone": "+54 11 4637-7020", "shop": "clothes", "wholesale": "yes"}}, {"type": "node", "id": 7220885041, "lat": -34.6269345, "lon": -58.4739975, "tags": {"addr:housenumber": "3075", "addr:street": "Avenida Avellaneda", "clothes": "denim", "email": "wrge@ciudad.com.ar", "name": "Wrge Jeans", "phone": "+54 11 4637-0405", "shop": "clothes", "wholesale": "yes"}}, {"type": "node", "id": 7254079950, "lat": -34.6060148, "lon": -58.4059849, "tags": {"clothes": "children", "name": "Pueyrred\u00f3n 362", "shop": "clothes"}}, {"type": "node", "id": 7619781610, "lat": -34.5940812, "lon": -58.4371561}, {"type": "node", "id": 7644901527, "lat": -34.5607325, "lon": -58.4618586, "tags": {"clothes": "denim", "name": "Disfraces", "shop": "clothes"}}, {"type": "node", "id": 7715433504, "lat": -34.5675042, "lon": -58.4545927, "tags": {"clothes": "women", "name": "Aimona", "shop": "clothes"}}, {"type": "node", "id": 7725944416, "lat": -34.5975364, "lon": -58.4986198, "tags": {"clothes": "underwear", "name": "Casa Alicia", "shop": "clothes"}}, {"type": "node", "id": 7741860084, "lat": -34.5663357, "lon": -58.4526029, "tags": {"clothes": "baby", "name": "Sorvo", "shop": "clothes"}}, {"type": "node", "id": 7741872686, "lat": -34.5739491, "lon": -58.4595634, "tags": {"clothes": "men", "name": "Juan Carlos", "shop": "clothes"}}, {"type": "node", "id": 7741875256, "lat": -34.6375984, "lon": -58.5225811, "tags": {"clothes": "workwear", "name": "La Casa del Ambo", "shop": "clothes"}}, {"type": "node", "id": 7741885418, "lat": -34.5801996, "lon": -58.4720101, "tags": {"clothes": "sports", "name": "SVG", "shop": "clothes"}}, {"type": "node", "id": 7797550944, "lat": -34.5975679, "lon": -58.4979774, "tags": {"clothes": "socks", "name": "Almac\u00e9n de Medias", "shop": "clothes"}}, {"type": "node", "id": 7805379948, "lat": -34.6137209, "lon": -58.5253241, "tags": {"check_date": "2023-10-05", "clothes": "underwear", "name": "Delgado", "payment:cash": "yes", "payment:credit_cards": "yes", "payment:debit_cards": "yes", "shop": "clothes", "wheelchair": "no"}}, {"type": "node", "id": 7813556055, "lat": -34.5712531, "lon": -58.4585718, "tags": {"clothes": "underwear", "name": "Mem\u00e9 Lingerie", "shop": "clothes"}}, {"type": "node", "id": 7888709484, "lat": -34.581138, "lon": -58.4737441, "tags": {"clothes": "children", "name": "Columpio", "shop": "clothes"}}, {"type": "node", "id": 7888717985, "lat": -34.5658574, "lon": -58.4532067, "tags": {"clothes": "underwear", "name": "Mar\u00eda de las Mercedes", "shop": "clothes"}}, {"type": "node", "id": 7967717942, "lat": -34.6057162, "lon": -58.511302, "tags": {"clothes": "underwear", "name": "Ana Grant", "shop": "clothes"}}, {"type": "node", "id": 8043213409, "lat": -34.5662863, "lon": -58.4524588, "tags": {"addr:city": "Ciudad Aut\u00f3noma de Buenos Aires", "addr:housenumber": "1600", "addr:postcode": "C1426ABC", "addr:street": "Avenida Cabildo", "clothes": "women", "name": "Kill", "payment:cash": "yes", "payment:contactless": "yes", "payment:credit_cards": "yes", "payment:debit_cards": "yes", "shop": "clothes", "website": "https://www.kill.com.ar/"}}, {"type": "node", "id": 8094671400, "lat": -34.6053641, "lon": -58.4054986, "tags": {"clothes": "underwear", "name": "Lourdes", "shop": "clothes"}}, {"type": "node", "id": 8253410276, "lat": -34.5938073, "lon": -58.4038933, "tags": {"clothes": "underwear", "name": "Sel\u00fa", "shop": "clothes"}}, {"type": "node", "id": 8260892581, "lat": -34.6248053, "lon": -58.4659376, "tags": {"clothes": "women", "name": "Voltage", "shop": "clothes"}}, {"type": "node", "id": 8561805026, "lat": -34.6048221, "lon": -58.4041153, "tags": {"addr:city": "Ciudad Aut\u00f3noma de Buenos Aires", "addr:country": "AR", "addr:housenumber": "2654", "addr:postcode": "C1046AAR", "addr:street": "Avenida Corrientes", "clothes": "Beb\u00e9s;Futura_Mam\u00e1;Embarazadas;Bebe;Ni\u00f1os;Mayorista;Minorista;Colegial;Comuni\u00f3n;Juguetes", "name": "Blunki", "opening_hours": "Mo-Fr 09:00-18:00 , Sa 09:00-14:00", "payment:cash": "yes", "payment:credit_cards": "yes", "payment:debit_cards": "yes", "phone": "+5491149517456", "shop": "clothes", "stroller": "yes", "website": "https://blunki.com.ar/", "wheelchair": "yes"}}, {"type": "node", "id": 8723684435, "lat": -34.5644771, "lon": -58.4548931, "tags": {"clothes": "men", "name": "Gonz\u00e1lez", "shop": "clothes", "survey:date": "2021-08-20"}}, {"type": "node", "id": 8889334925, "lat": -34.640645, "lon": -58.5301172, "tags": {"clothes": "underwear", "name": "Florencia", "shop": "clothes"}}, {"type": "node", "id": 9025406815, "lat": -34.5656357, "lon": -58.4537053, "tags": {"addr:city": "Ciudad Aut\u00f3noma de Buenos Aires", "addr:housenumber": "1702", "addr:postcode": "C1428", "addr:street": "Avenida Cabildo", "check_date": "2025-10-23", "clothes": "women", "name": "Cardon", "opening_hours": "Mo-Sa 10:00-19:30", "payment:cash": "yes", "payment:credit_cards": "yes", "payment:debit_cards": "yes", "payment:mastercard": "yes", "payment:visa": "yes", "shop": "clothes", "website": "https://cardon.com.ar/"}}, {"type": "node", "id": 9121550851, "lat": -34.5622936, "lon": -58.4562035, "tags": {"addr:city": "Ciudad Aut\u00f3noma de Buenos Aires", "addr:housenumber": "2061", "addr:postcode": "C1428", "addr:street": "Avenida Cabildo", "clothes": "women", "name": "Marea", "shop": "clothes", "website": "https://www.marea.com.ar/"}}, {"type": "node", "id": 9357079530, "lat": -34.5628742, "lon": -58.4578108, "tags": {"addr:housenumber": "2514", "addr:street": "Juramento", "amenity": "fast_food", "check_date": "2025-06-03", "clothes": "women", "name": "La Milaneser\u00eda", "payment:cash": "yes", "payment:credit_cards": "yes", "payment:debit_cards": "yes", "payment:mastercard": "yes", "payment:visa": "yes", "wheelchair": "no"}}, {"type": "node", "id": 9392569384, "lat": -34.5612647, "lon": -58.4579755, "tags": {"addr:city": "Ciudad Aut\u00f3noma de Buenos Aires", "addr:housenumber": "2445", "addr:postcode": "C1428", "addr:street": "Mendoza", "check_date": "2025-10-16", "clothes": "underwear;men", "internet_access": "no", "name": "Eyelit", "payment:cash": "yes", "payment:credit_cards": "yes", "payment:debit_cards": "yes", "payment:mastercard": "yes", "payment:visa": "yes", "shop": "clothes", "website": "https://www.eyelit.com.ar", "wheelchair": "no"}}, {"type": "node", "id": 9536087090, "lat": -34.6047647, "lon": -58.4048725, "tags": {"clothes": "schoolwear", "name": "Suery", "shop": "clothes"}}, {"type": "node", "id": 9536094141, "lat": -34.6033222, "lon": -58.4043773, "tags": {"clothes": "women", "name": "Tull Strass", "shop": "clothes"}}, {"type": "node", "id": 9536098076, "lat": -34.6047395, "lon": -58.4051042, "tags": {"clothes": "women", "name": "Thriller", "shop": "clothes"}}, {"type": "node", "id": 9572012849, "lat": -34.6057819, "lon": -58.4055813, "tags": {"clothes": "women", "name": "Fanamoda", "shop": "clothes"}}, {"type": "node", "id": 9625317200, "lat": -34.6084765, "lon": -58.4640556, "tags": {"addr:street": "Avenida Juan Bautista Justo", "clothes": "underwear", "name": "Laune Lingerie", "shop": "clothes"}}, {"type": "node", "id": 9871119687, "lat": -34.5634066, "lon": -58.4563022, "tags": {"addr:city": "Ciudad Aut\u00f3noma de Buenos Aires", "addr:housenumber": "2460", "addr:postcode": "C1428", "addr:street": "Echeverr\u00eda", "clothes": "children", "name": "A Otra Cosa Mariposa", "shop": "clothes", "website": "https://www.aotracosamariposa.com/"}}, {"type": "node", "id": 9981800862, "lat": -34.6030829, "lon": -58.3887118, "tags": {"clothes": "men", "name": "Salvador Monte", "shop": "clothes"}}, {"type": "node", "id": 9981831480, "lat": -34.6090811, "lon": -58.3845778, "tags": {"addr:city": "Ciudad Aut\u00f3noma de Buenos Aires", "addr:country": "AR", "addr:housenumber": "1274", "clothes": "men", "name": "Romanoff", "shop": "clothes"}}, {"type": "node", "id": 10098337699, "lat": -34.5878722, "lon": -58.4506406, "tags": {"addr:city": "Ciudad Aut\u00f3noma de Buenos Aires", "addr:country": "AR", "addr:housenumber": "3997", "addr:postcode": "C1427EGG", "addr:street": "Avenida Jorge Newbery", "clothes": "women;underwear;sports;hats;outdoor;yes", "name": "Salto de vals", "opening_hours": "Mo-Fr 16:00-19:30, Sa 10:00-13:00", "operator": "Salto de Vals", "payment:american_express": "yes", "payment:app": "yes", "payment:cash": "yes", "payment:credit_cards": "yes", "payment:debit_cards": "yes", "payment:maestro": "yes", "payment:mastercard": "yes", "payment:visa": "yes", "phone": "+5491169304099", "shop": "clothes"}}, {"type": "node", "id": 10153283496, "lat": -34.5592961, "lon": -58.4594084, "tags": {"clothes": "underwear", "name": "Aretha", "shop": "clothes"}}, {"type": "node", "id": 10579295059, "lat": -34.5849487, "lon": -58.4154044, "tags": {"clothes": "underwear", "name": "Aretha", "shop": "clothes"}}, {"type": "node", "id": 10585565681, "lat": -34.5821002, "lon": -58.420665, "tags": {"clothes": "underwear", "name": "Casa Bettina", "shop": "clothes"}}, {"type": "node", "id": 10789220122, "lat": -34.5990886, "lon": -58.4040961, "tags": {"clothes": "sports;underwear", "name": "Engrama", "shop": "clothes"}}, {"type": "node", "id": 10933070880, "lat": -34.561606, "lon": -58.4567861, "tags": {"addr:city": "Ciudad Aut\u00f3noma de Buenos Aires", "addr:country": "AR", "addr:housenumber": "2139", "addr:postcode": "C1428", "addr:street": "Avenida Cabildo", "addr:suburb": "Belgrano", "clothes": "women", "name": "Ver", "shop": "clothes"}}, {"type": "node", "id": 11084957687, "lat": -34.5580217, "lon": -58.4596804, "tags": {"clothes": "children", "name": "Inussual", "shop": "clothes"}}, {"type": "node", "id": 11236474942, "lat": -34.5822145, "lon": -58.4057137, "tags": {"check_date": "2024-01-19", "clothes": "women", "name": "Tao", "shop": "clothes", "website": "https://www.taotienda.com.ar/"}}, {"type": "node", "id": 11351484269, "lat": -34.5860458, "lon": -58.4148466, "tags": {"addr:city": "Ciudad Aut\u00f3noma de Buenos Aires", "addr:housenumber": "3588", "addr:postcode": "C1425", "addr:street": "Avenida Santa Fe", "clothes": "women", "name": "Kimyahan", "shop": "clothes"}}, {"type": "node", "id": 11374843858, "lat": -34.5864553, "lon": -58.4359136, "tags": {"amenity": "bar", "check_date:currency:XBT": "2023-11-25", "clothes": "sports", "currency:XBT": "yes", "name": "Aura", "payment:lightning": "yes", "payment:onchain": "yes"}}, {"type": "node", "id": 11374843859, "lat": -34.5858339, "lon": -58.4357877, "tags": {"amenity": "nightclub", "check_date:currency:XBT": "2023-11-25", "clothes": "sports", "currency:XBT": "yes", "name": "After Office TRENDY Miercoles Palermo", "payment:lightning": "yes", "payment:onchain": "yes"}}, {"type": "node", "id": 11374843860, "lat": -34.5845599, "lon": -58.4366418, "tags": {"addr:street": "Fitz Roy", "amenity": "bar", "check_date:currency:XBT": "2023-11-25", "clothes": "sports", "currency:XBT": "yes", "name": "Famous Loungebar", "payment:lightning": "yes", "payment:onchain": "yes"}}, {"type": "node", "id": 11374843861, "lat": -34.5767859, "lon": -58.4340993, "tags": {"addr:city": "Ciudad Aut\u00f3noma de Buenos Aires", "addr:country": "AR", "addr:housenumber": "5519", "addr:postcode": "C1425", "addr:street": "Paraguay", "addr:suburb": "Palermo", "amenity": "restaurant", "check_date": "2025-11-13", "check_date:currency:XBT": "2023-11-25", "clothes": "sports", "cuisine": "pizza", "currency:XBT": "yes", "name": "Ganesha - Arts & Pizza", "payment:lightning": "yes", "payment:onchain": "yes", "wheelchair": "yes"}}, {"type": "node", "id": 11374843862, "lat": -34.5727267, "lon": -58.4301895, "tags": {"amenity": "restaurant", "check_date": "2025-04-03", "check_date:currency:XBT": "2023-11-25", "clothes": "sports", "cuisine": "argentinian", "currency:XBT": "no", "name": "El Estanciero", "payment:lightning": "no", "payment:onchain": "no"}}, {"type": "node", "id": 11374843863, "lat": -34.5727785, "lon": -58.4301011, "tags": {"check_date:currency:XBT": "2023-11-25", "clothes": "sports", "currency:XBT": "yes", "name": "Oslo", "payment:lightning": "yes", "payment:onchain": "yes", "shop": "wine"}}, {"type": "node", "id": 11374843864, "lat": -34.6291719, "lon": -58.461736, "tags": {"check_date:currency:XBT": "2023-11-25", "clothes": "sports", "currency:XBT": "yes", "name": "Liberia BBM", "payment:lightning": "yes", "payment:onchain": "yes", "shop": "books"}}, {"type": "node", "id": 11374843865, "lat": -34.6309621, "lon": -58.4598489, "tags": {"check_date:currency:XBT": "2023-11-25", "clothes": "sports", "currency:XBT": "yes", "name": "Oszadia", "payment:lightning": "yes", "payment:onchain": "yes", "shop": "books"}}, {"type": "node", "id": 11374867041, "lat": -34.6180603, "lon": -58.4363252, "tags": {"check_date:currency:XBT": "2023-11-25", "clothes": "sports", "currency:XBT": "yes", "name": "Tiempo Sol", "payment:lightning": "yes", "payment:onchain": "yes", "shop": "clothes"}}, {"type": "node", "id": 11374906592, "lat": -34.5754096, "lon": -58.4854212, "tags": {"check_date:currency:XBT": "2023-11-25", "clothes": "women", "currency:XBT": "yes", "name": "Forlans Hnas", "payment:lightning": "yes", "payment:onchain": "yes", "shop": "clothes"}}, {"type": "node", "id": 11394875189, "lat": -34.5891855, "lon": -58.5200658, "tags": {"clothes": "workwear", "name": "Trans Oil", "shop": "clothes"}}, {"type": "node", "id": 11406231644, "lat": -34.5874411, "lon": -58.3892029, "tags": {"addr:city": "Ciudad Aut\u00f3noma de Buenos Aires", "addr:country": "AR", "addr:housenumber": "1901", "addr:street": "Avenida Alvear", "check_date": "2023-12-09", "clothes": "women;men", "name": "Hermes", "payment:cash": "yes", "payment:credit_cards": "yes", "payment:debit_cards": "yes", "shop": "fashion_accessories", "website": "https://hermes.com"}}, {"type": "node", "id": 11702607016, "lat": -34.5881155, "lon": -58.4111991, "tags": {"addr:city": "Ciudad Aut\u00f3noma de Buenos Aires", "addr:housenumber": "3281", "addr:postcode": "c1425", "addr:street": "Avenida Santa Fe", "clothes": "men;underwear", "name": "Eyelit", "shop": "clothes", "website": "https://www.eyelit.com.ar/"}}, {"type": "node", "id": 11702624448, "lat": -34.5858166, "lon": -58.4146587, "tags": {"addr:city": "Ciudad Aut\u00f3noma de Buenos Aires", "addr:housenumber": "3589", "addr:postcode": "C1425", "addr:street": "Avenida Santa Fe", "clothes": "underwear;men", "name": "Eyelit", "shop": "clothes", "website": "https://eyelit.com.ar/"}}, {"type": "node", "id": 11724786555, "lat": -34.5565125, "lon": -58.4515748, "tags": {"addr:city": "Ciudad Aut\u00f3noma de Buenos Aires", "addr:country": "AR", "addr:housenumber": "2276", "addr:street": "Arribe\u00f1os", "addr:suburb": "Belgrano", "clothes": "women", "name": "Lao Chuen Zhang", "shop": "clothes"}}, {"type": "node", "id": 11776437823, "lat": -34.6032722, "lon": -58.4104292, "tags": {"brand": "Levi's", "brand:wikidata": "Q127962", "clothes": "denim;men;women", "level": "0", "name": "Levi's", "shop": "clothes"}}, {"type": "node", "id": 11809768104, "lat": -34.6083892, "lon": -58.4065334, "tags": {"clothes": "underwear", "name": "Lencer\u00eda", "shop": "clothes"}}, {"type": "node", "id": 11809775787, "lat": -34.6083852, "lon": -58.4064321, "tags": {"clothes": "children", "name": "Micaela", "shop": "clothes"}}, {"type": "node", "id": 11877943136, "lat": -34.5519895, "lon": -58.4612839, "tags": {"clothes": "workwear", "name": "Iber\u00e1", "shop": "clothes"}}, {"type": "node", "id": 11884679598, "lat": -34.6067875, "lon": -58.405814, "tags": {"clothes": "underwear", "name": "Gloria", "shop": "clothes"}}, {"type": "node", "id": 11884684169, "lat": -34.6076328, "lon": -58.4059294, "tags": {"clothes": "underwear", "name": "Kaury", "shop": "clothes"}}, {"type": "node", "id": 11935400543, "lat": -34.593715, "lon": -58.4321792}, {"type": "node", "id": 11935400544, "lat": -34.5939118, "lon": -58.4319997}, {"type": "node", "id": 11935400545, "lat": -34.5938687, "lon": -58.4319223}, {"type": "node", "id": 11935400546, "lat": -34.5936747, "lon": -58.4321079}, {"type": "node", "id": 11938038315, "lat": -34.651087, "lon": -58.5021632}, {"type": "node", "id": 11975412596, "lat": -34.6081896, "lon": -58.4059086, "tags": {"clothes": "underwear", "name": "Lencer\u00eda Sof\u00eda", "shop": "clothes"}}, {"type": "node", "id": 11975428099, "lat": -34.6085621, "lon": -58.4058799, "tags": {"clothes": "underwear", "name": "Karen", "shop": "clothes"}}, {"type": "node", "id": 11992242139, "lat": -34.6035288, "lon": -58.4050361, "tags": {"clothes": "underwear", "shop": "clothes"}}, {"type": "node", "id": 12038565356, "lat": -34.5919497, "lon": -58.4010644, "tags": {"addr:housenumber": "1665", "addr:street": "Avenida Pueyrred\u00f3n", "clothes": "men", "name": "De Ferrari", "shop": "clothes"}}, {"type": "node", "id": 12099102998, "lat": -34.6554518, "lon": -58.4288926, "tags": {"addr:city": "CABA", "addr:housenumber": "1931", "addr:postcode": "1437", "addr:street": "Tabar\u00e9", "clothes": "sports", "name": "Tienda Crespo Juniors", "opening_hours": "Mo-We 17:30-20:30", "shop": "clothes"}}, {"type": "node", "id": 12141113923, "lat": -34.5959664, "lon": -58.4031019, "tags": {"clothes": "underwear", "shop": "clothes"}}, {"type": "node", "id": 12141134485, "lat": -34.5861435, "lon": -58.4146881, "tags": {"addr:city": "Ciudad Aut\u00f3noma de Buenos Aires", "addr:housenumber": "3566", "addr:postcode": "C1425", "addr:street": "Avenida Santa Fe", "clothes": "women", "name": "Rakis", "shop": "clothes"}}, {"type": "node", "id": 12166503460, "lat": -34.5999774, "lon": -58.3778054, "tags": {"clothes": "dresses", "name": "Mis Fabulosos 15", "shop": "clothes"}}, {"type": "node", "id": 12169188445, "lat": -34.5881743, "lon": -58.4111245, "tags": {"addr:city": "Ciudad Aut\u00f3noma de Buenos Aires", "addr:housenumber": "3277", "addr:postcode": "c1425", "addr:street": "Avenida Santa Fe", "clothes": "children", "name": "Grisino", "shop": "clothes", "website": "https://www.grisino.com/"}}, {"type": "node", "id": 12187428939, "lat": -34.586016, "lon": -58.4149014, "tags": {"addr:city": "Ciudad Aut\u00f3noma de Buenos Aires", "addr:housenumber": "3590", "addr:postcode": "C1425", "addr:street": "Avenida Santa Fe", "clothes": "women", "name": "Cocot", "shop": "clothes", "website": "https://www.cocot.com.ar/"}}, {"type": "node", "id": 12301844833, "lat": -34.5670006, "lon": -58.4510625, "tags": {"addr:city": "Ciudad Aut\u00f3noma de Buenos Aires", "addr:housenumber": "1504", "addr:postcode": "C1426", "addr:street": "Avenida Cabildo", "clothes": "underwear;men", "name": "Eyelit", "shop": "clothes", "website": "https://eyelit.com.ar/"}}, {"type": "node", "id": 12401044849, "lat": -34.6018125, "lon": -58.4947608, "tags": {"clothes": "women", "level": "0", "name": "Como Quieres", "shop": "clothes"}}, {"type": "node", "id": 12401044883, "lat": -34.6016839, "lon": -58.4944178, "tags": {"clothes": "underwear", "name": "Eyelit", "shop": "clothes"}}, {"type": "node", "id": 12401044890, "lat": -34.6018311, "lon": -58.4943497, "tags": {"clothes": "women", "name": "Sweet", "shop": "clothes"}}, {"type": "node", "id": 12401044893, "lat": -34.6017783, "lon": -58.4945475, "tags": {"clothes": "women", "level": "1", "name": "Wanama", "shop": "clothes"}}, {"type": "node", "id": 12401044896, "lat": -34.6018103, "lon": -58.4942565, "tags": {"clothes": "men", "level": "1", "name": "Valker", "shop": "clothes"}}, {"type": "node", "id": 12539212925, "lat": -34.5527839, "lon": -58.464788, "tags": {"clothes": "sports", "name": "Needtime", "shop": "clothes"}}, {"type": "node", "id": 12630554202, "lat": -34.5937089, "lon": -58.4040811, "tags": {"branch": "Nasmie", "brand": "Triumph", "brand:wikidata": "Q671216", "clothes": "underwear", "name": "Triumph", "shop": "clothes"}}, {"type": "node", "id": 12738208952, "lat": -34.561752, "lon": -58.4572001, "tags": {"clothes": "underwear", "name": "Adrian", "shop": "clothes"}}, {"type": "node", "id": 12796135070, "lat": -34.6396974, "lon": -58.4777063, "tags": {"addr:city": "Ciudad Aut\u00f3noma de Buenos Aires", "addr:housenumber": "3801", "addr:postcode": "1407", "addr:street": "Avenida Directorio", "clothes": "women;hats;underwear", "name": "Dual - Concept Store", "opening_hours": "Mo-Fr 14:00-18:00; Sa 12:00-16:00", "payment:cash": "yes", "payment:contactless": "yes", "payment:credit_cards": "yes", "payment:debit_cards": "yes", "payment:mercado_pago": "yes", "phone": "+5491162554216", "shop": "fashion_accessories"}}, {"type": "node", "id": 12842943741, "lat": -34.6748046, "lon": -58.458138}, {"type": "node", "id": 12842943742, "lat": -34.6747182, "lon": -58.4582479}, {"type": "node", "id": 12842943763, "lat": -34.6754278, "lon": -58.4581535}, {"type": "node", "id": 12844381489, "lat": -34.674645, "lon": -58.4582444}, {"type": "node", "id": 12844381490, "lat": -34.6745908, "lon": -58.4583128}, {"type": "node", "id": 12844381491, "lat": -34.6745747, "lon": -58.4578733}, {"type": "node", "id": 12844381494, "lat": -34.6747319, "lon": -58.4580543}, {"type": "node", "id": 12844448012, "lat": -34.675759, "lon": -58.4594499}, {"type": "node", "id": 12844448013, "lat": -34.6756656, "lon": -58.4595677}, {"type": "node", "id": 12844448014, "lat": -34.675616, "lon": -58.4595102}, {"type": "node", "id": 12844448015, "lat": -34.6757096, "lon": -58.4593923}, {"type": "node", "id": 12844448023, "lat": -34.6755428, "lon": -58.4582875}, {"type": "node", "id": 12844448024, "lat": -34.6757919, "lon": -58.4579711}, {"type": "node", "id": 12898215579, "lat": -34.6755052, "lon": -58.4580541}, {"type": "node", "id": 12898215580, "lat": -34.6754569, "lon": -58.4579985}, {"type": "node", "id": 12898215581, "lat": -34.6756275, "lon": -58.4577779}, {"type": "node", "id": 12901246644, "lat": -34.5751672, "lon": -58.4070365, "tags": {"clothes": "fashion", "contact:instagram": "https://www.instagram.com/casaalcorta/?hl=es", "name": "Casa Alcorta", "shop": "clothes"}}, {"type": "node", "id": 12995190709, "lat": -34.6107081, "lon": -58.482155, "tags": {"clothes": "underwear", "name": "Adelfa", "shop": "clothes"}}, {"type": "node", "id": 13289255020, "lat": -34.573071, "lon": -58.4393113, "tags": {"addr:city": "Ciudad Aut\u00f3noma de Buenos Aires", "addr:housenumber": "272", "addr:postcode": "C1426", "addr:street": "Avenida Cabildo", "clothes": "women", "name": "Benita", "shop": "clothes", "wheelchair": "no"}}, {"type": "way", "id": 470385649, "nodes": [4645864150, 4645864155, 4645864156, 4645864154, 4645864150], "tags": {"addr:city": "Ciudad Aut\u00f3noma de Buenos Aires", "addr:country": "AR", "addr:postcode": "C1428", "addr:street": "Avenida Cabildo", "addr:suburb": "Belgrano", "building": "yes", "check_date": "2023-08-26", "clothes": "children", "name": "Mimo & Co", "shop": "clothes", "wheelchair": "yes"}}, {"type": "way", "id": 470385652, "nodes": [4645864165, 4645864166, 4645864167, 4645864161, 4645864165], "tags": {"addr:city": "Ciudad Aut\u00f3noma de Buenos Aires", "addr:country": "AR", "addr:housenumber": "2050", "addr:postcode": "C1428", "addr:street": "Avenida Cabildo", "addr:suburb": "Belgrano", "building": "yes", "clothes": "women", "name": "Cuesta Blanca", "opening_hours": "Mo-Sa 09:00-21:00; Su 12:00-20:00", "shop": "clothes", "website": "https://www.cuestablanca.com/", "wheelchair": "yes"}}, {"type": "way", "id": 471512606, "nodes": [4656685126, 4656685127, 4656685128, 4656685129, 4656685130, 4656685126], "tags": {"addr:city": "Ciudad Aut\u00f3noma de Buenos Aires", "addr:country": "AR", "addr:street": "Avenida Forest", "brand": "Columbia", "brand:wikidata": "Q1112588", "brand:wikipedia": "en:Columbia Sportswear", "building": "yes", "clothes": "outdoor", "name": "Columbia", "official_name": "Columbia Sportswear", "shop": "clothes", "website": "https://www.columbiasportswear.com.ar/"}}, {"type": "way", "id": 471622047, "nodes": [4657846731, 4657846730, 4657846733, 4660848417, 4657846734, 4657846731], "tags": {"addr:city": "Ciudad Aut\u00f3noma de Buenos Aires", "addr:country": "AR", "addr:street": "Segurola", "building": "yes", "clothes": "lingerie", "name": "Sol y Oro", "shop": "clothes"}}, {"type": "way", "id": 473451077, "nodes": [4675671014, 4675671016, 4675671017, 4675671018, 4675671019, 4675671020, 4675671014], "tags": {"addr:city": "Ciudad Aut\u00f3noma de Buenos Aires", "addr:country": "AR", "addr:street": "Avenida C\u00f3rdoba", "brand": "Levi's", "brand:wikidata": "Q127962", "brand:wikipedia": "en:Levi Strauss & Co.", "building": "yes", "check_date": "2024-03-15", "clothes": "denim;men;women", "name": "Levi's", "shop": "clothes"}}, {"type": "way", "id": 474489075, "nodes": [4684371787, 4684371788, 4684371989, 4684371990, 4684371991, 4684371787], "tags": {"addr:city": "Ciudad Aut\u00f3noma de Buenos Aires", "addr:country": "AR", "addr:street": "Avenida Juan Bautista Alberdi", "building": "yes", "clothes": "sports", "name": "Aral sports", "opening_hours": "Mo-Sa 10:00-19:50", "shop": "clothes"}}, {"type": "way", "id": 477615564, "nodes": [4709309163, 4709309164, 4709309165, 4709309166, 4709309167, 4709309163], "tags": {"addr:city": "Ciudad Aut\u00f3noma de Buenos Aires", "addr:housenumber": "401", "addr:street": "Avenida Ra\u00fal Scalabrini Ortiz", "building": "yes", "building:levels": "2", "clothes": "men", "name": "Gaucho", "shop": "clothes", "source": "Reconocimiento terrestre por Kaart 2016"}}, {"type": "way", "id": 815869960, "nodes": [4250383004, 7619781610, 4669650786, 4669653689, 4250383004], "tags": {"addr:city": "Ciudad Aut\u00f3noma de Buenos Aires", "addr:housenumber": "709", "addr:postcode": "1414", "addr:street": "Loyola", "building": "retail", "clothes": "women;men", "name": "Belvedere", "opening_hours": "Mo-Sa 11:00-19:00", "phone": "+54 11 4774-5606", "shop": "clothes", "website": "https://www.belvedere.com.ar/"}}, {"type": "way", "id": 1286876905, "nodes": [11935400543, 11935400544, 11935400545, 11935400546, 11935400543], "tags": {"addr:city": "Ciudad Aut\u00f3noma de Buenos Aires", "addr:housenumber": "1116", "addr:postcode": "1414", "addr:street": "Malabia", "brand": "Atelier Molina", "building": "commercial", "clothes": "women;men;underwear;wedding;children;maternity;oversize", "contact:facebook": "https://www.instagram.com/atelier_molina/", "description": "Tienda de Alta Costura", "email": "hola@ateliermolina.com.ar", "image": "https://lh5.googleusercontent.com/p/AF1QipOrK9yP44D8Qx1FP7z7uB1aobvsnPtBVGQ1D2Wy=w1200-h642-p-k-no", "name": "Atelier Molina", "payment:american_express": "yes", "payment:cash": "yes", "payment:credit_cards": "yes", "payment:debit_cards": "yes", "payment:mastercard": "yes", "payment:visa": "yes", "phone": "+5491164266863", "shop": "clothes", "website": "https://ateliermolina.com.ar/"}}, {"type": "way", "id": 1287181629, "nodes": [4684372010, 11938038315, 4684372008, 4684372009, 4684372010], "tags": {"addr:city": "Ciudad Aut\u00f3noma de Buenos Aires", "addr:housenumber": "5795", "addr:postcode": "C1440AAI", "addr:street": "Avenida Juan Bautista Alberdi", "building": "commercial", "clothes": "underwear;women", "name": "gabriela's secret", "name:en": "gabriela's secret", "opening_hours": "Mo-Fr 10:00-14:00+,14:30-20:30; Sa 10:00-14:00", "payment:cash": "yes", "shop": "clothes"}}, {"type": "way", "id": 1387555730, "nodes": [12842943742, 12844381489, 12844381490, 1292036659, 12844381491, 12844381494, 12842943741, 12842943742], "tags": {"addr:housenumber": "Local 1008", "clothes": "sports", "indoor": "yes", "name": "Dexter", "opening_hours": "Mo-Sa 10:00-22:00", "payment:credit_cards": "yes", "phone": "011 5796-0053", "shop": "clothes", "website": "https://www.dexter.com.ar/", "wheelchair": "yes"}}, {"type": "way", "id": 1387555740, "nodes": [12844448012, 12844448013, 12844448014, 12844448015, 12844448012], "tags": {"addr:housenumber": "Local 1172", "clothes": "men", "indoor": "yes", "name": "Rever Pass", "opening_hours": "Mo-Sa 10:00-20:00", "payment:credit_cards": "yes", "shop": "clothes", "website": "https://www.reverpass.com/"}}, {"type": "way", "id": 1393388954, "nodes": [12842943763, 12898215579, 12898215580, 12898215581, 12844448024, 12844448023, 12842943763], "tags": {"addr:housenumber": "Local 1264", "clothes": "sports", "indoor": "yes", "name": "Stock Center", "opening_hours": "Mo-Su 10:00-22:00", "payment:credit_cards": "yes", "shop": "clothes", "wheelchair": "yes"}}]}